Postcode	Town	Region
M18	Abbey Hey, Gorton	Manchester
PR6	Abbey Village, Adlington, Anderton, Anglezarke, Astley Village, Brindle, Brinscall, Clayton-le-Woods, Cuerden, Heapey, Heath Charnock, Wheelton, White Coppice, Whittle-le-Woods, Withnell	Chorley
SE2	Abbey Wood, West Heath, Crossness, Thamesmead	Greenwich
S7	Abbeydale, Nether Edge, Millhouses, Carter Knowle	Sheffield
PE28	Abbots Ripton, Alconbury, Alconbury Weston, Barham, Bluntisham, Brampton, Broughton, Buckworth, Bythorn, Catworth, Colne, Coppingford, Covington, Earith, Easton, Ellington, Fenstanton, Glatton, Grafham, Great Gidding, Great Stukeley, Hamerton, Hartford, Hemingford Abbots, Hemingford Grey, Hilton, Houghton, Keyston, Kimbolton, Kings Ripton, Leighton Bromswold, Little Gidding, Little Stukeley, Lower Dean, Molesworth, Old Hurst, Old Weston, Perry, Pidley, Sawtry, Somersham, Spaldwick, Stow Longa, Tilbrook, Upper Dean, Warboys, Wennington, Winwick, Wistow, Woodhurst, Woodwalton, Woolley, Wyton	Huntingdonshire
SA46	Aberaeron	Ceredigion
SA12	Aberafan, Aberavon, Baglan, Cwmafan, Port Talbot town centre, Sandfields,	Neath Port Talbot
AB54	Aberchirder, Cabrach, Cairnie, Forgue, Gartly, Glass, Kennethmont, Lumsden, Rhynie, Rothiemay	Aberdeenshire
SA9	Abercraf, Cwmllynfell, Cwmtwrch, Lower Cwmtwrch, Rhiwfawr, Upper Cwmtwrch, Ystalyfera, Ystradgynlais	Neath Port Talbot
CF44	Aberdare, Cwmaman, Aberaman, Llwydcoed, Cwmbach, Hirwaun, Penywaun, Rhigos, Penderyn	Rhondda Cynon Taf
AB10	Aberdeen city centre, Bridge of Dee, Mannofield	Aberdeen
AB25	Aberdeen city centre, Kittybrewster, Foresterhill, Rosemount, George Street	Aberdeen
AB11	Aberdeen city centre, Torry	Aberdeen
AB12	Aberdeen, Altens, Ardoe, Banchory Devenick, Blairs, Bridge of Dee, Cove Bay, Maryculter, Nigg, Portlethen	Aberdeen
AB23	Aberdeen, Balmedie, Belhelvie, Bridge of Don, Potterton, Whitecairns	Aberdeen
AB15	Aberdeen, Bieldside, Craigiebuckler, Cults, Hazlehead, Kingswells, Mannofield, Milltimber	Aberdeen
AB21	Aberdeen, Blackburn, Bucksburn, Dyce, Fintray, Kinellar, Newmachar, Whiterashes	Aberdeen
AB22	Aberdeen, Bridge of Don, Danestone, Grandholm, Persley	Aberdeen
AB16	Aberdeen, Mastrick, Northfield, Middlefield, Cornhill	Aberdeen
AB24	Aberdeen, Old Aberdeen, Woodside, Tillydrone, Seaton, Bedford	Aberdeen
LL35	Aberdovey	Gwynedd
SA10	Aberdulais, Bryncoch, Cadoxton, Caewern, Coed Darcy, Crynant, Jersey Marine, Llandarcy, Neath Abbey, Onllwyn, Seven Sisters, Skewen	Neath Port Talbot
PH15	Aberfeldy	Perth and Kinross
LS25	Aberford, Ferry Fryston, Garforth, Hillam, Kippax, Ledsham, Micklefield, Monk Fryston, Sherburn-in-Elmet	Leeds
NP7	Abergavenny	Monmouthshire
LL22	Abergele, Betws Yn Rhos, Gwytherin, Llanddulas, Llanfairtalhaiarn, Llangernyw, Moelfre, Pandy Tudur, Rhyd-y-Foel, Glascoed, St. George	Denbighshire
LL33	Abergwyngregyn, Llanfairfechan	Conwy
AB38	Aberlour	Moray
NP13	Abertillery	Blaenau Gwent
PH3	Aberuthven	Perth and Kinross
SY23	Aberystwyth, Llanon, Llanrhystud	Ceredigion
OX14	Abingdon, Appleford-on-Thames, Burcot, Clifton Hampden, Culham, Drayton, Little Wittenham, Long Wittenham, Radley, Milton, Sutton Courtenay	South Oxfordshire
AB34	Aboyne	Aberdeenshire
WN2	Abram, Aspull, Bamfurlong, Bickershaw, Haigh, Hindley, Hindley Green, Ince, Platt Bridge	Wigan
NN12	Abthorpe, Caswell, Greens Norton, Silverstone, Towcester, Weston	South Northamptonshire
BB5	Accrington, Altham, Baxenden, Church, Clayton-le-Moors, Huncoat, Oswaldtwistle, Rising Bridge	Hyndburn
PH36	Acharacle	Highland
IV22	Achnasheen	Highland
TS5	Acklam, Linthorpe	Middlesbrough
WF7	Ackworth Moor Top, Featherstone, Purston Jaglin, Streethouse	Wakefield
NR13	Acle, Brundall, Reedham, Rackheath, Salhouse	Norfolk
B27	Acocks Green	Birmingham
YO24	Acomb, Dringhouses, Woodthorpe	York
YO26	Acomb, Leeman Road Area, Upper Poppleton, Nether Poppleton, Green Hammerton	York
BB4	Acre, Bent Gate, Haslingden, Helmshore, Rawtenstall	Rossendale
W3	Acton, East Acton, Park Royal, West Acton	Ealing
OX17	Adderbury, Aynho, Arlescote, Chacombe, Charlton, Chipping Warden, Claydon, Cropredy, Culworth, Edgcote, Farnborough, Great Bourton, Hanwell, King's Sutton, Little Bourton, Lower Thorpe, Marston St Lawrence, Middleton Cheney, Mollington, Nethercote, Newbottle, Overthorpe, Shotteswell, Stuchbury, Sulgrave, Thenford, Thorpe Mandeville, Twyford, Wardington, Warkworth, Warmington, Williamscott	Cherwell
LS29	Addingham, Ben Rhydding, Burley in Wharfedale, Ilkley, Menston	Bradford
MK18	Addington, Adstock, Akeley, Barton Hartshorn, Botolph Claydon, Buckingham, Calvert, Chackmore, Chetwode, Dadford, Dunton, East Claydon, Finmere, Foscott, Gawcott, Granborough, Hillesden, Hoggeston, Leckhamstead, Lillingstone Dayrell, Lillingstone Lovell, Maids Moreton, Middle Claydon, Newton Purcell, Oxfordshire, North Marston, Padbury, Shalstone, Steeple Claydon, Tingewick, Thornborough, Water Stratford, Winslow	Aylesbury Vale
KT15	Addlestone, New Haw	Runnymede
PE24	Addlethorpe, Anderby, Anderby Creek, Ashington End, Bratoft, Burgh Le Marsh, Chapel St Leonards, Croft, Hogsthorpe, Orby, Wainfleet	East Lindsey
LS16	Adel, Bramhope, Cookridge, Eccup, Far Headingley, Holt Park, Ireland Wood, Lawnswood, Moor Grange, Tinshill, Weetwood, West Park	Leeds
PR7	Adlington, Buckshaw Village, Charnock Richard, Coppull, Eccleston, Euxton, Heath Charnock, Heskin	Chorley
DN6	Adwick-le-Street, Askern, Campsall, Moss, Norton, Sutton, Walden Stubbs, Woodlands	Doncaster
BT67	Aghagallon, Aghalee, Gawley's Gate, Lurgan, Magheralin, Moira	Craigavon
L19	Aigburth, Garston, Grassendale	Liverpool
L17	Aigburth, St Michael's Hamlet, Sefton Park	Liverpool
PE5	Ailsworth, Castor, Sutton	Peterborough
PR8	Ainsdale, Birkdale, Blowick	Sefton
L10	Aintree Village, Fazakerley	Liverpool
L9	Aintree, Fazakerley, Orrell Park, Walton	Liverpool
ML6	Airdrie, Calderbank, Caldercruix, Chapelhall, Forrestfield, Gartness, Glenmavis, Greengairs, Plains, Riggend, Stand, Wattston	North Lanarkshire
WF10	Airedale, Allerton Bywater, Castleford, Glasshoughton	Wakefield
NE13	Airport, Wideopen, Dinnington	Newcastle
WV7	Albrighton	Wolverhampton
GU5	Albury, Bramley, Shere	Guildford
SG11	Albury, Braughing, Bury Green, Colliers End, Haultwick, High Cross, Little Hadham, Nasty, Patmore Heath, Puckeridge, Standon, Standon Green End	East Hertfordshire
NR11	Alby with Thwaite, Aldborough, Aylmerton, Aylsham, Banningham, Blickling, East Beckham, Little Barningham, Hanworth, North Barningham, Roughton, Felbrigg, Gimingham, Ingworth, Matlask, Mundesley, Southrepps, Wickmere	Norfolk
B49	Alcester	Stratford-on-Avon
B50	Alcester	Stratford-on-Avon
HP23	Aldbury, Buckland Common, Cholesbury, Hastoe, Long Marston, Marsworth, New Mill, Puttenham, St Leonards, Tring, Wigginton, Wilstone	Dacorum
IP15	Aldeburgh	Suffolk Coastal
SK9	Alderley Edge, Wilmslow, Handforth, Styal	Cheshire East
RG7	Aldermaston, Bradfield, Burghfield Common, Silchester, Mortimer, Theale	Berkshire
GU11	Aldershot	Rushmoor
GU12	Aldershot, Ash, Ash Green, Ash Vale	Rushmoor
NN7	Alderton, Blisworth, Bugbrooke, Castle Ashby, Cogenhoe, Dodford, Flore, Gayton, Grafton Regis, Hackleton, Harpole, Harlestone, Hartwell, Horton, Milton Malsor, Nether Heyford, Piddington, Preston Deanery, Quinton, Roade, Rothersthorpe, Stoke Bruerne, Weedon Bec, Yardley Gobion, Yardley Hastings, Weedon Bec	Daventry
E1	Aldgate, Bishopsgate, Whitechapel, Shoreditch, Spitalfields, Shadwell, Stepney, Mile End, Portsoken	Tower Hamlets
CB6	Aldreth, Apes Hall, Chettisham, Coveney, Ely, Haddenham, Little Downham, Little Thetford, Littleport, Mepal, Pymore, Stretham, Sutton, Wardy Hill, Wentworth, Wilburton, Witcham, Witchford	Ely
WS9	Aldridge, Brownhills	Walsall
AB33	Alford	Aberdeenshire
LN13	Alford	Lincoln
PE20	Algarkirk, Amber Hill, Bicker, Brothertoft, Fosdyke, Frampton, Kirton, Sutterton, Swineshead, Wigtoft	Boston
DN15	Alkborough, Appleby, Burton upon Stather, Coleby, Dragonby, Flixborough, Flixborough Ind Estate, Foxhills Ind Estate, Gunness, High Risby, High Santon, Low Risby, Low Santon, Normanby, Roxby, Scunthorpe, Thealby, West Halton, Whitton, Wintringham, Winterton	North Lincolnshire
WV2	All Saints , Blakenhall, Parkfields	Wolverhampton
NE47	Allendale Town, Allenheads, Haydon Bridge, Bardon Mill	Northumberland
DE24	Allenton, Alvaston, Boulton, Osmaston, Shelton Lock, Sinfin, Wilmorton, Stenson Fields	Derby
L18	Allerton, Mossley Hill	Liverpool
BD15	Allerton, Norr, Wilsden	Bradford
CV5	Allesley, Allesley Park, Allesley Green, Earlsdon, Eastern Green, Whoberley, Chapelfields, Mount Nod, Brownshill Green	Coventry
DE22	Allestree, Darley Abbey, Mackworth Estate, Kedleston, Mackworth, Quarndon	Derby
FK10	Alloa, Clackmannan, Sauchie, Tullibody	Falkirk
SA8	Alltwen, Cwmtawe, Pontardawe, Rhos, Rhyd-y-fro, Trebanos, Ynysmeudwy	Neath Port Talbot
HD5	Almondbury, Dalton, Kirkheaton, Moldgreen, Waterloo	Kirklees
BS32	Almondsbury, Bradley Stoke	South Gloucestershire
IV17	Alness	Highland
NE66	Alnwick, Alnmouth, Embleton, Powburn	Northumberland
HA0	Alperton, Sudbury, Sudbury Hill, Wembley Central, North Wembley	Harrow
DE13	Alrewas, Barton-under-Needwood, Rolleston on Dove, Tutbury	East Staffordshire
CA9	Alston, Garrigill, Nenthead	Eden
DN17	Althorpe, Amcotts, Bottesford Moor, Bottesford, Crowle, Derrythorpe, Ealand, East Butterwick, Eastoft, Garthorpe, Gunness, Keadby, Luddington, Messingham, North Ewster, Scunthorpe, Susworth, West Butterwick, Yaddlethorpe	North Lincolnshire
WF6	Altofts, Normanton	Wakefield
GU34	Alton, Beech, Bentworth, Medstead, Four Marks, Golden Pot, Lasham	East Hampshire
WA15	Altrincham, Ashley, Hale, Hale Barns, Timperley, Ringway	Trafford
WA14	Altrincham, Bowdon, Broadheath, Dunham Town, Timperley, Dunham Massey, Little Bollington	Trafford
FK12	Alva	Falkirk
B48	Alvechurch	Bromsgrove Worcestershire
WF1	Alverthorpe, Eastmoor, Kirkthorpe, Outwood, Wakefield City Centre	Wakefield
OX18	Alvescot, Asthall, Aston, Bampton, Barrington, Black Bourton, Bradwell, Brize Norton, Burford, Carterton, Chimney, Clanfield, Cote, Fulbrook, Grafton, Holwell, Lew, Little Clanfield, Radcot, Shilton, Signet, Swinbrook, Taynton, Upper Windrush, Upton, Weald, Westwell, Widford, Windrush	West Oxfordshire
BS35	Alveston, Rudgeway, Thornbury	South Gloucestershire
PE2	Alwalton, Fletton, The Ortons, Stanground, Woodston	Peterborough
LS17	Alwoodley, Bardsey, East Keswick, Eccup, Harewood, Moor Allerton, Moortown, Shadwell, Weardley, Wike	Leeds
PH11	Alyth	Perth and Kinross
DE72	Ambaston, Aston-on-Trent, Borrowash, Breaston, Church Wilne, Draycott, Elvaston, Ockbrook, Risley, Shardlow, Weston-on-Trent	Erewash
DE56	Ambergate, Belper, Duffield, Heage, Holbrook, Kilburn, Milford	Amber Valley
LA22	Ambleside, Hawkshead, Near Sawrey	South Lakeland
OX25	Ambrosden, Arncott, Blackthorn, Caulcott, Duns Tew, Little Chesterton, Lower Heyford, Merton, Middle Aston, Middleton Stoney, North Aston, Piddington, Rousham, Somerton, Steeple Aston, Steeple Barton, Upper Heyford, Wendlebury, Weston-on-the-Green	Cherwell
HP6	Amersham, Chesham Bois, Hyde Heath, Little Chalfont	Chiltern
HP7	Amersham, Coleshill, Little Chalfont, Little Missenden, Penn Street, Winchmore Hill	Chiltern
LL68	Amlwch, Bull Bay, Carreglefn, Llanfechell, Rhosybol	Anglesey
SA18	Ammanford town centre, Betws, Gwaun-Cae-Gurwen, Lower Brynamman	Carmarthenshire
MK45	Ampthill, Barton-le-Clay, Clophill, Cotton End, Flitton, Flitwick, Gravenhurst, Greenfield, Haynes, Haynes Church End, Herring's Green, Houghton Conquest, How End, Kempston Hardwick, Maulden, Millbrook, Pulloxhill, Sharpenhoe, Silsoe, Steppingley, Westoning, Wilstead	Bedford
M4	Ancoats, Northern Quarter, Strangeways	Manchester
G3	Anderston, Finnieston, Garnethill, Park, Woodlands, Yorkhill	Glasgow
SP10	Andover	Test Valley
SE20	Anerley, Crystal Palace, Penge, Beckenham	Bromley
L5	Anfield, Everton, Kirkdale, Vauxhall	Liverpool
L4	Anfield, Kirkdale, Walton	Liverpool
L6	Anfield, Liverpool City Centre, Everton, Fairfield, Kensington, Tuebrook	Liverpool
BN16	Angmering, East Preston, Kingston Gorse, Rustington	Arun
HU10	Anlaby, Kirk Ella, West Ella, Willerby	East Riding of Yorkshire
DG12	Annan	Dumfriesshire
G13	Anniesland, Knightswood, Yoker	Glasgow
S25	Anston, Dinnington, Laughton-en-le-Morthen	Rotherham
KY10	Anstruther	Fife
RH17	Ansty, Ardingly, Balcombe, Bolney, Chelwood Gate, Cuckfield, Danehill, Handcross, Hickstead, Horsted Keynes, Wivelsfield, Wivelsfield Green	Mid Sussex
NR28	Antingham, Crostwight, Honing, Knapton, Paston, Ridlington	Norfolk
BT41	Antrim, Dunadry, Muckamore, Randalstown, Toomebridge	Antrim
BD10	Apperley Bridge, Eccleshill, Greengates, Idle, Thackley	Bradford
PA38	Appin	Argyllshire
DE12	Appleby Magna, Linton, Measham, Overseal, Rosliston, Walton-on-Trent	South Derbyshire
CA16	Appleby-in-Westmorland	Eden
IV54	Applecross	Highland
WN6	Appley Bridge, Shevington, Standish, Standish Lower Ground, Wrightington	Wigan
SG5	Apsley End, Higham Gobion, Offley, Little Offley, Pegsdon, Stotfold, Shillington, Pirton	North Hertfordshire
HP3	Apsley, Bovingdon, Felden, Flaunden, Hemel Hempstead, Leverstock Green	Dacorum
S2	Arbourthorne, Heeley, Highfield, Manor, Norfolk Park, Wybourn, Park Hill	Sheffield
DD11	Arbroath, Friockheim	Angus
IV24	Ardgay	Highland
OX27	Ardley, Bainton, Baynards Green, Bucknell, Caversfield, Charndon, Fewcott, Fringford, Fritwell, Godington, Hardwick, Hethe, Marsh Gibbon, Newton Morrell, Poundon, Souldern, Stoke Lyne, Stratton Audley, Tusmore	Cherwell
G83	Ardlui, Balloch, Bonhill, Gartocharn, Luss, Renton, Tarbet	West Dunbartonshire
KA22	Ardrossan, Whitlees, Chapelhill	North Ayrshire
S71	Ardsley, Athersley, Monk Bretton, Royston	Barnsley
M12	Ardwick, Longsight, Chorlton-on-Medlock	Manchester
M13	Ardwick, Longsight, Chorlton-on-Medlock	Manchester
PH39	Arisaig	Highland
CB11	Arkesden, Audley End, Clavering, Debden, Debden Green, Duddenhoe End, Elmdon, Langley, Littlebury, Littlebury Green, Newport, Pond Street, Quendon, Rickling, Rickling Green, Shortgrove, Starling's Green, Strethall, Upper Green, Wendens Ambo, Wicken Bonhunt, Widdington	Uttlesford
LA6	Arkholme, Cantsfield, Casterton, Ingleton, Ireby, Kirkby Lonsdale, Masongill, Tunstall, Whittington	Lancaster
DN5	Arksey, Barnburgh, Bentley, Cusworth, Harlington, Scawsby, Scawthorpe, Sprotborough, Toll Bar	Doncaster
SG15	Arlesey	Central Bedfordshire
EH48	Armadale, Bathgate	West Lothian
IV45	Armadale, Isle Of Skye	Highland
BT61	Armagh, Collone, Hamiltonsbawn, Kilmore, Loughgall, Richhill	Armagh
WS15	Armitage, Brereton, Rugeley	Cannock Chase
LS12	Armley, Farnley, New Farnley, Wortley	Leeds
DN3	Armthorpe, Barnby Dun, Branton, Edenthorpe, Kirk Sandall	Doncaster
LS21	Arthington, Otley, Pool	Leeds
LL39	Arthog	Gwynedd
BN18	Arundel, Amberley, Binsted, Burpham, Crossbush, Fontwell, Ford, Houghton, Madehurst, Poling, Slindon, Slindon Common, South Stoke, Tortington, Walberton, Warningcamp, Wepham, Yapton	Arun
SL5	Ascot, Burleigh, Cheapside, North Ascot, South Ascot, Sunningdale, Sunninghill	Windsor and Maidenhead
PE23	Asgarby, Aswardby, Bag Enderby, Dalby, East Kirkby, Firsby, Halton Holegate, Harrington, Keal Cotes, Langton, Mavis Enderby, Monksthorpe, Partney, Sausthorpe, Somersby	East Lindsey
DE6	Ashbourne, Hulland Ward, Weston Underwood	Derbyshire Dales
SR2	Ashbrooke, Ryhope, Grangetown, Hendon, Hillview, Thornhill	Sunderland
TQ13	Ashburton, Bovey Tracey, Chudleigh, Moretonhampstead, Widecombe in the Moor	Teignbridge
DN37	Ashby-cum-Fenby, Barnoldby-le-Beck, Beelsby, Bradley, Brocklesby, Great Coates, Great Limber, Irby-upon-Humber, Laceby, Waltham	North East Lincolnshire
LE65	Ashby-de-la-Zouch, Boundary, Calke, Smisby, Willesley, Worthington	Leicester
CB10	Ashdon, Church End, Great Chesterford, Great Sampford, Hempstead, Hinxton, Howlett End, Ickleton, Little Chesterford, Little Sampford, Little Walden, Radwinter, Red Oaks Hill, Saffron Walden, Sewards End, Wimbish, Wimbish Green	Uttlesford
HP18	Ashendon, Boarstall, Brill, Chearsley, Chilton, Cuddington, Dorton, Easington, Edgcott, Grendon Underwood, Ickford, Kingswood, Long Crendon, Lower Winchendon, Ludgershall, Oakley, Shabbington, Upper Winchendon, Waddesdon, Westcott, Worminghall, Wotton Underwood	Aylesbury Vale
TN23	Ashford	Ashford
TN24	Ashford	Ashford
TW15	Ashford	Spelthorne
DE45	Ashford-in-the-Water, Bakewell, Baslow, Chatsworth, Edensor, Hassop, Monyash, Youlgreave	Derbyshire Dales
NE63	Ashington	Northumberland
MK6	Ashland, Beanhill, Bleak Hall, Coffee Hall, Eaglestone, Fishermead, Great Woolstone, Leadenhall, Little Woolstone, Middleton/Milton Keynes Village, Netherfield, Oldbrook, Peartree Bridge, Redmoor, Springfield, Tinkers Bridge, Woughton on the Green, Woughton Park, Simpson, Winterhill	Milton Keynes
CB8	Ashley, Brinkley, Burrough End, Burrough Green, Carlton, Cheveley, Clopton Green, Cowlinge, Dalham, Denston, Ditton Green, Dullingham, Dunstall Green, Exning, Gazeley, Great Bradley, Kennett, Kentford, Kirtling, Kirtling Green, Lady's Green, Landwade, Lidgate, Moulton, Newmarket, Ousden, Saxon Street, Six Mile Bottom, Snailwell, Stetchworth, Stradishall, Thorns, Upend, Westley Waterless, Wickhambr	Newmarket
S45	Ashover, Clay Cross, Pilsley	North East Derbyshire
KT21	Ashtead	Mole Valley
PR2	Ashton On Ribble, Brookfield, Cadley, Fulwood, Grimsargh, Haighton, Ingol, Larches, Lea, Ribbleton, Riversway, Sharoe Green, Tanterton	Preston
WN4	Ashton-in-Makerfield, Garswood	Wigan
OL6	Ashton-under-Lyne	Tameside
OL7	Ashton-under-Lyne	Tameside
OL11	Ashworth, Rochdale, Castleton	Rochdale
LA16	Askam-in-furness	Barrow-in-Furness
HP27	Askett, Bledlow, Ilmer, Lacey Green, Longwick, Loosley Row, Monks Risborough, Owlswick, Pitch Green, Princes Risborough, Saunderton	Wycombe
MK17	Aspley Guise, Battlesden, Bow Brickhill, Drayton Parslow, Eversholt, Great Brickhill, Great Horwood, Hulcote, Little Brickhill, Little Horwood, Milton Bryan, Mursley, Nash, Newton Longville, Potsgrove, Salford, Stoke Hammond, Swanbourne, Thornton, Tingrith, Wavendon, Whaddon, Woburn, Woburn Sands.	Milton Keynes
NG8	Aspley, Wollaton, Whitemoor, Bilborough	Nottingham
B6	Aston	Birmingham
HP22	Aston Abbotts, Aston Clinton, Bierton, Buckland, Drayton Beauchamp, Dunsmore, Halton, Hardwick, Hulcott, North Lee, Nup End, Oving, Pitchcott, Quainton, Rowsham, Stoke Mandeville, Weedon, Wendover, Weston Turville, Whitchurch, Wingrave	Aylesbury Vale
HP17	Aston Sandford, Bishopstone, Butler's Cross, Dinton, Dorton, Ellesborough, Ford, The Kimbles, Kingsey, Haddenham, Meadle, Nash Lee, Stone, Upton, Westlington	Aylesbury Vale
S26	Aston, Aughton, Harthill, Kiveton Park, Swallownest, Todwick, Wales	Rotherham
MK16	Astwood, Broughton, Chicheley, Filgrave, Gayhurst, Hardmead, Lathbury, Little Crawley, Moulsoe, North Crawley, Newport Pagnell, Sherington, Stoke Goldington, Tyringham	Milton Keynes
CV9	Atherstone, Mancetter, Grendon, Baddesley Ensor, Baxterley, Hurley, Witherley, Wood End, Twycross	North Warwickshire
M46	Atherton	Wigan
S9	Attercliffe, Brightside, Darnall, Meadowhall, Tinsley, Wincobank	Sheffield
BT77	Augher	Dungannon and South Tyrone
BT69	Aughnacloy, Carnteel	Dungannon and South Tyrone
IV12	Auldearn	Highland
OL4	Austerlands, Grasscroft, Grotton, Lees, Lydgate, Oldham, Scouthead, Springhead, Waterhead	Oldham
LS15	Austhorpe, Barwick-in-Elmet, Colton, Cross Gates, Halton, Halton Moor, Scholes, Whitkirk	Leeds
PH22	Aviemore	Highland
IV9	Avoch	Highland
BS11	Avonmouth, Shirehampton	Bristol
BS26	Axbridge, Compton Bishop, Loxton	Somerset
EX13	Axminster	Exeter
HP20	Aylesbury, Aylesbury Town Centre, Broughton, Elmhurst	Aylesbury Vale
HP21	Aylesbury, Bedgrove, Elm Farm, Queens Park, Southcourt, Walton, Walton Court	Aylesbury Vale
HP19	Aylesbury, Fairford Leys, Prebendal Farm, Quarrendon, Watermead	Aylesbury Vale
ME20	Aylesford	Tonbridge and Malling
KA7	Ayr, Belmont, Holmston, Forehill, Castlehill, Masonhill, Kincaidston, Doonfoot, Alloway	South Ayrshire
SR4	Ayres Quay, Barnes, Chester Road, Deptford, Ford Estate, Grindon, Hastings Hill, Hylton Lane Estate, High Barnes, Millfield, Pallion, Pennywell, South Hylton	Sunderland
CB22	Babraham, Sawston, Pampisford, Duxford, Whittlesford, Great and Little Shelford, Stapleford, Harston, Barrington, Hauxton, Newton, Foxton	Cambridge
CH2	Backford, Chester, Elton, Hoole, Ince, Mickle Trafford, Moston	Cheshire West and Chester
BS48	Backwell, Nailsea	North Somerset
NR12	Bacton, Brumstead, Coltishall, East Ruston, Hickling, Ingham, Lessingham, Sloley, Stalham, Tunstead, Wroxham	Norfolk
OL13	Bacup, Britannia, Stacksteads	Rossendale
SO22	Badger Farm, Fulflood, Hursley, Littleton and Harestock, Olivers Battery, Pitt, St Cross (W), Stanmore, Weeke	Winchester
GL9	Badminton	Gloucester
WF9	Badsworth, Fitzwilliam, Hemsworth, Kinsley, South Elmsall, South Kirkby, Upton	Wakefield
GU19	Bagshot	Surrey Heath
M23	Baguley, Roundthorn Industrial Estate	Manchester
BD17	Baildon, Shipley	Bradford
HD6	Bailiff Bridge, Brighouse, Rastrick, Clifton	Calderdale
G69	Baillieston, Garrowhill, Gartcosh, Moodiesburn, Muirhead	Glasgow
FK2	Bainsford, Polmont, Maddiston, Airth	Falkirk
LL23	Bala, Llandderfel, Llanfor, Llanuwchllyn, Sarnau	Gwynedd
DN4	Balby, Belle Vue, Bessacarr, Cantley, Hexthorpe, Hyde Park, Warmsworth	Doncaster
SG7	Baldock	North Hertfordshire
G63	Balfron, Blanefield, Croftamie, Drymen, Dumgoyne, Fintry, Killearn, Strathblane	Stirling
SW12	Balham, Clapham South, Hyde Farm	Wandsworth
PH49	Ballachulish	Highland
AB35	Ballater	Aberdeenshire
AB37	Ballindalloch	Moray
BT54	Ballycastle, Ballintoy, Ballypatrick, Ballyvoy, Cape Castle, Glenshesk, Maghercashel, Maghernahar, Moyarget, Torr, Rathlin Island	Moyle
BT39	Ballyclare, Ballynure, Doagh, Parkgate, Straid, Templepatrick	Newtownabbey
BT53	Ballymoney, Dervock, Armoy, Ballybogy	Ballymoney
BT24	Ballynahinch, Drumaness, Saintfield	Down
B12	Balsall Heath, Sparkbrook, Highgate	Birmingham
PR5	Bamber Bridge, Coupe Green, Gregson Lane, Higher Walton, Hoghton, Lostock Hall, Riley Green, Samlesbury, Walton-le-Dale, Walton Park, Walton Summit	South Ribble
NE69	Bamburgh	Northumberland
S33	Bamford, Bradwell, Castleton, Edale, Hope, Yorkshire Bridge	High Peak
BT32	Banbridge, Annaclone, Ballinaskeagh, Ballyroney, Corbet, Katesbridge, Lenaderg, Loughbrickland, Seapatrick	Banbridge
OX16	Banbury	Cherwell
AB31	Banchory	Aberdeenshire
MK13	Bancroft/Bancroft Park, Bluebridge, Bradwell and Bradwell Abbey, Bradwell Common, New Bradwell, Heelands, Stonebridge	Milton Keynes
SA33	Bancyfelin, Pendine, Blaenycoed	Carmarthenshire
AB45	Banff	Aberdeenshire
BT20	Bangor	North Down
BT19	Bangor, Crawfordsburn, Groomsport, Helens Bay	North Down
LL57	Bangor, Llanllechid, Rachub, Talybont, Bethesda, Glasinfryn, Llandygai, Mynydd Llandygai, Rhiwlas, Tregarth	Gwynedd
EC2R	Bank of England	City of London
BD5	Bankfoot, Little Horton, West Bowling	Bradford
FK4	Banknock, Bonnybridge, Haggs	Falkirk
PR9	Banks, Churchtown, Crossens, Marshside	Sefton
SE1	Bankside, South Bank, Southwark, Bermondsey, Vauxhall	Southwark
FK7	Bannockburn, Plean, Cowie	Falkirk
SM7	Banstead	Reigate and Banstead
BS29	Banwell	Somerset
EC2Y	Barbican	City of London
PL4	Barbican, Lipson, Mount Gould, Mutley, Prince Rock, St. Judes	Plymouth
BN8	Barcombe, Barcombe Cross, Beddingham, Chailey Green, Chiddingly, East Hoathly, Firle, Glynde, Halland, Hamsey, Holmes Hill, Laughton, Newick, North Chailey, Ringmer, Ripe, Shortgate, South Chailey, Southerham, Stoneham, Whitesmith	Lewes
OL8	Bardsley, Oldham	Oldham
CF81	Bargoed, Aberbargoed, Darran Valley, Gilfach, Pontlottyn	Caerphilly
BD3	Barkerend, Bradford Moor, Thornbury	Bradford
IG11	Barking	Barking and Dagenham
IG6	Barkingside, Hainault	Redbridge
HX4	Barkisland, Greetland, Holywell Green, Sowood, Stainland, West Vale	Calderdale
ST12	Barlaston	Staffordshire
S43	Barlborough, Clowne, Inkersall Green, Staveley	Chesterfield
YO8	Barlby, Brayton, Bubwith, Cawood, Camblesforth, Drax, Thorpe Willoughby	York
CV13	Barlestone, Barton in the Beans, Bilstone, Cadeby, Carlton, Congerstone, Dadlington, Fenny Drayton, Higham on the Hill, Market Bosworth, Nailstone, Odstone, Osbaston, Shackerstone, Shenton, Stoke Golding, Sutton Cheney, Upton, Wellsborough	Hinckley and Bosworth
ME16	Barming, West Maidstone	Maidstone
LL42	Barmouth, Llanaber	Gwynedd
G21	Barmulloch, Cowlairs, Royston, Springburn, Sighthill	Glasgow
PR3	Barnacre-with-Bonds, Barton, Bilsborrow, Bonds, Bowgreave, Broughton, Calder Vale, Chipping, Garstang, Goosnargh, Great Eccleston, Little Eccleston, Longridge, Myerscough, Oakenclough, Pilling, Ribchester, St Michael's On Wyre, Scorton, Whittingham	Fylde
DL12	Barnard Castle, Bowes, Middleton-in-Teesdale	County Durham
OX29	Barnard Gate, Brighthampton, Church Hanborough, Combe, Crawley, Curbridge, Ducklington, Eynsham, Freeland, Hailey, Hardwick, High Cogges, Long Hanborough, New Yatt, Newbridge, North Leigh, East End (North Leigh), Old Shifford, Shifford, Standlake, Stanton Harcourt, Stonesfield, Sutton, Yelford	West Oxfordshire
CB9	Barnardiston, Great Thurlow, Great Wratting, Haverhill, Helions Bumpstead, Kedington, Little Bradley, Little Thurlow, Little Wratting, Steeple Bumpstead, Sturmer, Withersfield	St Edmundsbury
SW13	Barnes, Castelnau	Richmond upon Thames
DN38	Barnetby, Grasby, Searby, Somerby	North Lincolnshire
BB18	Barnoldswick, Earby, Kelbrook, Salterforth, Sough	Pendle
RH13	Barns Green, Cowfold, Mannings Heath, Partridge Green, Slinfold, Southwater, West Grinstead	Horsham
N1	Barnsbury, Canonbury, Kings Cross, Islington, Pentonville, De Beauvoir Town, Hoxton	Hackney
EX31	Barnstaple	Exeter
EX32	Barnstaple	Exeter
CH61	Barnston, Heswall, Irby, Pensby, Thingwall, Thurstaston	Wirral
G78	Barrhead, Neilston, Uplawmoor	East Renfrewshire
IP29	Barrow	St Edmundsbury
LA13	Barrow-in-Furness	Barrow-in-Furness
LA14	Barrow-in-Furness, Walney Island	Barrow-in-Furness
DN19	Barrow-Upon-Humber	North Lincolnshire
CF63	Barry, Cadoxton, Barry Docks	Vale of Glamorgan
CF62	Barry, Rhoose, St Athan, Llancarfan, Barry Island	Vale of Glamorgan
NR21	Barsham, Binham, Fakenham, Fulmodeston, South Raynham, East Raynham, West Raynham, Hempton, Helhoughton, Hindringham, Gunthorpe, Tatterford, Toftrees	Norfolk
PE33	Barton Bendish, Fincham	West Norfolk
DN18	Barton-Upon-Humber	North Lincolnshire
S75	Barugh Green, Cawthorne, Darton, Dodworth, Gawber, Mapplewell, Pogmoor, Staincross, Wilthorpe	Barnsley
CB7	Barway, Brandon Bank, Brandon Creek, Broad Hill, Chippenham, Down Field, Ely, Fordham, Isleham, Prickwillow, Queen Adelaide, River Bank, Soham, Stuntney, Upware, Wicken	Ely
SS13	Basildon	Basildon
SS14	Basildon	Basildon
RG21	Basingstoke Town Centre, Eastrop, Black Dam	Hampshire
SO16	Bassett, Redbridge, Rownhams, Nursling, Chilworth	Southampton
PE6	Baston, The Deepings, Crowland, Upton, Langtoft	South Kesteven
WD3	Batchworth Heath, Chandlers Cross, Chenies, Chorleywood, Croxley Green, Heronsgate, Loudwater, Maple Cross, Mill End, Rickmansworth, Sarratt, West Hyde	Three Rivers
S8	Batemoor, Beauchief, Greenhill, Jordanthorpe, Lowedges, Meersbrook, Norton, Norton Lees, Woodseats	Sheffield
BA1	Bath	Bath and North East Somerset
BA2	Bath	Bath and North East Somerset
SW11	Battersea, Clapham Junction	Wandsworth
TN33	Battle	Rother
NE28	Battle Hill, Willington, Wallsend, North Tyne Tunnel	North Tyneside
G42	Battlefield, Govanhill, Mount Florida, Strathbungo East	Glasgow
RG26	Baughurst, Bramley, Brimpton Common, Pamber End, Pamber Heath, Tadley	Hampshire
NR20	Bawdeswell, Bylaugh, Elsing, Foxley, Foulsham, Gressenhall, Guestwick, Whissonsett, Nethergate, North Elmham, Swanton Morley, Themelthorpe	Norfolk
DN10	Bawtry, Misson, Misterton, Scrooby	Doncaster
MK19	Beachampton, Calverton, Castlethorpe Cosgrove, Deanshanger, Hanslope, Haversham, Little Linford, Long Street, Old Stratford, Passenham, Upper Weald, Wicken	Aylesbury Vale
PL2	Beacon Park, Ford, Keyham, North Prospect, Pennycross, Home Park	Plymouth
HP14	Beacon's Bottom, Bledlow Ridge, Bolter End, Bradenham, Cadmore End, Hughenden Valley, Ibstone, Lane End, Naphill, Northend, Stokenchurch, The City, Upper North Dean, West Wycombe	Wycombe
HP9	Beaconsfield, Forty Green, Holtspur, Jordans, Knotty Green, Seer Green	Chiltern
DT8	Beaminster	West Dorset
G61	Bearsden	East Dunbartonshire
ME15	Bearsted, Downswood, Shepway, Senacre, Maidstone Town Centre, Loose, Mangravet, Parkwood	Maidstone
SO42	Beaulieu	New Forest
IV4	Beauly, Kiltarlity, Struy, Cannich, Tomich	Highland
LL58	Beaumaris, Llanddona, Llanfaes, Llangoed, Penmon	Anglesey
EX21	Beaworthy	Exeter
CH63	Bebington, Brimstage, Bromborough, Clatterbridge, Higher Bebington, Raby, Raby Mere, Spital, Storeton, Thornton Hough	Wirral
NR34	Beccles	Suffolk
PR4	Becconsall, Catforth, Clifton, Cottam, Eaves, Elswick, Freckleton, Hesketh Bank, Hutton, Inskip, Kirkham, Longton, Much Hoole, New Longton, Newton, Tarleton, Thistleton, Walmer Bridge, Warton, Wesham, Woodplumpton, Wrea Green	Fylde
BR3	Beckenham, Eden Park, Elmers End, Park Langley, Shortlands	Bromley
CA21	Beckermet	Copeland
LS6	Beckett Park, Headingley, Hyde Park, Meanwood, Woodhouse	Leeds
NE22	Bedlington, Hartford Bridge	Northumberland
BS13	Bedminster Down, Bishopsworth, Hartcliffe, Withywood	Bristol
BS3	Bedminster, Southville, Bower Ashton, Totterdown, Windmill Hill	Bristol
WD5	Bedmond, Abbots Langley	Three Rivers
CV12	Bedworth, Bulkington	Nuneaton & Bedworth
NR26	Beeston Regis, West Runton, Upper Sheringham	Norfolk
LS11	Beeston, Beeston Hill, Cottingley, Holbeck	Leeds
NG9	Beeston, Stapleford, Lenton Abbey, Chilwell, Trowell	Broxtowe
MK44	Begwary, Bletsoe, Blunham, Bolnhurst, Cardington, Chawston, Colesden, Colmworth, Cople, Duck's Cross, Great Barford, Keysoe, Keysoe Row, Kingsbrook, Knotting, Knotting Green, Little Staughton, Melchbourne, Milton Ernest, Mogerhanger, Newton Bromswold, Pertenhall, Ravensden, Riseley, Roxton, Sharnbrook, Souldrop, Swineshead, Thurleigh, Top End, Wilden, Willington, Wyboston, Yielden	Bedford
KA14	Beith, Glengarnock, Longbar	North Ayrshire
KA15	Beith, Glengarnock, Longbar	North Ayrshire
BT1	Belfast	Belfast
BT15	Belfast	Belfast
BT2	Belfast	Belfast
BT3	Belfast	Belfast
BT11	Belfast, Andersonstown	Belfast
BT14	Belfast, Ballysillan, Upper Ballysillan	Belfast
BT8	Belfast, Carryduff, Knockbreda, Newtownbreda	Belfast
BT5	Belfast, Castlereagh, Crossnacreevy, Gilnahirk, Knock	Belfast
BT6	Belfast, Cregagh, Knockbreda	Belfast
BT29	Belfast, Crumlin, Aldergrove, Dundrod, Glenavy, Nutts Corner	County Antrim
BT17	Belfast, Derriaghy, Dunmurry, Hannahstown	Belfast
BT12	Belfast, Falls Road, Sandy Row, The Village	Belfast
BT10	Belfast, Finaghy	Belfast
BT9	Belfast, Malone, Lisburn Road, Taughmonagh, Stranmillis	Belfast
BT7	Belfast, Ormeau	Belfast
BT13	Belfast, Shankill Road, Woodvale, Ballygomartin, Springmartin, Glencairn, Highfield	Belfast
BT4	Belfast, Sydenham,Belmont, Stormont	Belfast
NE70	Belford	Northumberland
SW1W	Belgravia	Westminster
SW1X	Belgravia, Knightsbridge	Westminster
LS10	Belle Isle, Hunslet, Middleton, Stourton	Leeds
L25	Belle Vale, Gateacre, Hunts Cross, Woolton, Halewood	Liverpool
BT93	Belleek, Belcoo, Kesh, Derrygonnelly, Garrison	Fermanagh
SE6	Bellingham, Catford, Hither Green	Lewisham
NE48	Bellingham, Kielder, Wark	Northumberland
ML4	Bellshill, Orbiston, Mossend	North Lanarkshire
SM2	Belmont, South Sutton, East Ewell	Sutton
DA17	Belvedere, Lessness Heath	Bexley
PO35	Bembridge, Whitecliff Bay	Isle of Wight
CH99	Benefits Agency, St. Michaels Financial Services & Chargecard	Chester
PE22	Benington, Butterwick, Carrington, Eastville, Freiston, Friskney, Frithville, Langrick, Leverton, Mareham-le-Fen, Moorby, New Bolingbroke, Old Leake, Revesby, Stickney, Wrangle	Boston
NE67	Benthall	Northumberland
ST2	Bentilee, Abbey Hulton, Bucknall	Staffordshire
GU10	Bentley, Frensham, Churt, Crondall, Tongham, Ewshot, Seale, Tilford	Waverley
GL13	Berkeley	Gloucester
HP4	Berkhamsted, Dagnall, Dudswell, Little Gaddesden, Northchurch, Potten End, Ringshall	Dacorum
KW7	Berriedale	Highland
HD4	Berry Brow, Crosland Moor, Farnley Tyas, Netherton, Newsome, Lowerhouses, Stocksmoor	Kirklees
KT5	Berrylands, Tolworth	Kingston upon Thames
TD15	Berwick-upon-Tweed	Northumberland
WS5	Bescot, Tamebridge, Yew Tree	Walsall
NG6	Bestwood Village, Bulwell, Old Basford	Nottingham
RH3	Betchworth, Brockham, Buckland, Strood Green	Mole Valley
TN26	Bethersden, Woodchurch, Shadoxhurst	Ashford
E2	Bethnal Green, Haggerston, Shoreditch, Cambridge Heath	Tower Hamlets
LL24	Betws-y-Coed, Capel Curig, Cwm Penmachno, Penmachno, Pentre Du, Pentrefoelas, Ysbyty Ifan	Conwy
HU17	Beverley	East Riding of Yorkshire
RH11	Bewbush, Broadfield, Gossops Green, Ifield, Langley Green, Lowfield Heath, Pease Pottage, Southgate West, West Green	Crawley
DY12	Bewdley	Wyre Forest
TN40	Bexhill-on-Sea	Rother
TN39	Bexhill-on-Sea, Cooden	Rother
DA5	Bexley, Albany Park, Joydens Wood	Bexley
DA7	Bexleyheath, Barnehurst	Bexley
DA6	Bexleyheath, Upton	Bexley
OX26	Bicester, Chesterton, Launton	Cherwell
BR2	Bickley, Hayes, Bromley Common, Shortlands	Bromley
TA4	Bicknoller, Bishops Lydeard, Crowcombe, West Bagborough, Williton	Somerset
MK40	Biddenham, Castle, De Parys, Great Denham, Harpur, Queens Park	Bedford
ST8	Biddulph	Staffordshire
EX39	Bideford, Lundy Island	Torridge
CH43	Bidston, Noctorum, Oxton, Prenton	Wirral
BD4	Bierley, Bowling, East Bierley, Laisterdyke, Tong, Tong Street, Tyersal	Bradford
ML12	Biggar, Broughton, Symington, Wanlockhead	South Lanarkshire
TN16	Biggin Hill, Tatsfield	Bromley
SG18	Biggleswade, Budna, Hatch, Langford, Lower Caldecote, Northill, Upper Caldecote	Central Bedfordshire
CM11	Billericay (East), Great Burstead	Basildon
CM12	Billericay (West)	Basildon
WN5	Billinge, Newtown, Higher End, Orrell, Pemberton, Winstanley, Worsley Hall, Marsh Green.	Wigan
TS23	Billingham (East)	Stockton-on-Tees
TS22	Billingham (West), Wolviston	Stockton-on-Tees
RH14	Billingshurst, Ifold, Kirdford, Loxwood, Plaistow, Wisborough Green	Chichester
HU11	Bilton	East Riding of Yorkshire
RG42	Binfield, Newell Green, Priestwood, Warfield, Winkfield Row	Bracknell Forest
NG13	Bingham, Whatton, Bottesford, Aslockton	Rushcliffe
BD97	Bingley	Bradford
BD16	Bingley, Cottingley, Eldwick, Harden	Bingley
CV3	Binley, Whitley, Willenhall, Cheylesmore, Styvechale, Finham, Fenside, Stoke Aldermoor, Green Lane, Ernesford Grange, Binley Woods	Coventry
SK22	Birch Vale, Hayfield, Little Hayfield, New Mills, Rowarth	High Peak
B20	Birchfield, Handsworth Wood Perry Barr	Birmingham
SA7	Birchgrove, Glais, Llansamlet, Swansea Enterprise Park, Talycoppa, Trallwn	Swansea
CT7	Birchington	Kent
HD9	Birdsedge, Brockholes, Hepworth, Holme, Holmfirth, Honley, Meltham, Scholes, Upperthong, Wooldale	Kirklees
HD2	Birkby, Brackenhall, Bradley, Deighton, Fartown, Fixby, Sheepridge	Kirklees
CH25	Birkenhead	Wirral
CH41	Birkenhead, Claughton, Seacombe, Tranmere, Woodside	Wirral
CH42	Birkenhead, Oxton, Prenton, Rock Ferry	Wirral
BD11	Birkenshaw, Drighlington	Kirklees
S12	Birley, Gleadless, Gleadless Townend, Hackenthorpe, Intake, Ridgeway	Sheffield
B1	Birmingham City Centre, Ladywood	Birmingham 
B2	Birmingham City Centre, Ladywood	Birmingham 
B3	Birmingham City Centre, Ladywood	Birmingham 
B4	Birmingham City Centre, Ladywood	Birmingham 
WF17	Birstall, Batley, Staincliffe	Kirklees
LE4	Birstall, Belgrave, Beaumont Leys, Thurmaston	Leicester
SL7	Bisham, Little Marlow, Lower Woodend, Buckinghamshire, Marlow, Marlow Bottom, Medmenham	South Buckinghamshire
DL14	Bishop Auckland, Evenwood	County Durham
G64	Bishopbriggs, Torrance	East Dunbartonshire
SY9	Bishops Castle	Shropshire
CM23	Bishop's Stortford	East Hertfordshire
CM22	Bishop's Stortford, Sheering	East Hertfordshire
SO32	Bishops Waltham, Corhampton, Droxford, Durley, Exton, Meonstoke, Shedfield, Soberton, Swanmore, Upham, Warnford, Wickham	Eastleigh
SA3	Bishopston, Blackpill, Caswell, Clyne, Langland, Mumbles, Oystermouth, Southgate, South Gower, West Cross	Swansea
BS7	Bishopston, Horfield, Filton	Bristol
PA7	Bishopton	Renfrewshire
GU24	Bisley, Pirbright, Chobham, Knaphill, Brookwood, West End	Woking
FY2	Bispham	Blackpool
SO18	Bitterne, Bitterne Park, Chartwell Green, Townhill Park, Southampton Airport	Southampton
BS30	Bitton, Cadbury Heath, Warmley, Wick	South Gloucestershire
TN6	Black Hill, Boars Head, Burnt Oak, Castle Hill, Friars Gate, Mark Cross, Rotherfield, St Johns, Stone Cross, Town Row	Wealden
BB1	Blackburn, Bank Hey, Belthorn, Blackamoor, Clayton-le-Dale, Guide, Knuzden, Mellor, Ramsgreave, Rishton, Salesbury, Shadsworth, Sunnybower, Whitebirk, Wilpshire	Blackburn with Darwen
BB2	Blackburn, Beardwood, Balderstone, Cherry Tree, Feniscowles, Mellor, Mellor Brook, Mill Hill, Pleasington, Witton, Holly Tree and Griffin	Blackburn with Darwen
PH4	Blackford	Perth and Kinross
EC4V	Blackfriars	City of London
TS27	Blackhall Rocks, Blackhall Colliery, Castle Eden, Hesleden, High Hesleden, Hutton Henry	Hartlepool
SE3	Blackheath, Kidbrooke, Westcombe Park	Greenwich
CM4	Blackmore, Fryerning, Ingatestone, Stock	Brentwood
FY0	Blackpool	Blackpool
FY1	Blackpool	Blackpool
FY4	Blackpool, Blackpool Airport, Marton, South Shore	Blackpool
GU17	Blackwater, Hawley, Minley, Darby Green, Frogmore, Blackbushe	Hart
NP12	Blackwood, Pontllanfraith, Wyllie	Caerphilly
CH1	Blacon, Chester, Higher Ferry, Capenhurst, Backford	Cheshire West and Chester
LL41	Blaenau Ffestiniog, Talwaenydd, Ffestiniog, Gellilydan, Maentwrog, Manod, Trawsfynydd	Gwynedd
SA11	Blaengwrach, Briton Ferry, Cimla, Glynneath, Neath town centre, Resolven, Tonmawr, Tonna	Neath Port Talbot
SA5	Blaenymaes, Cwmdu, Cwmdu Industrial Estate, Felindre, Fforestfach, Gendros, Llangyfelach, Llewitha, Manselton, Penlan, Portmead, Tirdeunaw, Waunarlwydd	Swansea
PH10	Blairgowrie	Perth and Kinross
MK14	Blakelands, Conniburrow, Downs Barn, Giffard Park, Great Linford, Linford Wood, Stantonbury, Neath Hill	Milton Keynes
GL15	Blakeney, Lydney	Gloucester
DT11	Blandford Forum	North Dorset
G72	Blantyre, Cambuslang	South Lanarkshire
NE21	Blaydon, Winlaton	Gateshead
BS24	Bleadon, Hutton, Locking, Lympsham, Puxton, Weston-super-Mare, Wick St. Lawrence	North Somerset
PL30	Blisland, Lanivet, Luxulyan, Nanstallon, St Kew, St Mabyn, Temple, Withiel	Cornwall
WC1B	Bloomsbury, British Museum	Camden
OX15	Bloxham, Drayton, Wroxton, North Newington, South Newington, Swalcliffe, Sibford Gower, Sibford Ferris, Barford St Michael, Barford St John, Deddington, Hempton, Broughton, Hornton, Horley, Balscote, Shenington, Alkerton, Wigginton, Milton, Hook Norton, Milcombe, Shutford, Epwell, Tadmarton, Swerford, Bodicote, Brailes, Edge Hill, Ratley, Upton	Cherwell
WS3	Bloxwich, Coal Pool, Pelsall	Walsall
SA4	Blue Anchor, Gorseinon, Gowerton, Hendy (Carmarthenshire), Loughor, North Gower, Penllergaer, Penclawdd, Pontarddulais, Three Crosses	Swansea
L23	Blundellsands, Brighton-le-Sands, Crosby, Little Crosby, Thornton	Sefton
SN26	Blunsdon	Swindon
S81	Blyth, Carlton-in-Lindrick, Langold, North Worksop, Shireoaks, Woodsetts	Bassetlaw
NE24	Blyth, Newsham	Northumberland
G2	Blythswood Hill	Glasgow
PH24	Boat of Garten	Highland
LL77	Bodffordd, Rhostrehwfa, Talwrn, Llangefni	Anglesey
PL31	Bodmin, Dunmere	Cornwall
LL62	Bodorgan, Bethel, Hermon, Llangristiolus, Malltraeth, Trefdraeth	Anglesey
PO21	Bognor Regis	Sussex
PO22	Bognor Regis	Sussex
MK15	Bolbeck Park, Downhead Park, Fox Milne, Newlands, Pennyland, Pineham, Northfield, Tongwell, Willen Park, Willen, Willen Lake	Milton Keynes
B73	Boldmere, New Oscott, Wylde Green	Birmingham
NE35	Boldon Colliery	South Tyneside
S44	Bolsover, Calow, Sutton-cum-Duckmanton, Scarcliffe	Bolsover
BL11	Bolton	Bolton
BL78	Bolton	Bolton
BL2	Bolton, Ainsworth, Bradley Fold, Bradshaw, Breightmet, Harwood, Tonge Fold, Tonge Moor	Bolton
BL7	Bolton, Belmont, Bromley Cross, Chapeltown, Edgworth, Egerton, Turton	Bolton
BL6	Bolton, Blackrod, Horwich, Lostock, Rivington	Bolton
BL4	Bolton, Farnworth, Kearsley	Bolton
BL3	Bolton, Little Lever	Bolton
BL5	Bolton, Over Hulton, Westhoughton	Bolton
BL1	Bolton, Smithills, Halliwell, Heaton	Bolton
S63	Bolton-on-Dearne, Goldthorpe, Thurnscoe, Wath-on-Dearne, West Melton	Barnsley
SA37	Boncath	Pembrokeshire
EH51	Bo'ness	Falkirk
EH19	Bonnyrigg	Midlothian
SA1	Bonymaen, Copper Quarter, Crymlyn Burrows, Danygraig, Greenhill, Hafod, Jersey Marine, Landore, Maritime Quarter, Mayhill, Mount Pleasant, Pentrechwyth, Port Tennant, St. Thomas, City Centre, Townhill, Waun Wen, Winch Wen, Winch Wen Industrial Estate	Swansea
YO30	Bootham, Clifton, Skelton, Linton-on-Ouse	York
HX3	Boothtown, Hipperholme, Lightcliffe, Norwood Green, Northowram, Ovenden, Shelf, Skircoat Green, Southowram	Calderdale
NN3	Boothville, Moulton, Weston Favell	Daventry
L20	Bootle, Kirkdale, Orrell	Liverpool
L30	Bootle, Netherton	Sefton
NG90	Boots the Chemists	Nottingham
B9	Bordesley Green	Birmingham
GU35	Bordon, Headley, Headley Down Lindford, Oakhanger, Kingsley, Arford, Whitehill	East Hampshire
WD6	Borehamwood, Elstree, Well End	Hertsmere
YO51	Boroughbridge	North Yorkshire
PL35	Boscastle, Lesnewth, Trevalga	Cornwall
BH5	Boscombe, Pokesdown	Bournemouth
LS23	Boston Spa, Bramham, Clifford, Thorp Arch, Walton	Leeds
EN2	Botany Bay, Clay Hill, Crews Hill, Bulls Cross, Enfield Chase, Enfield Town, Forty Hill	Enfield
G71	Bothwell, Uddingston	Lanarkshire
SO30	Botley, Hedge End, West End	Eastleigh
DN16	Bottesford, Holme, Queensway Ind Estate, Raventhorpe, Scunthorpe, Twigmoor	North Lincolnshire
CH3	Boughton, Chester, Huntington, Mouldsworth, Tarvin, Tattenhall, Farndon	Cheshire West and Chester
HP1	Bourne End, Boxmoor, Fields End, Gadebridge, Great Gaddesden, Nettleden, Piccotts End, Water End, Warner's End	Dacorum
MK43	Bourne End, Brogborough, Box End, Bromham, Cranfield, Carlton, Felmersham, Harrold, Husborne Crawley, Keeley Green, Kempston Rural, Lidlington, Lower Shelton, Marston Moretaine, Newton Blossomville Oakley, Odell, Pavenham, Radwell, Ridgmont, Stagsden, Stevington, Stewartby, Turvey, Upper Shelton, West End, Wood End, Wootton, Wootton Green	Bedford
SL8	Bourne End, Well End, Buckinghamshire	South Buckinghamshire
PE10	Bourne, Bulby, Cawthorpe, Dowsby, Dunsby, Dyke, Edenham, Grimsthorpe, Haconby, Hanthorpe, Keisby, Kirkby Underwood, Lound, Manthorpe, Morton, Rippingale, Scottlethorpe, Stainfield, Thurlby, Toft, Twenty, Witham on the Hill	South Kesteven
BH2	Bournemouth Central, West Cliff	Bournemouth
BH1	Bournemouth town centre, Springbourne, East Cliff, Boscombe	Bournemouth 
B30	Bournville, Cotteridge, Stirchley	Birmingham
SL4	Boveney, Clewer, Cranbourne, Dorney, Eton, Eton Wick, Fifield, Oakley Green, Old Windsor, Spital, Windsor, Berkshire, Winkfield, Woodside	Bracknell Forest
SY24	Bow Street, Pen-y-garn, Rhydypennau, Llandre	Ceredigion
E3	Bow, Bromley-by-Bow, Old Ford, Mile End, Three Mills, London Gas Museum	Tower Hamlets
G60	Bowling, Old Kilpatrick	West Dunbartonshire
NN29	Bozeat, Great Doddington, Irchester, Podington, Wollaston	Bedford
NN13	Brackley, Croughton, Farthinghoe, Hinton-in-the-Hedges	South Northamptonshire
NN4	Brackmills, East Hunsbury, West Hunsbury, Great Houghton, Hardingstone, Wootton, Grange Park	Northampton
RG12	Bracknell, Bullbrook, Wick Hill	Bracknell Forest
FK15	Braco	Falkirk
S6	Bradfield, Hillsborough, Malin Bridge, Stannington, Upperthorpe, Walkley, Fox Hill	Sheffield
BD99	Bradford	Bradford
BD1	Bradford city centre, Little Germany	Bradford 
BA15	Bradford-on-Avon	Wiltshire
WV14	Bradley, Bilston Town	Wolverhampton
CM7	Braintree	Braintree
CM77	Braintree, Great Notley, Rayne	Braintree
TS3	Brambles Farm, Thorntree, Park End, North Ormesby, Berwick Hills	Middlesbrough
SK7	Bramhall, Hazel Grove, Woodford	Stockport
S66	Bramley Hellaby, Maltby, Thurcroft, Wickersley, Braithwell	Rotherham
LS13	Bramley, Rodley, Swinnow	Leeds
S73	Brampton, Darfield, Wombwell, Hemingfield	Barnsley
CA8	Brampton, Gilsland, Greenhead, Slaggyford	Carlisle
IP27	Brandon	Forest Heath
DH7	Brandon, Lanchester, Esh Winning, Burnhope, Langley Park, Sacriston, Ushaw Moor	County Durham
BH12	Branksome, Alderney, Upper Parkstone, Newtown	Poole
DE14	Branston, Burton upon Trent, Newton Solney, Winshill	East Staffordshire
LN4	Branston, Canwick, Coningsby, Dunston, Heighington, Nocton, Washingborough, Timberland, Martin	North Kesteven
NN11	Braunston, Daventry, Greens Norton, Hinton, Moreton Pinkney, Welton	Daventry
LE3	Braunstone, Glenfield, New Parks, Groby Road (A50), Leicester Forest East, Westcotes	Leicester
EX33	Braunton	Exeter
SL6	Bray, Bray Wick, Burchett's Green, Cookham, Cookham Dean, Cookham Rise, Furze Platt, Hitcham, Holyport, Hurley, Hurley Bottom, Littlewick Green, Maidenhead, Paley Street, Pinkneys Green, Stud Green, Taplow, Touchen End, White Waltham, Woodlands Park	South Buckinghamshire
SG4	Breachwood Green, Kimpton, King's Walden, Graveley, Little Wymondley, Great Wymondley	North Hertfordshire
IV42	Breakish, Isle Of Skye	Highland
DD9	Brechin	Angus
LD3	Brecon, Talgarth	Llandrindod Wells
SK6	Bredbury, Romiley, Woodley, Marple	Stockport
NW4	Brent Cross, Hendon	Barnet
TW8	Brentford	Hounslow
BS10	Brentry, Henbury, Southmead	Bristol
CM14	Brentwood	Brentwood
CM15	Brentwood, Doddinghurst, Kelvedon Hatch, Mountnessing, Shenfield, Stondon Massey	Brentwood
CM13	Brentwood, East Horndon, Great Warley, Herongate, Hutton, Ingrave, Little Warley, West Horndon	Brentwood
DE15	Bretby, Stapenhill	East Staffordshire
MK2	Brickfields, Central Bletchley, Fenny Stratford, Water Eaton	Milton Keynes
MK41	Brickhill, Clapham, De Parys, Goldington, Harpur, Newnham, Putnoe, Renhold, Salph End	Bedford
FK9	Bridge of Allan, Lecropt	Falkirk
PA36	Bridge Of Orchy	Argyllshire
PA11	Bridge Of Weir	Renfrewshire
CF31	Bridgend, Brackla, Coity, Pen-y-Fai	Bridgend
G40	Bridgeton, Calton	Glasgow
WV15	Bridgnorth Lower	Shropshire
WV16	Bridgnorth Upper	Shropshire
TA6	Bridgwater, North Petherton, Wembdon	Sedgemoor
YO16	Bridlington, Bempton, Bessingby, Boynton, Buckton, Carnaby, Easton, Grindale, Sewerby	East Riding of Yorkshire
YO15	Bridlington, Bempton, Buckton, Carnaby, Flamborough, Fraisthorpe, Sewerby, Wilsthorpe	East Riding of Yorkshire
DT6	Bridport	West Dorset
DY5	Brierley Hill, Pensnett, Quarry Bank	Dudley
S72	Brierley, Cudworth, Grimethorpe, Shafton, South Hiendley	Barnsley
DN20	Brigg, Broughton, Hibaldstow, Scawby, Wrawby	North Lincolnshire
BN50	Brighton	Brighton and Hove
BN88	Brighton	Brighton and Hove
BN2	Brighton, Bevendean, Brighton Marina, Kemptown, Moulsecoomb, Ovingdean, Rottingdean, Saltdean, Woodingdean	Brighton and Hove
BN1	Brighton, Coldean, Falmer, Hollingbury, Patcham, Preston, Stanmer, Withdean	Brighton and Hove
MK10	Brinklow, Broughton, Kingston, Middleton (Milton Keynes Village), Monkston, Oakgrove	Milton Keynes
S60	Brinsworth, Catcliffe, Central Rotherham, Masbrough, Moorgate, Treeton, Whiston	Rotherham
BS4	Brislington, Knowle, Knowle West, St Annes, Totterdown	Bristol
BS1	Bristol city centre, Redcliffe	Bristol
GU95	British Gas	Guildford
TQ5	Brixham	Torbay
SW2	Brixton, Brixton Hill, Streatham Hill, Tulse Hill, Clapham Park, Balham	Lambeth
PL8	Brixton, Newton Ferrers, Noss Mayo, Yealmpton	South Hams
NN6	Brixworth, Cold Ashby, Earls Barton, Ecton, Guilsborough, Long Buckby Spratton, Sywell, West Haddon	Daventry
IV49	Broadford, Isle Of Skye	Highland
EC2M	Broadgate, Liverpool Street	City of London
L16	Broadgreen, Bowring Park, Childwall	Liverpool
L14	Broadgreen, Dovecot, Knotty Ash, Page Moss	Liverpool
BH18	Broadstone	Poole
WR12	Broadway	Wychavon
SE4	Brockley, Crofton Park, Western Ladywell, Honor Oak	Lewisham
CH62	Bromborough, Eastham, New Ferry, Port Sunlight, Spital	Wirral
BR1	Bromley, Bickley, Downham	Bromley
B60	Bromsgrove	Bromsgrove
B61	Bromsgrove	Bromsgrove
HR7	Bromyard	Hereford
LE14	Brooksby, Harby, Hoby, Ragdale, Rotherby, Scalford, Somerby, Stonesby, Waltham on the Wolds, Wymondham	Melton
S3	Broomhall, Burngreave, Neepsend, Netherthorpe	Sheffield
S10	Broomhill, Broomhall, Crookes, Crookesmoor, Fulwood, Ranmoor, Crosspool	Sheffield
G11	Broomhill, Partick, Partickhill	Glasgow
KW9	Brora	Highland
TF12	Broseley	Shropshire
WF11	Brotherton, Byram, Criddling Stubbs, Kellingley, Knottingley	Wakefield
BT42	Broughshane, Cullybackey, Galgorm, Kells	Ballymena
NN14	Broughton, Desborough, Geddington, Isham, Pytchley, Rothwell, Thorpe Malsor, Thrapston	East Northamptonshire
LA20	Broughton-in-furness	South Lakeland
DD5	Broughty Ferry, Barnhill, Monifieth	Dundee
CV23	Brownsover, Dunchurch, Thurlaston, Princethorpe, Brinklow, Long Lawford, Stretton-under-Fosse, Monks Kirby	Rugby
EN10	Broxbourne	Broxbourne
EH52	Broxburn, West Lothian, Winchburgh	West Lothian
EH10	Bruntsfield, Morningside, Fairmilehead	Edinburgh
BA10	Bruton	South Somerset
TR23	Bryher	Isles of Scilly
SA13	Bryn, Cymmer, Margam, Taibach	Neath Port Talbot
SA2	Brynmill, Cockett, Derwen Fawr, Dunvant, Fairwood, Glanmor, Hendrefoilan, Hendrefoilan Student Village, Ilston, Killay, Sketty, Sketty Park, Singleton Park (University Campus), Tycoch, Uplands, Upper Killay	Swansea
LL78	Brynteg	Anglesey
TQ11	Buckfastleigh	Teignbridge
IG9	Buckhurst Hill	Epping Forest
AB56	Buckie	Moray
SW1H	Buckingham Gate, Victoria St, Birdcage Walk	Westminster
SW1E	Buckingham Gate, Victoria Station	Westminster
OL12	Buckley, Facit, Great Howarth, Healy, Hurstead, Rochdale, Shawforth, Wardle, Whitworth	Rochdale
CH7	Buckley, Leeswood, Treuddyn, Llanarmon-yn-Ial, Caerwys, Mold, Northop Hall, Drury	Flintshire
WD4	Bucks Hill, Chipperfield, Hunton Bridge, Kings Langley	Dacorum
EX23	Bude, Coombe, Crackington Haven, Launcells, Poundstock, Stratton	Cornwall
EX9	Budleigh Salterton	Exeter
LD2	Builth Wells	Llandrindod Wells
NN17	Bulwick, Corby	Corby
NR35	Bungay, Topcroft, Flixton	Suffolk
SG9	Buntingford, Westmill	East Hertfordshire
CO8	Bures	Colchester
RH15	Burgess Hill, Ditchling Common	Mid Sussex
LS4	Burley, Kirkstall, Kirkstall Valley	Leeds
LS9	Burmantofts, Cross Green, East End Park, Gipton, Harehills, Osmondthorpe, Richmond Hill	Leeds
DE65	Burnaston, Egginton, Etwall, Findern, Hatton, Hilton, Milton, Repton, Willington	South Derbyshire
OL16	Burnedge, Firgrove, Hurstead, Milnrow, Rochdale, Smallbridge, Thornham	Rochdale
TA8	Burnham on Sea, Berrow, Brean	Somerset
SL1	Burnham, Littleworth, Salt Hill, Slough, Upton, Cippenham	South Buckinghamshire
BB11	Burnley	Burnley
BB12	Burnley, Barley, Fence, Higham, Padiham, Read, Simonstone, Wheatley Lane	Burnley
BB10	Burnley, Cliviger, Reedley, Worsthorne	Burnley
KY3	Burntisland	Fife
WS7	Burntwood	Lichfield
GU4	Burpham, Chilworth, Jacobs Well, Shalford	Guildford
SA16	Burry Port, Pembrey	Carmarthenshire
L40	Burscough, Scarisbrick	West Lancashire
NN15	Burton Latimer, Barton Seagrave	Kettering
IP31	Bury Saint Edmunds	St Edmundsbury
IP32	Bury Saint Edmunds	St Edmundsbury
IP33	Bury Saint Edmunds	St Edmundsbury
BL8	Bury, Brandlesholme, Greenmount, Affetside, Hawkshaw, Holcombe, Ramsbottom, Tottington, Walshaw	Bury
BL9	Bury, Heap, Heap Bridge, Nangreaves, Summerseat, Unsworth, Walmersley	Bury
BL0	Bury, Ramsbottom, Edenfield, Shuttleworth	Bury
G76	Busby, Clarkston, Eaglesham, Waterfoot	East Renfrewshire
ZE3	Bush	Shetland
EN1	Bush Hill Park, Bulls Cross, Enfield Town, Forty Hill	Enfield
WD23	Bushey, Bushey Heath	Hertsmere
BT57	Bushmills, Castlecatt, Dunseverick, Portballintrae	Moyle
BD6	Buttershaw, Wibsey	Bradford
SK17	Buxton, Tideswell, Hartington, Longnor, Chelmorton	Derbyshire Dales
SK23	Buxworth, Chapel-en-le-Frith, Chinley, Combs, Furness Vale, Kettleshulme, Whaley Bridge	High Peak
KT14	Byfleet, West Byfleet	Elmbridge
SA14	Bynea, Dafen, Llanelli town centre	Carmarthenshire
LL55	Caernarfon, Bethel, Bontnewydd, Caeathro, Brynrefail, Clwt-y-Bont, Deiniolen, Penisarwaun, Beddgelert, Ceunant, Cwm-y-Glo, Llanberis, Llanrug, Nant Gwynant, Nant Peris, Waunfawr	Gwynedd
LL54	Caernarfon, Clynnogfawr, Llanaelhaearn, Llandwrog, Pontllyfni, Saron, Trefor, Llanllyfni, Nantlle, Penygroes, Rhyd Ddu, Talysarn, Bontnewydd, Carmel, Dinas, Groeslon, Rhosgadfan, Rhostryfan	Gwynedd
CF83	Caerphilly, Abertridwr, Senghenydd, Bedwas, Trethomas, Machen, Llanbradach, Pwllypant, Penyrheol, Energlyn, Trecenydd, Rudry	Caerphilly
SY17	Caersws, Llandinam	Powys
PA24	Cairndow	Argyllshire
PA25	Cairndow	Argyllshire
PA26	Cairndow	Argyllshire
PA27	Cairndow	Argyllshire
NR30	Caister-on-Sea	Norfolk
RG31	Calcot Row, Tilehurst	Berkshire
MK7	Caldecotte, Kents Hill, Tilbrook, Walton, Walton Hall, Wavendon	Milton Keynes
NP26	Caldicot, Magor, Newport	Monmouthshire
CH48	Caldy, Frankby, Grange, Greasby, Hoylake, Meols, Newton, Saughall Massie, West Kirby	Wirral
BT68	Caledon, Minterburn	Dungannon and South Tyrone
FK17	Callander	Falkirk
FK18	Callander, Strathyre	Falkirk
PL17	Callington, Ashton, Bray Shop, Kelly Bray, South Hill	Cornwall
SN11	Calne	Wiltshire
PL18	Calstock, Gunnislake, Albaston	Cornwall
G4	Calton, Cowcaddens, Drygate, Kelvinbridge, Townhead, Woodlands, Woodside	Glasgow
S32	Calver, Eyam, Grindleford, Hathersage, Stoney Middleton	Derbyshire Dales
LS28	Calverley, Farsley, Pudsey, Stanningley	Leeds
NG14	Calverton, Lowdham	Gedling
GU15	Camberley, Old Dean, RMAS	Surrey Heath
SE5	Camberwell, Denmark Hill, Southampton Way Estate, Peckham	Lambeth
TR14	Camborne	Cornwall
CB23	Cambourne (incl. Great and Lower), Barton, Comberton, Harlton, Great and Little Eversden, Bourn, Highfields Caldecote, Coton, Haslingfield, Kingston, Hardwick, Toft, Longstowe, Madingley, Dry Drayton, Papworth Everard, Lolworth, Bar Hill, Elsworth, Knapwell, Conington, Boxworth, Caxton, Papworth Saint Agnes	Cambridge
CB1	Cambridge (Central and South), Teversham	Cambridge
CB5	Cambridge (East)	Cambridge
CB4	Cambridge (North)	Cambridge
CB3	Cambridge (North-West), Girton	Cambridge
CB2	Cambridge (West)	Cambridge
PL32	Camelford, Davidstow, Lanteglos-by-Camelford, Otterham, Tresinney	Cornwall
PA28	Campbeltown	Argyllshire
BH13	Canford Cliffs, Sandbanks, Branksome Park	Poole
BH17	Canford Heath, Creekmoor	Poole
TA5	Cannington, Nether Stowey, Over Stowey, Spaxton, Fiddington	Somerset
WS11	Cannock	Cannock Chase
EC4R	Cannon Street	City of London
DG14	Canonbie	Dumfriesshire
CT1	Canterbury	Kent
CT3	Canterbury	Kent
CT4	Canterbury	Kent
SS8	Canvey Island	Castle Point
RH5	Capel, Westhumble, Mickleham, Ockley	Mole Valley
CF11	Cardiff city centre, Canton, Cardiff Bay, Grangetown	Cardiff
CF24	Cardiff city centre, Cathays, Roath, Plasnewydd, Splott, Adamsdown	Cardiff
CF10	Cardiff city centre, Grangetown, Cardiff Bay, Butetown	Cardiff
SA43	Cardigan, New Quay	Ceredigion
G52	Cardonald, Hillington, Penilee	Glasgow
G82	Cardross, Milton	West Dunbartonshire
BT43	Cargan, Knockanully	Ballymena
BD23	Carleton-in-Craven, Embsay, Gargrave, Grassington, Hebden, Hellifield, Kettlewell, Kirkby Malham, Skipton, Threshfield	Craven
SR5	Carley Hill, Castletown, Downhill, Fulwell, Hylton Castle, Hylton Red House, Marley Pots, Monkwearmouth, Sheepfolds, Southwick, Town End Farm, Witherwack	Sunderland
CA1	Carlisle East	Carlisle
CA3	Carlisle North	Carlisle
CA2	Carlisle South West	Carlisle
NG4	Carlton, Gedling Village, Netherfield	Gedling
NG3	Carlton, St Ann's, Mapperley	Gedling
ML8	Carluke, Law	South Lanarkshire
SA31	Carmarthen town centre	Carmarthenshire
G32	Carmyle, Tollcross, Mount Vernon, Lightburn, Sandyhills	Glasgow
LA5	Carnforth, Arnside, Silverdale, Warton, Bolton-Le-Sands	Lancaster
DD7	Carnoustie	Angus
G33	Carntyne, Craigend, Cranhill, Millerston, Provanmill, Riddrie, Robroyston, Ruchazie, Stepps	Glasgow
PH23	Carrbridge, Bogroy	Highland
BT38	Carrickfergus, Ballycarry, Greenisland, Kilroot, Whitehead	Carrickfergus
M31	Carrington, Partington	Trafford
SM5	Carshalton, Carshalton Beeches, Carshalton on the Hill, The Wrythe, Carshalton Village, Eastern St. Helier, Middleton Circle	Sutton
B36	Castle Bromwich, Smith's Wood	Solihull
BA7	Castle Cary	South Somerset
DE74	Castle Donington, Hemington, Kegworth	North West Leicestershire
DG7	Castle Douglas	Kirkcudbrightshire
B35	Castle Vale	Birmingham
BT81	Castlederg, Aghyaran, Clare, Garvetagh, Killen, Killeter, Mournebeg, Scraghey, Spamount	Strabane
G45	Castlemilk	Glasgow
BT31	Castlewellan, Ballyward	Down
CR3	Caterham, Whyteleafe, Chaldon, Woldingham	Croydon
G44	Cathcart, Croftfoot, King's Park, Muirend, Netherlee	Glasgow
DL9	Catterick Garrison	North Yorkshire
MK42	Cauldwell, Elstow, Harrowden, Kempston, Kingsbrook, Shortstown, Wixams	Bedford
RG4	Caversham	Berkshire
PL10	Cawsand, Cremyll, Fort Picklecombe, Freathy, Kingsand, Millbrook	Cornwall
YO11	Cayton	North Yorkshire
CF32	Cefn Cribwr, Laleston, Merthyr Mawr, Ogmore Vale, Tondu, Sarn, Ynysawdre, St Brides Minor, Pontycymer, Llangeinor, Garw Valley, Blaengarw, Blackmill, Bettws, Aberkenfig, St Brides Major	Bridgend
LL67	Cemaes Bay, Tregele	Anglesey
OX1	Central and South Oxford, Kennington	Oxford
S40	Central and West Chesterfield, Brampton	Chesterfield
S70	Central Barnsley, Birdwell, Stairfoot, Worsborough	Barnsley
CT20	Central Folkestone	Folkestone
CT19	Central Folkestone, Cheriton	Folkestone
MK9	Central Milton Keynes, Campbell Park	Milton Keynes
OL1	Chadderton, Higginshaw, Oldham	Oldham
OL9	Chadderton, Oldham, Westwood	Oldham
DE21	Chaddesden, Oakwood, Spondon, Breadsall, Horsley, Little Eaton	Derby
RM6	Chadwell Heath, Little Heath	Barking and Dagenham
RM16	Chafford Hundred, Chadwell St Mary, North Stifford, Orsett	Thurrock
SL9	Chalfont Common, Chalfont St Peter, Gerrards Cross, Horn Hill	South Buckinghamshire
HP8	Chalfont Saint Giles	South Buckinghamshire
OX44	Chalgrove, Garsington, Toot Baldon	South Oxfordshire
TN25	Challock, Wye, Stowting	Ashford
SO53	Chandler's Ford	Eastleigh
LS7	Chapel Allerton, Chapeltown, Little London, Meanwood, Potternewton, Scott Hall, Sheepscar	Leeds
WN8	Chapel House, Dalton, Holland Moor, Newburgh, Parbold, Roby Mill, Skelmersdale, Southway, Upholland	West Lancashire
SR3	Chapelgarth, Doxford Park, Farringdon, Elstob Farm, Essen Way, Gilley Law, Hall Farm, Herrington, Humbledon Hill, Mill Hill, Plains Farm, Ryhope, Silksworth, Springwell, Thorney Close, Tunstall	Sunderland
S35	Chapeltown, Ecclesfield, Grenoside, High Green, Oughtibridge, Thurgoland, Wharncliffe Side, Wortley	Sheffield
TA20	Chard	Somerset
WC2N	Charing Cross	Westminster
OX7	Charlbury, Chadlington	West Oxfordshire
SE7	Charlton	Greenwich
RG10	Charvil, Hurst, Ruscombe, Twyford, Wargrave	Wokingham
ME4	Chatham	Medway
PE16	Chatteris, Swingbrow	Fenland
SK8	Cheadle, Cheadle Hulme, Gatley, Heald Green	Stockport
ST10	Cheadle, Church Leigh, Tean	Staffordshire
BS27	Cheddar, Draycott	Somerset
ST11	Cheddleton, Blythe Bridge	Staffordshire
DE73	Chellaston, Barrow upon Trent, Ingleby, Melbourne, Stanton by Bridge, Swarkestone, Ticknall	Derby
CM2	Chelmsford	Chelmsford
CM99	Chelmsford	Chelmsford
CM1	Chelmsford, Writtle	Chelmsford
B37	Chelmsley Wood, Marston Green, Kingshurst, Fordbridge	Solihull
SW3	Chelsea, Brompton, Knightsbridge	Kensington and Chelsea
GL50	Cheltenham	Tewkesbury
GL51	Cheltenham	Tewkesbury
GL52	Cheltenham	Tewkesbury
GL53	Cheltenham	Tewkesbury
GL54	Cheltenham	Tewkesbury
NP16	Chepstow, Sedbury, Beachley	Monmouthshire
KT16	Chertsey, Lyne	Runnymede
HP5	Chesham, Ashley Green, Bellingdon, Botley, Chartridge, Hawridge, Latimer, Lye Green, Newtown, Waterside, Whelpley Hill	Chiltern
EN7	Cheshunt	Broxbourne
WS6	Cheslyn Hay, Great Wyrley	South Staffordshire
KT9	Chessington, Hook, Malden Rushett	Kingston upon Thames
CH4	Chester, Handbridge, Lache, Pulford, Penyffordd, Broughton, Saltney	Cheshire West and Chester
DH3	Chester-le-Street, Great Lumley, Birtley	County Durham
DH2	Chester-le-Street, Ouston, Pelton, Birtley	County Durham
BS40	Chew Valley, Chew Magna, Chew Stoke, Wrington	Bath and North East Somerset
BS31	Chewton Keynsham, Keynsham, Saltford	Bath and North East Somerset
PO18	Chichester	Sussex
PO19	Chichester	Sussex
PO20	Chichester	Sussex
WF12	Chickenley, Dewsbury, Savile Town, Shaw Cross, Thornhill, Thornhill Lees	Kirklees
GU8	Chiddingfold, Dunsfold, Elstead, Hascombe, Milford, Thursley, Witley	Waverley
RG20	Chieveley, Compton	West Berkshire
IG7	Chigwell	Epping Forest
CH66	Childer Thornton, Ellesmere Port, Great Sutton, Hooton, Ledsham, Little Sutton, Overpool, Whitby	Cheshire West and Chester
E4	Chingford, Sewardstone, Highams Park	Waltham Forest
OX39	Chinnor	South Oxfordshire
SN14	Chippenham	Wiltshire
SN15	Chippenham	Wiltshire
GL55	Chipping Campden	Gloucester
CM5	Chipping Ongar, High Ongar, Bobbingworth, Moreton, The Lavers, The Rodings	Epping Forest
BS37	Chipping Sodbury, Yate	South Gloucestershire
BR7	Chislehurst, Elmstead	Bromley
W4	Chiswick, Gunnersbury, Turnham Green, Bedford Park	Hounslow
NE17	Chopwell, Western Chopwell Wood	Gateshead
M21	Chorlton-cum-Hardy, Firswood	Manchester
BH23	Christchurch	Christchurch
EX18	Chulmleigh	Exeter
GU52	Church Crookham, Crookham Village	Hart
MK3	Church Green, Far Bletchley, Old Bletchley, West Bletchley	Milton Keynes
DE11	Church Gresley, Hartshorne, Newhall, Swadlincote	South Derbyshire
SY6	Church Stretton, Cardington	Shropshire
BS25	Churchill, Winscombe, Sandford, Shipham	Somerset
LS27	Churwell, Gildersome, Morley	Leeds
GL14	Cinderford, Newnham, Westbury-on-Severn	Gloucester
GL7	Cirencester, Fairford, Lechlade	Cotswold
SO23	City Centre, Abbotts Barton, Bar End, Highcliffe, Hyde, St Cross (E), Winnall	Winchester
PR1	City Centre, Avenham, Broadgate, Deepdale, Fishwick, St. Matthew's, Penwortham	Preston
SO14	City Centre, St. Mary's, Newtown, Nicholstown, Ocean Village, Chapel, Eastern Docks, Bevois Valley	Southampton
CO15	Clacton-on-Sea	Tendring
CO16	Clacton-on-Sea	Tendring
PO8	Clanfield, Cowplain, Horndean	Hampshire
SW4	Clapham, Stockwell	Lambeth
SA63	Clarbeston Road	Pembrokeshire
M6	Claremont, Irlams O' Th' Height, Charlestown, Whitlane	Salford
SA6	Clase, Cwmrhydyceirw, Clydach, Morriston, Plasmarl, Plasmarl Industrial Estate, Swansea Enterprise Park, Ynystawe, Ynysforgan	Swansea
IG5	Clayhall	Redbridge
BD14	Clayton	Bradford
HD8	Clayton West, Denby Dale, Emley, Fenay Bridge, Kirkburton, Lepton, Scissett, Shelley, Shepley, Skelmanthorpe	Kirklees
M11	Clayton, Openshaw, Beswick	Manchester
SR6	Cleadon, Fulwell, Monkwearmouth, North Haven, Roker, St Peter's Riverside, Seaburn, Seaburn Dene, South Bents, Whitburn	Sunderland
CA25	Cleator Moor	Copeland
BD19	Cleckheaton, Gomersal, Scholes	Kirklees
DN35	Cleethorpes	North East Lincolnshire
PE34	Clenchwarton, Islington, Stow Bardolph, Terrington St Clement, Tilney All Saints, Tilney St. Lawrence, Walpole Cross Keys, West Lynn, Wimbotsham	West Norfolk
DY14	Cleobury Mortimer	Shropshire
EC1M	Clerkenwell, Farringdon	Islington
BS21	Clevedon	North Somerset
RG25	Cliddesden, Dummer, Overton	Hampshire
MK46	Clifton Reynes, Cold Brayfield, Emberton, Lavendon, Olney, Ravenstone, Warrington, Weston Underwood	Milton Keynes
BS8	Clifton, Hotwells	Bristol
NG11	Clifton, Ruddington, Gotham	Nottingham
BB7	Clitheroe, Barrow, Chatburn, Dunsop Bridge, Gisburn, Hurst Green, Pendleton, Sabden, Slaidburn, Waddington, Whalley, Whitewell, Wiswell	Ribble Valley
WA9	Clock Face, Sutton, Thatto Heath	St. Helens
BT76	Clogher	Dungannon and South Tyrone
L11	Clubmoor, Croxteth, Gillmoss, Norris Green	Liverpool
L13	Clubmoor, Old Swan, Stoneycroft, Tuebrook	Liverpool
SY7	Clun Valley	Shropshire
BS39	Clutton, Temple Cloud	Bath and North East Somerset
G84	Clynder, Cove, Garelochhead, Kilcreggan, Rhu, Rosneath, Shandon	Argyll and Bute
SA66	Clynderwen	Carmarthenshire
EX5	Clyst St. Mary, Woodbury	East Devon
S18	Coal Aston, Dronfield, Dronfield Woodhouse, Holmesfield, Unstone	North East Derbyshire
LE67	Coalville, Ibstock, Markfield	Leicester
ML5	Coatbridge, Annathill, Glenboig	North Lanarkshire
PE7	Coates, Hampton, Folksworth, Yaxley, Whittlesey	Peterborough
KT11	Cobham	Elmbridge
TD13	Cockburnspath	East Lothian
CA13	Cockermouth, Lorton, Buttermere	Allerdale
IP30	Cockfield, Woolpit	St Edmundsbury
DE5	Codnor, Denby, Ripley	Amber Valley
WV8	Codsall, Pendeford, Rakegate, Bilbrook	Wolverhampton
CO1	Colchester	Colchester
CO2	Colchester	Colchester
CO3	Colchester	Colchester
CO4	Colchester	Colchester
CO5	Colchester	Colchester
CO6	Colchester	Colchester
SR7	Cold Hesledon, Dalton-le-Dale, Dawdon, Deneside, Greenhill, Murton, Northlea, Parkside, Seaham, West Lea	County Durham
GL16	Coleford	Gloucester
BT51	Coleraine, Aghadowey, Articlave, Bellany, Blackhill, Castlerock, Castleroe, Garvagh, Kilrea, Macosquin, Ringsend	Coleraine
BT52	Coleraine, Ballyvelton, Cloyfin	Coleraine
EH13	Colinton, Oxgangs	Edinburgh
PA22	Colintraive, Glendaruel	Argyllshire
RM5	Collier Row	Havering
LS22	Collingham, Linton, Wetherby	Leeds
M40	Collyhurst, Miles Platting, Moston, New Moston, Newton Heath	Manchester
SL3	Colnbrook, Datchet, Fulmer, George Green, Horton, Langley, Poyle	Slough
BB8	Colne, Foulridge, Laneshaw Bridge, Trawden, Winewall, Wycoller	Pendle
LL29	Colwyn Bay, Llanelian, Llysfaen, Old Colwyn	Conwy
LL28	Colwyn Bay, Rhos on Sea, Eglwysbach, Glan Conwy, Mochdre, Tal-y-Cafn	Conwy
EX24	Colyton	Exeter
SO21	Compton, Colden Common, Hursley, Micheldever, Owslebury, Shawford, South Wonston, Sutton Scotney, Sparsholt, Twyford	Winchester
CW12	Congleton	Cheshire East
BS49	Congresbury, Yatton	North Somerset
DN12	Conisbrough, Denaby Main, New Edlington, Old Denaby, Old Edlington	Doncaster
LA21	Coniston	South Lakeland
CH5	Connah's Quay, Shotton, Queensferry, Sealand, Sandycroft, Dobshill, Ewloe	Flintshire
IV7	Conon Bridge, Culbokie	Highland
BD20	Cononley, Cross Hills, Glusburn, Kildwick, Silsden, Steeton, Sutton-in-Craven	Bradford
DH8	Consett, Ebchester	County Durham
LL32	Conwy, Dolgarrog, Groesffordd, Henryd, Rowen, Tal-y-Bont, Tyn-y-Groes	Conwy
BT80	Cookstown, Coagh, Tullyhogue	Cookstown
BS9	Coombe Dingle, Sneyd Park, Stoke Bishop, Westbury on Trym, Henleaze, Bristol	Bristol
IP8	Copdock, Belstead	Babergh
RH10	Copthorne, Crawley Down, Domewood, Furnace Green, Northgate, Maidenbower, Pound Hill, Rowfant, Southgate, Three Bridges, Tilgate	Crawley
NE45	Corbridge, Dilston, Aydon, Halton	Northumberland
CF33	Cornelly, Pyle	Bridgend
TD12	Cornhill-on-Tweed, Coldstream, Mindrum	Scottish Borders
OL14	Cornholme, Todmorden, Eastwood, Walsden	Calderdale
SS17	Corringham, Stanford-le-Hope	Thurrock
PH30	Corrour	Highland
SN13	Corsham	Wiltshire
LL21	Corwen, Cynwyd, Glanrafon, Glasfryn, Llandrillo, Llangwm, Maerdy, Ty Nant, Betws Gwerfil Goch, Bryneglwys, Carrog, Cerrigydrudion, Clawdd Poncen, Derwen, Glyndyfrdwy, Gwyddelwern, Llanfihangel Glyn Myfyr, Llidiart-y-Parc, Melin-y-Wig	Conwy
PO6	Cosham	Hampshire
NG12	Cotgrave, Radcliffe on Trent, Keyworth	Rushcliffe
CB25	Cottenham, Landbeach, Rampton, Histon, Impington, Burwell, Swaffham Bulbeck, Swaffham Prior, Stow-Cum-Quy, Bottisham, Lode, Waterbeach, Horningsea, Chittering	Cambridge
HU16	Cottingham, Eppleworth, Raywell, Skidby	East Riding of Yorkshire
TS8	Coulby Newham, Marton, Hemlington, Stainton, Thornton, Maltby	Middlesbrough
CR5	Coulsdon, Chipstead, Woodmansterne	Croydon
PH13	Coupar Angus	Perth and Kinross
WC2E	Covent Garden	Westminster
CV1	Coventry City Centre, Gosford Green, Hillfields, Spon End, Coventry University	Coventry
CF71	Cowbridge, St Brides Major, Welsh St Donats, Pendoylan, Llandow, Colwinston, Llanblethian, Penllyn, Llanfair	Vale of Glamorgan
KY4	Cowdenbeath	Fife
PO31	Cowes, Gurnard	Isle of Wight
BD22	Cowling, Haworth, Oakworth, Oxenhope	Bradford
B64	Cradley Heath	Sandwell
HX7	Cragg Vale, Hebden Bridge, Heptonstall, Mytholmroyd, Old Town	Calderdale
BT65	Craigavon, Drumgor, Legaghory, Tullygally, Brownlow.	Craigavon
BT64	Craigavon, Knockmenagh, Mandeville	Craigavon
BT62	Craigavon, Portadown, Tandragee, Clare, Scotch Street	Craigavon
NE23	Cramlington	Northumberland
TN17	Cranbrook, Goudhurst, Benenden, Frittenden	Ashford
WA11	Crank, Haydock, Moss Bank, Rainford	St. Helens
GU6	Cranleigh, Ewhurst, Alfold	Waverley
EX17	Crediton	Mid Devon
S80	Creswell, South Worksop, Whitwell	Bassetlaw
CW1	Crewe	Cheshire East
CW2	Crewe	Cheshire East
CW3	Crewe	Cheshire East
TA18	Crewkerne	Somerset
FK20	Crianlarich, Luib, Tyndrum	Falkirk
LL52	Criccieth, Llanystumdwy, Pentrefelin, Rhoslan	Gwynedd
NP8	Crickhowell	Powys
SN6	Cricklade, Ashton Keynes, Highworth, Shrivenham, Watchfield	Wiltshire
NW2	Cricklewood, Willesden, Neasden, Dollis Hill, Childs Hill	Barnet
PH5	Crieff	Perth and Kinross
PH6	Crieff	Perth and Kinross
PH7	Crieff	Perth and Kinross
WF4	Crigglestone, Crofton, Durkar, Flockton, Havercroft, Horbury, Netherton, New Crofton, Ryhill, West Bretton, Woolley	Wakefield
AB43	Crimond	Aberdeenshire
IV11	Cromarty	Highland
NR27	Cromer, East Runton, Frogshall, Trimingham, Northrepps, Overstrand	Norfolk
DL15	Crook, Willington	County Durham
MK5	Crownhill, Elfield Park, Grange Farm, Oakhill, Knowlhill, Loughton, Medbourne, Shenley Brook End, Shenley Church End, Shenley Lodge, Shenley Wood	Milton Keynes
PL5	Crownhill, Ernesettle, Honicknowle, Whitleigh, St. Budeaux, Tamerton Foliot	Plymouth
MK8	Crownhill, Grange Farm, Great Holm, Hazeley, Loughton, Loughton Lodge, Two Mile Ash, Wymbush	Milton Keynes
RG45	Crowthorne, Ravenswood	Bracknell Forest
L12	Croxteth Park, West Derby	Liverpool
DN39	Croxton, Kirmington, Ulceby, Wootton	North Lincolnshire
G65	Croy, Kilsyth	North Lanarkshire
CR0	Croydon, Addiscombe, Shirley, Addington, New Addington, Forestdale, Waddon	Croydon
M8	Crumpsall, Cheetham Hill	Manchester
HP15	Cryers Hill, Great Kingshill, Hazlemere, Holmer Green, Hughenden Valley	Wycombe
SA41	Crymych	Pembrokeshire
TN14	Cudham	Bromley
BD13	Cullingworth, Denholme, Queensbury, Thornton	Bradford
EX15	Cullompton, Plymtree	Exeter
G67	Cumbernauld	North Lanarkshire
G68	Cumbernauld, Dullatur	North Lanarkshire
KA18	Cumnock, Ochiltree, Auchinleck, Muirkirk, Smallburn, Lugar, Logan, New Cumnock	East Ayrshire
KY14	Cupar	Fife
KY15	Cupar	Fife
NP44	Cwmbran	Torfaen
CF48	Cyfarthfa, Pant, Merthyr Vale, Troed-y-rhiw, Vaynor, Pentrebach	Merthyr Tydfil
RM10	Dagenham	Barking and Dagenham
RM9	Dagenham, Becontree	Barking and Dagenham
RM8	Dagenham, Becontree Heath	Barking and Dagenham
DG5	Dalbeattie	Kirkcudbrightshire
EH22	Dalkeith, Danderhall, Mayfield, Newtongrange	Midlothian
PA33	Dalmally	Argyllshire
KA8	Dalmilling, Craigie, Woodfield, Wallacetown, Heathfield, Whitletts, Newton on Ayr, Lochside, Braehead	South Ayrshire
G81	Dalmuir, Duntocher, Faifley, Hardgate	West Dunbartonshire
KA24	Dalry, Drakemyre	North Ayrshire
KA6	Dalrymple, Hollybush, Patna, Dalmellington, Bellsbank, Waterside, Rankinston, Drongan	East Ayrshire
CA5	Dalston, Burgh by Sands	Carlisle
LA15	Dalton-in-Furness	Barrow-in-Furness
PH19	Dalwhinnie	Highland
DE4	Darley Dale, Beeley, Rowsley, Winster, Darley Bridge, Elton, Bonsall, Matlock, Matlock Bath, Cromford, Middleton-by-Wirksworth, Wirksworth, Bolehill, Crich, Holloway, Lea, Tansley	Derbyshire Dales
DL1	Darlington East	Darlington
DL3	Darlington West	Darlington
G53	Darnley, Pollok, Crookston	Glasgow
WF8	Darrington, Kirk Smeaton, Pontefract (Monkhill), Thorpe Audlin	Wakefield
DA1	Dartford, Crayford, Barnes Cray	Dartford
DA4	Dartford, South Darenth, Farningham, Eynsford	Dartford
DA2	Dartford, Stone, Joydens Wood, Wilmington, Bean	Dartford
TQ6	Dartmouth	South Hams
KA17	Darvel	East Ayrshire
BB3	Darwen, Bank Fold, Eccleshill, Hoddlesden, Lower Darwen, Pickup Bank, Tockholes	Blackburn with Darwen
TF4	Dawley	Telford and Wrekin
EX7	Dawlish	Exeter
CT14	Deal	Kent
EH4	Dean Village, Comely Bank, Barnton, Cramond	Edinburgh
M2	Deansgate, Manchester City Centre	Manchester
LL31	Deganwy, Glanwydden, Llangwstenin, Llandudno Junction	Conwy
PL33	Delabole, Trebarwith, Westdowns	Cornwall
OL3	Delph, Denshaw, Diggle, Dobcross, Greenfield, Uppermill	Oldham
LL16	Denbigh, Bodfari, Llandyrnog, Llanrhaeadr, Bylchau, Groes, Henllan, Llannefydd, Llansannan, Nantglyn, The Green, Trefnant	Denbighshire
MK1	Denbigh, Mount Farm	Milton Keynes
UB9	Denham, Harefield	South Buckinghamshire
G31	Dennistoun, Haghill, Parkhead	Glasgow
FK6	Denny, Fankerton, Stoneywood	Falkirk
M34	Denton, Audenshaw	Tameside
CH70	Department for Work and Pensions	Chester
SE8	Deptford, Evelyn	Lewisham
DE1	Derby city centre	Derby
NR19	Dereham	Norfolk
PL6	Derriford, Eggbuckland, Estover, Leigham, Roborough, Southway	Plymouth
BT48	Derry, Cityside, Ballynagard, Coshquin, Rosemount, The Collon, Culmore	Derry
BT47	Derry, Waterside, Claudy, Feeny, Dungiven, Eglinton, Park, New Buildings	Derry
BT66	Derryadd, Derrytrasna, Dollingstown, Donaghcloney, Lurgan, Waringstown	Craigavon
SN10	Devizes	Kennet
WF13	Dewsbury Moor, Ravensthorpe, Staincliffe	Kirklees
OX11	Didcot, Blewbury, Harwell	South Oxfordshire
M20	Didsbury, Withington	Manchester
B5	Digbeth, Highgate, Lee Bank	Birmingham
BB6	Dinckley, Great Harwood, Langho	Hyndburn
IV15	Dingwall	Highland
DH9	Dipton, Stanley	County Durham
SK12	Disley, Poynton	Cheshire East
IP22	Diss	South Norfolk
IP98	Diss	Ipswich
LN6	Doddington Park, Birchwood, North/South Hykeham	Lincoln
LL40	Dolgellau, Brithdir, Drws Y Nant, Ganllwyd, Llanelltyd, Llanfachreth, Rhydymain, Tabor	Gwynedd
FK14	Dollar, Glendeven, Burnfoot	Falkirk
LL25	Dolwyddelan	Conwy
BT21	Donaghadee	Ards
DN55	Doncaster	Doncaster
DN1	Doncaster town centre	Doncaster
DT1	Dorchester	West Dorset
DT2	Dorchester	West Dorset
S17	Dore, Totley, Bradway	Sheffield
RH4	Dorking	Mole Valley
IV25	Dornoch	Highland
SY5	Dorrington, Donnington, Pontesbury, Westbury	Shropshire
FK16	Doune, Argaty, Buchany, Deanston	Falkirk
CT15	Dover	Kent
CT16	Dover	Kent
CT17	Dover	Kent
BS16	Downend, Fishponds, Frenchay	Bristol
PE38	Downham Market	West Norfolk
BT30	Downpatrick, Ardglass, Ballyhornan, Ballykinler, Castleward, Clough, Crossgar, Kilclief, Killard, Killough, Killyleagh, Loughinisland, Seaforde, Strangford, Toye	Down
YO25	Driffield	East Riding of Yorkshire
WR9	Droitwich	Wychavon
BT25	Dromore, Dromara, Finnis, Waringsford	Banbridge
M43	Droylsden	Tameside
G15	Drumchapel	Glasgow
IV63	Drumnadrochit, Glenurquhart, Invermoriston	Highland
WC2B	Drury Lane, Aldwych	Camden
DY1	Dudley town centre, Woodsetton	Dudley
DY2	Dudley, Kates Hill, Netherton	Dudley
SK16	Dukinfield	Tameside
LL70	Dulas	Anglesey
TA22	Dulverton	Somerset
SE21	Dulwich, Dulwich Village, West Dulwich, Tulse Hill, Sydenham Hill	Lambeth
DG1	Dumfries	Dumfriesshire
DG2	Dumfries	Dumfriesshire
EH42	Dunbar, Broxburn, East Lothian	East Lothian
KW6	Dunbeath	Highland
DD1	Dundee city centre	Dundee
BT16	Dundonald	Belfast
KY11	Dunfermline	Fife
KY12	Dunfermline	Fife
KY99	Dunfermline	Fife
BT70	Dungannon, Ballygawley, Cappagh, Castlecaulfield, Donaghmore, Galbally, Garvaghy, Pomeroy, Rock, Seskilgreen	Dungannon and South Tyrone
BT71	Dungannon, Benburb, Blackwatertown, Bush, Coalisland, Killycolpy, Ardboe, Moygashel, Stewartstown	Dungannon and South Tyrone
PH8	Dunkeld	Perth and Kinross
YO19	Dunnington, Escrick, Wheldrake, Murton, Riccall, Stillingfleet, Warthill	York
PA23	Dunoon	Argyllshire
TD11	Duns	Scottish Borders
LU5	Dunstable (East including Woodside Estate), Bidwell, Chalgrave, Fancott, Harlington, Houghton Regis (including Townsend Industrial Estate), Thorn, Toddington	Central Bedfordshire
LU6	Dunstable (West), Eaton Bray, Edlesborough, Holywell, Kensworth, Northall, Sewell, Studham, Totternhoe, Whipsnade	Central Bedfordshire
NE11	Dunston, Metro Centre, Team Valley, Kibblesworth	Gateshead
DN7	Dunsville, Hatfield, Lindholme, Stainforth	Doncaster
DH1	Durham	County Durham
DH97	Durham	County Durham
DH98	Durham	County Durham
DH99	Durham	County Durham
GL11	Dursley	Stroud
NN5	Duston, New Duston	Northampton
LL44	Dyffryn Ardudwy	Gwynedd
GL18	Dymock, Newent	Gloucester
TS16	Eaglescliffe, Egglescliffe, Aislaby	Stockton-on-Tees
W5	Ealing, Park Royal	Ealing
BB94	Earby	Pendle
RG6	Earley	Wokingham
SW5	Earl's Court	Kensington and Chelsea
TD4	Earlston	Scottish Borders
SR8	Easington, Easington Colliery, Horden, Little Thorpe, Peterlee, Shotton, Shotton Colliery	County Durham
YO61	Easingwold	North Yorkshire
NE36	East & West Boldon	South Tyneside
WF3	East Ardsley, Lofthouse, Lofthouse Gate, Robin Hood, Stanley, Tingley, West Ardsley	Leeds
PO32	East Cowes, Whippingham	Isle of Wight
SE22	East Dulwich, Peckham Rye, Loughborough Junction, Herne Hill	Southwark
N2	East Finchley, Fortis Green, Hampstead Garden Suburb	Barnet
RH19	East Grinstead, Ashurst Wood, Dormans Park, Felbridge, Felcourt, Sharpthorne, West Hoathly	Mid Sussex
E6	East Ham, Beckton, Upton Park, Barking	Newham
G75	East Kilbride	South Lanarkshire
G74	East Kilbride, Thorntonhall	South Lanarkshire
LE16	East Langton, Hallaton, Market Harborough, Medbourne, Braybrooke	Harborough
LE12	East Leake, West Leake, Sutton Bonington, Mountsorrel, Shepshed, Belton, Quorn, Sileby, Wymeswold	Charnwood
EH40	East Linton	East Lothian
GU32	East Meon, West Meon, Sheet, Steep	East Hampshire
OX4	East Oxford, Cowley, Blackbird Leys, Sandford-on-Thames, Iffley	Oxford
SY2	East Shrewsbury	Shropshire
PE32	East Winch, Leziate, Middleton, Mileham, Narborough, East Lexham	West Norfolk
BN20	Eastbourne, Beachy Head, East Dean, Friston, Old Town, Ratton, Wannock, Willingdon	Eastbourne
BN23	Eastbourne, Friday Street, Langney, Sovereign Harbour	Eastbourne
BN22	Eastbourne, Hampden Park, Willingdon	Eastbourne
BN21	Eastbourne, Old Town	Eastbourne
G34	Easterhouse	Glasgow
NP19	Eastern and East Central Newport, Beechwood, Maindee, St. Julians, Ringland	Newport
NP18	Eastern Newport, including Caerleon, Langstone, Llanwern, Nash, Llandegveth Underwood	Newport
SO50	Eastleigh Town Centre	Eastleigh
BS5	Easton, St George, Whitehall	Bristol
SS9	Eastwood, Leigh-on-Sea	Southend-on-Sea
NR2	Eaton	Norfolk
NP23	Ebbw Vale, Brynmawr	Blaenau Gwent
M30	Eccles	Salford
S11	Ecclesall, Endcliffe Park, Ecclesall Road, Greystones, Hunter's Bar, Millhouses, Sharrow Vale, Nether Edge	Sheffield
BD2	Eccleshill, Fagley	Bradford
WA10	Eccleston, St. Helens, West Park	St. Helens
S21	Eckington, Killamarsh, Renishaw, Spinkhill	North East Derbyshire
TN8	Edenbridge	Sevenoaks
B16	Edgbaston, Ladywood	Birmingham
B15	Edgbaston, Lee Bank	Birmingham
HA8	Edgware	Harrow
EH91	Edinburgh	Edinburgh
PL3	Efford, Hartley, Laira, Mannamead, Milehouse, Peverell, Higher Compton	Plymouth
TW20	Egham, Englefield Green	Runnymede
CH44	Egremont, Liscard, Poulton, Seacombe, Wallasey	Wirral
CA22	Egremont, Thornhill	Copeland
IV30	Elgin	Moray
HX5	Elland, Blackley	Calderdale
SY12	Ellesmere	Shropshire
CH34	Ellesmere Port	Cheshire West and Chester
CH65	Ellesmere Port, Great Sutton, Whitby, Wolverham	Cheshire West and Chester
AB41	Ellon	Aberdeenshire
HU15	Elloughton-cum-Brough, South Cave	East Riding of Yorkshire
S74	Elsecar, Hoyland, Jump	Barnsley
SE9	Eltham, Mottingham, New Eltham, Falconwood, Chinbrook, Longlands, Kidbrooke	Greenwich
YO41	Elvington, Full Sutton, Stamford Bridge, Sutton upon Derwent, Wilberfoss	York
CF5	Ely, Caerau, St Fagans, Culverhouse Cross, Canton, Leckwith, Fairwater, Danescourt, Llandaff, Riverside, Wenvoe, Peterston Super Ely, St Georges Super Ely, Michaelston	Cardiff
MK4	Emerson Valley, Furzton, Kingsmead, Shenley Brook End, Snelshall West, Tattenhoe, Tattenhoe Park, Westcroft, Whaddon, Woodhill	Milton Keynes
LE15	Empingham, Manton, Thistleton, Uppingham, Whissendine, Langham	Rutland
PO10	Emsworth	Hampshire
EN3	Enfield Highway, Enfield Island Village, Enfield Lock, Enfield Wash, Ponders End	Enfield
CA23	Ennerdale Bridge	Copeland
BT74	Enniskillen town, Boho	Fermanagh
CM16	Epping, Theydon Bois	Epping Forest
KT18	Epsom, Headley, Langley Vale, Tattenham Corner	Epsom and Ewell
DN9	Epworth, Finningley, Haxey, Owston Ferry	Doncaster
B23	Erdington, Short Heath	Birmingham
B24	Erdington, Tyburn	Birmingham
DA18	Erith Marshes, Thamesmead	Bexley
DA8	Erith, Northumberland Heath, Slade Green	Bexley
PA8	Erskine	Renfrewshire
KT10	Esher, Claygate, Hinchley Wood	Elmbridge
TS6	Eston, Grangetown, Normanby, Teesville, South Bank	Redcar & Cleveland
TN19	Etchingham	Rother
NW1W	Euston	Camden
NW1	Euston, Camden Town, Somers Town, Primrose Hill, Gospel Oak, Lisson Grove	Camden
IV16	Evanton	Highland
WR11	Evesham	Wychavon
EX3	Exeter	Exeter
EX1	Exeter city centre	Exeter
CV7	Exhall, Ash Green, Keresley, Meriden, Balsall Common, Berkswell, Corley, Arley, Ansty, Shilton, Fillongley	Coventry
EX8	Exmouth	Exeter
NG80	Experian	Nottingham
EX4	Exwick, St Thomas, Beacon Heath , Redhils	Exeter
IP23	Eye	Mid Suffolk
TD14	Eyemouth	Scottish Borders
M35	Failsworth, Castle Industrial Estate	Oldham
LL38	Fairbourne, Friog	Gwynedd
FK1	Falkirk	Falkirk
M14	Fallowfield, Moss Side, Ladybarn, Rusholme	Manchester
TR11	Falmouth, Flushing, Mylor Bridge, Constantine, Mawnan Smith	Cornwall
PO14	Fareham, Hill Head, Stubbington, Titchfield	Hampshire
PO15	Fareham, Titchfield, Whiteley	Hampshire
SN7	Faringdon	Vale of White Horse
GU14	Farnborough, Cove	Rushmoor
GU7	Farncombe, Godalming	Waverley
SL2	Farnham Common, Farnham Royal, Hedgerley, Stoke Poges	South Buckinghamshire
GU9	Farnham, Badshot Lea, Hale, Heath End	Waverley
ME13	Faversham	Swale
IV20	Fearn	Highland
LS8	Fearnville, Gipton, Gledhow, Harehills, Oakwood, Roundhay	Leeds
SA15	Felinfoel, Pontyates	Carmarthenshire
IP11	Felixstowe, Trimley St. Martin, Trimley St. Mary	Suffolk Coastal
NE10	Felling, Leam Lane, Pelaw	Gateshead
TW13	Feltham, Hanworth	Hounslow
NE4	Fenham, West Gate, Wingrove	Newcastle
CF43	Ferndale, Blaenllechau, Tylorstown, Penrhys, Pontygwaith, Stanleytown, Maerdy	Rhondda Cynon Taf
DL17	Ferryhill, Chilton, Cornforth, Bishop Middleham	County Durham
SA17	Ferryside, Kidwelly, Llansaint, Mynyddygarreg, Carway	Carmarthenshire
EC4A	Fetter Lane	City of London
YO14	Filey	North Yorkshire
BS34	Filton, Little Stoke, Patchway, Stoke Gifford	South Gloucestershire
WV3	Finchfield, Compton, Castlecroft	Wolverhampton
N3	Finchley, Church End, Finchley Central	Barnet
N4	Finsbury Park, Manor House, Harringay, Stroud Green	Haringey
EC1R	Finsbury, Finsbury Estate	Islington
EC1V	Finsbury, Moorfields Eye Hospital	Islington
LS98	First Direct	Leeds
M16	Firswood, Old Trafford, Whalley Range	Trafford
S5	Firth Park, Shirecliffe, Shiregreen, Southey Green, Parson Cross, Longley, Fir Vale, Wadsley Bridge	Sheffield
YO10	Fishergate, Fulford, Heslington, Osbaldwick, Tang Hall	York
BN41	Fishersgate, Portslade	Brighton and Hove
SA65	Fishguard	Pembrokeshire
PE21	Fishtoft, Wyberton	Boston
W1T	Fitzrovia, Tottenham Court Road	Camden
BT75	Fivemiletown, Clabby	Fermanagh
GU51	Fleet, Elvetham Heath	Hart
FY7	Fleetwood	Wyre
CH6	Flint, Oakenholt, Flint Mountain, The Nant, Bagillt	Flintshire
IV32	Fochabers	Moray
CT50	Folkestone	Kent
L21	Ford, Litherland, Seaforth	Liverpool
SP6	Fordingbridge	New Forest
E7	Forest Gate, Stratford	Newham
SE23	Forest Hill, Honor Oak, Crofton Park	Lewisham
RH18	Forest Row	Mid Sussex
DD8	Forfar, Glamis, Kirriemuir	Angus
L37	Formby, Little Altcar, Great Altcar	Sefton
IV36	Forres	Moray
KW13	Forsinard	Highland
PH32	Fort Augustus, Auchterawe	Highland
PH33	Fort William	Highland
IV10	Fortrose	Highland
B74	Four Oaks, Mere Green, Little Aston, Streetly	Birmingham
PL23	Fowey, Bodinnick, Golant, Polruan	Cornwall
BS36	Frampton Cotterell, Winterbourne	South Gloucestershire
PO40	Freshwater	Isle of Wight
GU16	Frimley, Frimley Green, Deepcut, Mytchett	Surrey Heath
CO13	Frinton-on-Sea	Tendring
BD9	Frizinghall, Heaton	Bradford
CA26	Frizington, Croasdale	Copeland
WA6	Frodsham, Helsby	Cheshire West and Chester
BA11	Frome	Mendip
LL20	Froncysyllte, Garth, Glyn Ceiriog, Llanarmon Dyffryn Ceiriog, Llwynmawr, Pandy, Pontcysyllte, Pontfadog, Rhewl, Tregeiriog, Trevor, Llangollen, Eglwyseg, Llantysilio	Denbighshire
CB21	Fulbourn, Great and Little Wilbraham, West Wratting, Weston Colville, Teversham, Abington (incl. Little), Hildersham, Barlow, Hadstock, Horseheath, Shudy Camps, West Wickham, Castle Camps, Balsham, Linton	Cambridge
SW6	Fulham, Parson's Green	Hammersmith and Fulham
MK11	Fullers Slade, Galley Hill, Kiln Farm, Stony Stratford	Milton Keynes
HP2	Gaddesden Row, Piccotts End, Grove Hill, Adeyfield, Hemel Hempstead Industrial Estate	Dacorum
LL60	Gaerwen, Llanddaniel, Llangaffo, Star	Anglesey
DN21	Gainsborough	West Lindsey
IV21	Gairloch	Highland
TD1	Galashiels, Blainslie, Clovenfords, Fountainhall, Stow, Tweedbank	Scottish Borders
KA4	Galston	East Ayrshire
IG2	Gants Hill, Newbury Park	Redbridge
LL51	Garndolbenmaen	Gwynedd
WD25	Garston, Aldenham, Leavesden, Letchmore Heath	Watford
IV23	Garve	Highland
NE8	Gateshead, Bensham	Gateshead
WF5	Gawthorpe, Ossett	Wakefield
CH60	Gayton, Heswall	Wirral
RM2	Gidea Park, Heath Park	Havering
G46	Giffnock, Kennishead, Thornliebank, Deaconsbank	Glasgow
BD24	Giggleswick, Horton in Ribblesdale, Settle	Craven
BT63	Gilford, Laurencetown, Portadown, Scarva	Craigavon
ME7	Gillingham	Medway
SP8	Gillingham	North Dorset
EH17	Gilmerton, Moredun, Mortonhall	Edinburgh
KA11	Girdle Toll, Stanecastle, Bourtreehill, Broomlands, Perceton, Sourlie, Doura, Roddinghill, Springside, Irvine, Dreghorn	North Ayrshire
BD8	Girlington, Manningham, Lower Grange	Bradford
KA26	Girvan, Ballantrae, Colmonell, Barrhill, Old Dally, Dally, Turnberry	South Ayrshire
BA6	Glastonbury	Mendip
S14	Gleadless Valley	Sheffield
PH37	Glenfinnan, Polloch	Highland
KY6	Glenrothes	Fife
KY7	Glenrothes	Fife
SA36	Glogue, Hermon	Pembrokeshire
SK13	Glossop, Hadfield	High Peak
GL1	Gloucester	Gloucester
GL19	Gloucester	Gloucester
GL2	Gloucester	Gloucester
GL3	Gloucester	Gloucester
GL4	Gloucester	Gloucester
RH9	Godstone, South Godstone	Tandridge
HD7	Golcar, Linthwaite, Marsden, Scapegoat Hill, Slaithwaite	Kirklees
NW11	Golders Green, Hampstead Garden Suburb	Barnet
KW10	Golspie	Highland
SA64	Goodwick	Pembrokeshire
DN14	Goole, Howden, Rawcliffe, Carlton	East Riding of Yorkshire
TR4	Goonhavern, Trispen	Cornwall
WN3	Goose Green, Ince, Winstanley, Worsley Mesnes	Wigan
G5	Gorbals	Glasgow
TD3	Gordon	Scottish Borders
EH23	Gorebridge	Midlothian
RG8	Goring, Streatley	South Oxfordshire
NR31	Gorleston, Bradwell	Norfolk
PL26	Gorran Haven, Foxhole, Mevagissey, St Dennis, St Ewe, Sticker	Cornwall
NE3	Gosforth, Fawdon, Kingston Park	Newcastle
PO12	Gosport, Alverstoke, Hardway	Hampshire
PO13	Gosport, Lee-on-the-Solent	Hampshire
PA19	Gourock	Renfrewshire
G51	Govan, Ibrox	Glasgow
FK3	Grangemouth, Glensburgh	Falkirk
LA11	Grange-over-Sands, Allithwaite	South Lakeland
NG31	Grantham	South Kesteven
NG33	Grantham, Castle Bytham, Corby Glen	South Kesteven
NG32	Grantham, Croxton Kerrial, Sedgebrook	South Kesteven
EH5	Granton	Edinburgh
PH26	Grantown-on-Spey, Advie, Cromdale, Dulnain Bridge	Highland
DA12	Gravesend (east)	Gravesham
DA11	Gravesend (west), Northfleet	Gravesham
WC1R	Gray's Inn	Camden
RM17	Grays, Badgers Dene	Thurrock
S61	Greasbrough, Kimberworth, Rockingham, Thorpe Hesley	Rotherham
CH49	Greasby, Landican, Upton, Woodchurch	Wirral
TS9	Great Ayton, Stokesley	Hambleton
B43	Great Barr, Hamstead, Pheasey	Birmingham
CM6	Great Dunmow, Felsted	Uttlesford
LE8	Great Glen, Fleckney, Kibworth, Peatling Magna, Countesthorpe	Leicester
BD7	Great Horton, Lidget Green	Bradford
HP16	Great Missenden, Ballinger, The Lee, Little Hampden, Little Kingshill, Prestwood, South Heath	Wycombe
NN18	Great Oakley, Little Oakley	Corby
WC1N	Great Ormond Street Hospital	Camden
W1W	Great Portland Street, Fitzrovia	Westminster
LS26	Great Preston, Methley, Mickletown, Oulton, Rothwell, Swillington, Woodlesford	Leeds
NR29	Great Yarmouth	Norfolk
UB6	Greenford, Perivale	Ealing
DA9	Greenhithe, Stone	Dartford
TD10	Greenlaw	Scottish Borders
MK12	Greenleys, Hodge Lea, Old Wolverton, Stacey Bushes, Wolverton, Wolverton Mill	Milton Keynes
PA15	Greenock	Renfrewshire
PA16	Greenock	Renfrewshire
SE10	Greenwich, Maze Hill, Greenwich Peninsula	Greenwich
DG16	Gretna	Dumfriesshire
S4	Grimesthorpe, Pitsmoor	Sheffield
DN31	Grimsby	North East Lincolnshire
DN32	Grimsby	North East Lincolnshire
DN33	Grimsby	North East Lincolnshire
DN34	Grimsby	North East Lincolnshire
TS4	Grove Hill, Longlands	Middlesbrough
GU2	Guildford Park, Onslow Village, Park Barn, University of Surrey	Guildford
GU1	Guildford Town Centre, Slyfield, Merrow	Guildford
EC2V	Guildhall	City of London
TS14	Guisborough	Redcar & Cleveland
LS20	Guiseley	Leeds
EH31	Gullane	East Lothian
PE4	Gunthorpe, Paston, Walton, Werrington	Peterborough
E8	Hackney Central, Dalston, London Fields	Hackney
EH41	Haddington	East Lothian
IP7	Hadleigh	Ipswich
SS7	Hadleigh, South Benfleet, Thundersley	Castle Point
EN4	Hadley Wood, Cockfosters, East Barnet, New Barnet	Enfield
WN1	Haigh, Ince, Swinley, Wigan	Wigan
BN27	Hailsham, Amberstone, Bodle Street, Bodle Street Green, Boreham Street, Carters Corner, Chalvington, Cowbeech, Downash, Golden Cross, Hellingly, Herstmonceux, Horsebridge, Lower Dicker, Lower Horsebridge, Magham Down, Mulbrooks, Rickney, Trolliloes, Upper Dicker, Wartling, Windmill Hill	Wealden
BD21	Hainworth, Keighley	Bradford
EX6	Haldon, Mamhead, Exminster	Teignbridge
L24	Hale, Speke	Liverpool
B62	Halesowen	Dudley
B63	Halesowen	Dudley
IP19	Halesworth	Waveney
L26	Halewood	Liverpool
HX1	Halifax Town Centre, Savile Park	Calderdale
KW12	Halkirk	Highland
B28	Hall Green	Birmingham
CO9	Halstead	Braintree
NE49	Haltwhistle, Melkridge	Northumberland
TW10	Ham, Petersham	Richmond upon Thames
RG9	Hambleden, Rotherfield Peppard, Turville, Turville Heath, Skirmett, Rockwell End, Mill End, Fawley, Fingest, Frieth, Greenlands, Nettlebed, Shiplake	South Oxfordshire
ML3	Hamilton, Ferniegair, Limekilnburn, Quarter	South Lanarkshire
LE5	Hamilton, Thurnby Lodge, Evington	Leicester
W6	Hammersmith, Ravenscourt Park	Hammersmith and Fulham
RG18	Hampstead Norreys, Hermitage, Yattendon	West Berkshire
NW3	Hampstead, Chalk Farm, Primrose Hill, Swiss Cottage, Belsize Park, Gospel Oak, Frognal, Childs Hill	Camden
TW12	Hampton	Richmond upon Thames
B21	Handsworth	Birmingham
S13	Handsworth, Richmond, Woodhouse	Sheffield
BS15	Hanham, Kingswood	Bristol
ST1	Hanley, Cobridge, Sneyd Green	Staffordshire
W1S	Hanover Square, Savile Row	Westminster
W7	Hanwell, Boston Manor	Ealing
B17	Harborne	Birmingham
CV33	Harbury	Warwick
LL46	Harlech, Llanfair	Gwynedd
IP20	Harleston	Waveney
W1G	Harley Street	Westminster
CM18	Harlow	Harlow
CM20	Harlow	Harlow
CM17	Harlow, Old Harlow, Matching, Matching Tye, Matching Green	Harlow
CM19	Harlow, Roydon	Harlow
RM3	Harold Wood, Harold Hill, Noak Hill	Havering
AL5	Harpenden	St Albans
M9	Harpurhey, Blackley	Manchester
HG1	Harrogate	Harrogate
HG2	Harrogate	Harrogate
HA3	Harrow Weald, Kenton, Wealdstone	Harrow
HA1	Harrow, North Harrow, Northwick Park	Harrow
TN7	Hartfield	Wealden
TS24	Hartlepool	Hartlepool
TS26	Hartlepool	Hartlepool
NE34	Harton, Horsley Hill, Marsden, Simonside, Brockley Whins	South Tyneside
CO12	Harwich	Tendring
DN11	Harworth, New Rossington, Rossington, Tickhill, Wadworth	Doncaster
S41	Hasland, North Chesterfield, Old Whittington	Chesterfield
GU27	Haslemere, Fernhurst, Shottermill, Grayswood	Waverley
BN6	Hassocks, Albourne, Clayton, Ditchling, Goddards Green, Hurstpierpoint, Keymer, Newtimber, Sayers Common, Streat, Westmeston	Lewes
TN34	Hastings town centre	Hastings
TN35	Hastings, Pett, Guestling, Westfield	Hastings
AL10	Hatfield	Welwyn Hatfield
CM3	Hatfield Peverel, South Woodham Ferrers, Boreham, Maylandsea	Chelmsford
AL9	Hatfield, Brookmans Park, Essendon, North Mymms	Welwyn Hatfield
TW14	Hatton	Hounslow
EC1N	Hatton Garden	Camden
AB42	Hatton, St. Fergus	Aberdeenshire
PO9	Havant, Rowland's Castle	Hampshire
SA62	Haverfordwest	Pembrokeshire
SA61	Haverfordwest town centre, Merlin's Bridge	Pembrokeshire
RM4	Havering-atte-Bower, Abridge, Stapleford Abbotts, Noak Hill, Navestock, Stapleford Tawney, Stapleford Aerodrome	Havering
TD9	Hawick, Newcastleton, Bedrule, Bonchester Bridge, Chesters, Denholm, Kershopefoot, Newmill-on-Teviot, Roberton, Wilton Dean	Scottish Borders
TN18	Hawkhurst, Sandhurst	Tunbridge Wells
CT18	Hawkinge, Lyminge, Etchinghill, Capel-le-Ferne	Folkestone
LS5	Hawksworth, Kirkstall	Leeds
YO32	Haxby, Huntington (North), Wigginton, New Earswick, Stockton-on-the-Forest, Strensall	York
UB3	Hayes, Harlington	Hillingdon
TR27	Hayle	Cornwall
PO11	Hayling Island	Hampshire
EH11	Haymarket Station, Gorgie, Stenhouse, Sighthill	Edinburgh
EH12	Haymarket, Murrayfield, Corstorphine	Edinburgh
RH16	Haywards Heath, Lindfield	Mid Sussex
TN27	Headcorn, Biddenden	Ashford
DN41	Healing, Keelby, Stallingborough	North East Lincolnshire
DE75	Heanor, Loscoe	Amber Valley
WS12	Heath Hayes, Hednesford, Huntington, Wimblebury	Cannock Chase
DE23	Heatherton Village, Littleover, Normanton, Pear Tree	Derby
TN21	Heathfield	Rother
TW6	Heathrow	Hillingdon
NE31	Hebburn	South Tyneside
WF16	Heckmondwike	Kirklees
HU12	Hedon, Patrington	East Riding of Yorkshire
KW8	Helmsdale	Highland
TR12	Helston	Cornwall
TR13	Helston	Cornwall
BN5	Henfield, Blackstone, Edburton, Fulking, Small Dole, Wineham, Woodmancote	Horsham
CF82	Hengoed, Cefn Hengoed, Ystad Mynach, Gelligaer, Maesycwmmer	Caerphilly
BS14	Hengrove, Stockwood, Whitchurch, Withywood	Bristol
B95	Henley-in-Arden	Stratford-on-Avon
SG16	Henlow, Henlow Camp, Lower Stondon, Upper Stondon	Central Bedfordshire
HR1	Hereford city centre	Hereford
CT6	Herne Bay	Kent
SE24	Herne Hill, Tulse Hill	Lambeth
S65	Herringthorpe, Ravenfield, Thrybergh	Rotherham
SG14	Hertford	Hertfordshire
SG13	Hertford, Newgate Street Village, Bayford, Brickendon	East Hertfordshire
HU13	Hessle	East Riding of Yorkshire
TW5	Heston	Hounslow
CH31	Heswall	Wirral
YO31	Heworth, Huntington (South), The Groves, Layerthorpe	York
NE46	Hexham, Anick, Oakwood, Acomb	Northumberland
OL2	Heyside, Royton, Shaw	Oldham
OL10	Heywood	Rochdale
EN5	High Barnet, Arkley	Barnet
NE7	High Heaton, Benton	Newcastle
WC1V	High Holborn	Camden
HU20	High Hunsley, Little Weighton, Low Hunsley, Riplingham	East Riding of Yorkshire
HP12	High Wycombe, Booker, Sands	Wycombe
HP13	High Wycombe, Downley	Wycombe
HP10	High Wycombe, Flackwell Heath, Handy Cross, Hedsor, Loudwater, Penn, Tylers Green, Wooburn, Wooburn Green, Wooburn Moor	Wycombe
NN10	Higham Ferrers, Rushden, Wymington	East Northamptonshire
TA9	Highbridge, West Huntspill, Brent Knoll	Somerset
N5	Highbury, Highbury Fields	Islington
M7	Higher Broughton, Cheetwood, Lower Broughton, Kersal	Salford
SO17	Highfield, Portswood, St Denys, Swaythling	Southampton
N6	Highgate, Hampstead Heath	Camden
HX2	Highroad Well, Illingworth, Luddenden, Luddenden Foot, Midgley, Mixenden, Mount Tabor, Norton Tower, Ogden, Wainstalls, Warley Town	Calderdale
IP26	Hilborough, Northwold	Breckland
UB10	Hillingdon, Ickenham	Hillingdon
BT26	Hillsborough, Annahilt, Culcavy	Lisburn
LE10	Hinckley	Leicester
GU26	Hindhead, Bramshott Chase, Grayshott	Waverley
TA17	Hinton Saint George	Somerset
CB24	Histon, Impington, Oakington, Longstanton, Willingham, Swavesey, Over, Fen Drayton, Milton, Rampton, Cottenham	Cambridge
SS5	Hockley	Rochford
EN11	Hoddesdon	Broxbourne
CV6	Holbrooks, Coundon, Radford, Longford, Rowley's Green, Whitmore Park, Hawkesbury	Coventry
ME17	Hollingbourne, Hucking, Harrietsham, Lenham, Boughton Monchelsea, Linton, Coxheath, Chart Sutton, Sutton Valence	Maidstone
N7	Holloway, Barnsbury, Islington, Tufnell Park	Islington
B47	Hollywood, Wythall	Bromsgrove Worcestershire
CW4	Holmes Chapel, Goostrey	Cheshire East
CA19	Holmrook, Santon Bridge, Eskdale	Copeland
EX22	Holsworthy	Exeter
DN36	Holton le Clay, Humberston, Ludborough, Marshchapel, New Waltham, North Cotes, North Thoresby, Tetney	North East Lincolnshire
KA27	Holy Island, Isle of Arran	North Ayrshire
LL65	Holyhead, Trearddur Bay, Four Mile Bridge, Rhoscolyn, Bodedern, Bryngwran, Caergeiliog, Llanynghenedl, Trefor, Valley, Gwalchmai, Llanddeusant, Llanfachraeth, Llanfaethlu, Llanfairynghornwy, Llanrhyddlad, Rhydwyn	Anglesey
S42	Holymoorside, Grassmoor, North Wingfield, Tupton, Wingerworth	Chesterfield
CH8	Holywell, Milwr, Holway, Carmel, Lloc, Bryn Celyn, Greenfield, Halkyn, Lixwm, Talacre	Flintshire
BT18	Holywood, Craigavad	North Down
E9	Homerton, Hackney Wick, South Hackney, Hackney Marshes, Victoria Park	Hackney
EX14	Honiton	Exeter
RG29	Hook	Hampshire
RG27	Hook, Sherfield-on-Loddon, Stratfield Turgis, Turgis Green	Hampshire
WN7	Hope Carr, Landside, Leigh, Low Common, Bedford, Westleigh, Pennington, Higher Folds	Wigan
WF14	Hopton, Mirfield	Kirklees
RH6	Horley, Gatwick Airport	Crawley
LN9	Horncastle	Lincoln
RM12	Hornchurch, Elm Park	Havering
RM11	Hornchurch, Emerson Park, Ardleigh Green	Havering
HU18	Hornsea, Mappleton, Rolston	East Riding of Yorkshire
N8	Hornsey, Crouch End, Harringay	Haringey
LS18	Horsforth	Leeds
RH12	Horsham, Broadbridge Heath, Rusper, Rudgwick, Warnham	Horsham
DE7	Horsley Woodhouse, Ilkeston, Morley, West Hallam	Erewash
KT19	Horton, West Ewell, Stoneleigh	Epsom and Ewell
DH4	Houghton-le-Spring	Sunderland
DH5	Houghton-le-Spring, Hetton-le-Hole	Sunderland
TW4	Hounslow West, Hounslow Heath, Whitton	Hounslow
TW3	Hounslow, Maswell Park, Lampton	Hounslow
BN52	Hove	Brighton and Hove
BN3	Hove, Hangleton, West Blatchington	Brighton and Hove
CH29	Hoylake	Wirral
CH47	Hoylake, Meols, Saughall Massie, West Kirby	Wirral
NG15	Hucknall, Ravenshead, Newstead	Ashfield
HD1	Huddersfield Town Centre, Hillhouse, Lockwood, Marsh, Paddock	Kirklees
HU1	Hull	Kingston upon Hull
HU2	Hull	Kingston upon Hull
HU3	Hull	Kingston upon Hull
HU5	Hull	Kingston upon Hull
HU4	Hull, Anlaby Common, Anlaby Park, Gipsyville	Kingston upon Hull
HU7	Hull, Bransholme, Kingswood, Sutton-on-Hull, Wawne	Kingston upon Hull
HU6	Hull, Dunswell	Kingston upon Hull
HU8	Hull, Longhill, Ings	Kingston upon Hull
HU9	Hull, Marfleet	Kingston upon Hull
M15	Hulme, Manchester Science Park	Manchester
EH36	Humbie	East Lothian
RG17	Hungerford	Berkshire
PE36	Hunstanton, Holme, Ringstead, Sedgeford, Thornham	West Norfolk
PE29	Huntingdon, Godmanchester, Hartford, Hinchingbrooke	Huntingdonshire
PE26	Huntingdon, Ramsey, Bury, Ramsey Mereside, Upwood	Huntingdonshire
L36	Huyton, Roby, Tarbock	Knowsley
SK14	Hyde, Broadbottom, Gee Cross, Hollingworth, Mottram	Tameside
CT21	Hythe	Kent
SO45	Hythe, Fawley, Blackfield, Calshot, Hardley	New Forest
TN15	Ightham, Wrotham	Sevenoaks
IG1	Ilford	Redbridge
EX34	Ilfracombe, Woolacombe	Exeter
TA19	Ilminster	Somerset
L38	Ince Blundell, Hightown	Sefton
EH44	Innerleithen	Scottish Borders
AB52	Insch	Aberdeenshire
DN2	Intake, Wheatley, Wheatley Hills	Doncaster
PA32	Inveraray	Argyllshire
PH35	Invergarry	Highland
IV18	Invergordon	Highland
IV1	Inverness centre and north, The Longman, North Kessock, Kilmuir	Highland
IV2	Inverness east, Culloden, Balloch, Ardersier	Highland
IV3	Inverness west, Dochgarroch, Abriachan, Bunchrew	Highland
AB51	Inverurie	Aberdeenshire
M44	Irlam, Cadishead	Salford
KA12	Irvine, Fullarton, Irvine Centre, Stanecastle	North Ayrshire
BT94	Irvinestown, Ballinamallard, Brookeborough, Tempo, Maguiresbridge, Lisbellaw	Fermanagh
HS9	Isle Of Barra	Comhairle nan Eilean Siar
HS7	Isle Of Benbecula	Comhairle nan Eilean Siar
PA20	Isle Of Bute	Buteshire
PH44	Isle Of Canna	Highland
PA78	Isle Of Coll	Argyllshire
PA61	Isle Of Colonsay	Argyllshire
PH42	Isle Of Eigg	Highland
PA41	Isle Of Gigha	Argyllshire
HS3	Isle Of Harris	Comhairle nan Eilean Siar
HS5	Isle Of Harris	Comhairle nan Eilean Siar
PA76	Isle Of Iona	Argyllshire
PA42	Isle Of Islay	Argyllshire
PA43	Isle Of Islay	Argyllshire
PA44	Isle Of Islay	Argyllshire
PA45	Isle Of Islay	Argyllshire
PA46	Isle Of Islay	Argyllshire
PA47	Isle Of Islay	Argyllshire
PA48	Isle Of Islay	Argyllshire
PA49	Isle Of Islay	Argyllshire
PA60	Isle Of Jura	Argyllshire
HS2	Isle Of Lewis	Comhairle nan Eilean Siar
PA62	Isle Of Mull	Argyllshire
PA63	Isle Of Mull	Argyllshire
PA64	Isle Of Mull	Argyllshire
PA65	Isle Of Mull	Argyllshire
PA66	Isle Of Mull	Argyllshire
PA67	Isle Of Mull	Argyllshire
PA68	Isle Of Mull	Argyllshire
PA69	Isle Of Mull	Argyllshire
PA70	Isle Of Mull	Argyllshire
PA71	Isle Of Mull	Argyllshire
PA72	Isle Of Mull	Argyllshire
PA74	Isle Of Mull	Argyllshire
PA75	Isle Of Mull	Argyllshire
HS6	Isle Of North Uist	Comhairle nan Eilean Siar
PH43	Isle Of Rum	Highland
HS4	Isle Of Scalpay	Comhairle nan Eilean Siar
ME12	Isle of Sheppey	Swale
IV43	Isle Of Skye	Highland
IV44	Isle Of Skye	Highland
IV46	Isle Of Skye	Highland
IV47	Isle Of Skye	Highland
IV48	Isle Of Skye	Highland
IV55	Isle Of Skye	Highland
IV56	Isle Of Skye	Highland
HS8	Isle Of South Uist	Comhairle nan Eilean Siar
PA77	Isle Of Tiree	Argyllshire
TW7	Isleworth, Osterley	Hounslow
SL0	Iver, Iver Heath, Richings Park, Thorney	South Buckinghamshire
PL21	Ivybridge, Brownston, Cornwood, Ermington, Modbury, Ugborough	South Hams
NE32	Jarrow, Fellgate, South Tyne Tunnel	South Tyneside
TD8	Jedburgh, Ancrum, Camptown, Crailing, Jed Valley, Nisbet, Oxnam	Scottish Borders
BT35	Jerrettspass, Bessbrook, Camlough, Crossmaglen, Belleek, Newtownhamilton	Newry and Mourne
NE2	Jesmond, Spital Tongues	Newcastle
PA10	Johnstone	Renfrewshire
PA5	Johnstone, Brookfield, Elderslie	Renfrewshire
PA6	Johnstone, Houston	Renfrewshire
PA9	Johnstone, Howwood	Renfrewshire
AB55	Keith	Moray
NR25	Kelling, Baconsthorpe, Blakeney, Bodham, Cley next the Sea, Edgfield, Hempstead, High Kelling, HunworthLangham, Letheringsett, Glandford, Weybourne, West Beckham, Salthouse	Norfolk
TD5	Kelso	Scottish Borders
LA9	Kendal, Burneside, Sedgwick	South Lakeland
LA8	Kendal, Sizergh, Grayrigg	South Lakeland
CV8	Kenilworth, Baginton, Bubbenhall, Brandon, Stoneleigh, Wolston, Ryton-On-Dunsmore, Ashow	Warwick
SE11	Kennington, Vauxhall	Lambeth
W8	Kensington, Holland Park	Kensington and Chelsea
NW5	Kentish Town, Tufnell Park, Dartmouth Park, Gospel Oak	Camden
CA12	Keswick, Seatoller, Braithwaite, Bassenthwaite, Threlkeld	Allerdale
NN16	Kettering	Kettering
BS22	Kewstoke, Weston-super-Mare, Worle	North Somerset
DY10	Kidderminster	Wyre Forest
DY11	Kidderminster	Wyre Forest
OX5	Kidlington	Cherwell
ST7	Kidsgrove, Talke, Talke Pits, Alsager, Mow Cop	Staffordshire
KA25	Kilbirnie	North Ayrshire
NW6	Kilburn, Brondesbury, West Hampstead, Queen's Park	Brent
SA68	Kilgetty	Pembrokeshire
FK21	Killin, Ardeonaig, Auchmore, Clachaig, Glenlochay, Kinnell	Falkirk
LS14	Killingbeck, Seacroft, Scarcroft, Swarcliffe, Thorner, Whinmoor	Leeds
NE12	Killingworth	North Tyneside
BT60	Killylea, Tynan, Belcoo, Middletown, Keady, Darkley, Markethill, Kingsmills	Armagh
PA13	Kilmacolm	Renfrewshire
KA3	Kilmarnock, Altonhill, Knockinlaw, Longpark, Beansburn, Hillhead, Kilmaurs, Kirktoun, Onthank, Stewarton, Lugton, Dunlop, Fullwood, Kingsford, Southcraigs, Fenwick, Crookedholm, Hurlford, Whinpark, New Farm Loch, Beansburn	East Ayrshire
KA1	Kilmarnock, Bonnyton, Grange, Bellfield, Caprington, Riccarton, Shortlees, Hurlford South	East Ayrshire
S64	Kilnhurst, Mexborough, Swinton	Doncaster
KA13	Kilwinning	North Ayrshire
NG16	Kimberley, Eastwood, Nuthall, Langley Mill, Pinxton, Selston, Awsworth, Ironville, Jacksdale, Underwood, Brinsley, Watnall	Broxtowe
KW11	Kinbrace	Highland
N1C	Kings Cross	Camden
WC1X	Kings Cross, Finsbury (west)	Camden
B14	Kings Heath, Yardley Wood, Brandwood, Druids Heath, Warstock	Birmingham
PE30	King's Lynn, North Wootton, South Wootton	West Norfolk
B38	Kings Norton	Birmingham
TQ7	Kingsbridge	South Hams
BS2	Kingsdown, St Pauls, St Phillips, St Agnes	Bristol
NN2	Kingsthorpe	Northampton
KT1	Kingston upon Thames, Hampton Wick	Kingston upon Thames
KT2	Kingston upon Thames, Norbiton	Kingston upon Thames
DY6	Kingswinford	Dudley
HR5	Kington	Hereford
PH21	Kingussie, Insh, Kincraig	Highland
PH50	Kinlochleven	Highland
KY13	Kinross	Kinross-Shire
BH11	Kinson, Bear Cross, West Howe, Wallisdown	Bournemouth
BH10	Kinson, Northbourne, Redhill, Ensbury Park, Wallisdown	Bournemouth
DY7	Kinver, Enville, Stourton	South Staffordshire
L32	Kirkby	Knowsley
L33	Kirkby	Knowsley
CA17	Kirkby Stephen, Brough, Ravenstonedale	Eden
LA17	Kirkby-in-Furness	South Lakeland
KY1	Kirkcaldy	Fife
KY2	Kirkcaldy	Fife
DG6	Kirkcudbright	Kirkcudbrightshire
WF2	Kirkhamgate, Kettlethorpe, Lupset, Newmillerdam, Sandal, Thornes, Walton (Wakefield)	Wakefield
IV5	Kirkhill, Inchmore, Moniack, Cabrich	Highland
G66	Kirkintilloch, Lennoxtown, Lenzie, Milton of Campsie	East Dunbartonshire
EH29	Kirkliston	Edinburgh
EH27	Kirknewton	West Lothian
KW15	Kirkwall	Orkney Islands
IP10	Kirton, Nacton, Levington	Suffolk Coastal
B33	Kitts Green, Stechford	Birmingham
SG3	Knebworth, Woolmer Green, Datchworth	North Hertfordshire
LD7	Knighton	Llandrindod Wells
KA2	Knockentiber, Crosshouse, Dundonald	East Ayrshire
PH41	Knoydart	Highland
WA16	Knutsford	Cheshire East
IV40	Kyle	Highland
IV41	Kyleakin, Isle Of Skye	Highland
SS15	Laindon	Basildon
IV27	Lairg, Durness, Tongue, Scourie	Highland
G23	Lambhill, Summerston	Glasgow
SA48	Lampeter	Ceredigion
LA2	Lancaster, Abbeystead, Aldcliffe, Aughton, Austwick, Bailrigg, Bay Horse, Caton, Clapham, Cockerham, Dolphinholme, Ellel, Farleton, Galgate, Glasson Dock, Halton, Hest Bank, High Bentham, Hornby, Quernmore, Tatham, Wharfe	Lancaster
LA1	Lancaster, Aldcliffe, Bailrigg	Lancaster
BN15	Lancing, Coombes, Sompting	Worthing
SS16	Langdon Hills	Basildon
DG13	Langholm	Dumfriesshire
TA10	Langport	Somerset
TN3	Langton Green	Sevenoaks
TR16	Lanner, Carharrack, St Day	Cornwall
FK5	Larbert, Stenhousemuir, Torwood	Falkirk
M60	Large user and PO Box	Manchester
KA30	Largs	North Ayrshire
KA29	Largs, Glenside, Fairlie, Kelburn	North Ayrshire
NR16	Larling	Norfolk
BT40	Larne, Ballygally, Gleno, Glynn, Islandmagee, Kilwaughter, Magheramorne, Millbrook	Larne
EH18	Lasswade, Polton	Midlothian
KW5	Latheron	Highland
TD2	Lauder, Oxton	Scottish Borders
PL15	Launceston, Bolventor, Lezant, South Petherwin, Treneglos	Cornwall
AB30	Laurencekirk	Aberdeenshire
YO91	Lawrence Court, PO Boxes	York
FY3	Layton, Marton, Staining	Blackpool
EC3M	Leadenhall, Lloyd's of London, Fenchurch Street	City of London
CV32	Leamington Spa N	Warwick
CV31	Leamington Spa S, Whitnash, Radford Semele	Warwick
CH46	Leasowe, Moreton	Wirral
KT22	Leatherhead, Oxshott, Fetcham	Mole Valley
HR8	Ledbury	Hereford
SE12	Lee, Grove Park, Chinbrook, Hither Green, Eltham, Horn Park, Blackheath	Lewisham
LS99	Leeds	Leeds
LS1	Leeds city centre	Leeds
LS2	Leeds city centre, Woodhouse	Leeds
ST13	Leek	Staffordshire
LE1	Leicester	Leicester
LE21	Leicester	Leicester
LE55	Leicester	Leicester
LE87	Leicester	Leicester
WC2H	Leicester Square	Westminster
LU7	Leighton Buzzard, Bragenham, Briggington, Burcott, Cheddington, Chelmscote, Clipstone, Crafton, Cublington, Eggington, Great Billington, Grove, Heath and Reach, Hockliffe, Horton, Hollingdon, Ivinghoe, Ivinghoe Aston, Ledburn, Leedon, Little Billington, Mentmore, Pitstone, Slapton, Soulbury, Stanbridge, Stewkley, Stockgrove, Tebworth, Tilsworth, Wing, Wingfield	Central Bedfordshire
LE17	Leire, Lutterworth, Swinford, Bitteswell, Ullesthorpe	Leicester
IP16	Leiston, Aldringham, Eastbridge, Sizewell, Theberton, Thorpeness	Suffolk Coastal
EH6	Leith, Newhaven	Edinburgh
EH7	Leith, Restalrig, Craigentinny	Edinburgh
NE15	Lemington, Throckley, Newburn	Newcastle
HR6	Leominster	Hereford
ZE1	Lerwick, Scalloway	Shetland
ML11	Lesmahagow, Blackwood, Carluke, Kirkmuirhill	South Lanarkshire
SG6	Letchworth	North Hertfordshire
KY8	Leven	Fife
KY9	Leven	Fife
M19	Levenshulme, Burnage	Manchester
BN7	Lewes, Cooksbridge, East Chiltington, Iford, Kingston, Offham, Plumpton, Plumpton Green, Rodmell, Southease, Swanborough, Telscombe	Lewes
SE13	Lewisham, Hither Green, Ladywell	Lewisham
PR26	Leyland, Bretherton, Croston, Farington Moss, Moss Side, Ulnes Walton	South Ribble
PR25	Leyland, Clayton-le-Woods, Farington	South Ribble
E10	Leyton, Temple Mills, Hackney Marshes, Upper Clapton, Walthamstow Marshes	Hackney
E11	Leytonstone, Wanstead, Aldersbrook, Snaresbrook, Cann Hall	Waltham Forest
EH16	Liberton, Cameron Toll, Craigmillar, Niddrie	Edinburgh
WS13	Lichfield	Lichfield
WS14	Lichfield	Lichfield
PL16	Lifton, Broadwoodwidger, Marystow	West Devon
GU18	Lightwater	Surrey Heath
BT49	Limavady, Ballykelly	Limavady
LN3	Lincoln	Lincoln
LN1	Lincoln city centre, Stow	West Lindsey
WC2A	Lincoln's Inn Fields, Royal Courts of Justice	Camden
HD3	Lindley, Milnsbridge, Oakes, Outlane, Paddock, Salendine Nook, Scammonden	Kirklees
RH7	Lingfield, Dormansland	Tandridge
EH49	Linlithgow	West Lothian
GU30	Liphook, Bramshott, Conford, Linch, Milland, Passfield	East Hampshire
BT28	Lisburn	County Antrim
BT27	Lisburn, Cargacreevy, Drumalig, Drumbo, Hilden, Hillhall, Lambeg	Lisburn
PL14	Liskeard, Dobwalls, Doublebois, Minions, St Cleer, St Ive, St Neot	Cornwall
BT92	Lisnaskea, Florencecourt, Derrylin, Newtownbutler	Fermanagh
GU33	Liss, Greatham, Selborne, Rake	East Hampshire
NR17	Little Ellingham, Great Ellingham	Norfolk
M38	Little Hulton	Salford
CH64	Little Neston, Ness, Neston, Parkgate, Puddington, Willaston	Cheshire West and Chester
OL15	Littleborough, Shore, Smithybridge, Summit	Rochdale
BH7	Littledown, Iford	Bournemouth
BN17	Littlehampton, Climping, Lyminster, Wick	Arun
L67	Liverpool	Liverpool
L68	Liverpool	Liverpool
L71	Liverpool	Liverpool
L72	Liverpool	Liverpool
L73	Liverpool	Liverpool
L74	Liverpool	Liverpool
L75	Liverpool	Liverpool
L1	Liverpool city centre	Liverpool
L2	Liverpool city centre	Liverpool
L8	Liverpool City Centre, Dingle, Toxteth	Liverpool
L7	Liverpool City Centre, Edge Hill, Fairfield, Kensington	Liverpool
L3	Liverpool City Centre, Everton, Vauxhall	Liverpool
L69	Liverpool, Liverpool University	Liverpool
L70	Liverpool, Speke	Liverpool
EH54	Livingston	West Lothian
EH53	Livingston, Mid Calder, Pumpherston	West Lothian
SA47	Llanarth	Ceredigion
LL45	Llanbedr	Gwynedd
LL76	Llanbedrgoch	Anglesey
SY19	Llanbrynmair	Powys
SA19	Llandeilo, Llangadog, Llanwrda	Carmarthenshire
SA20	Llandovery	Carmarthenshire
LD1	Llandrindod Wells	Llandrindod Wells
SA44	Llandysul	Ceredigion
LL71	Llanerchymedd	Anglesey
LL61	Llanfairpwllgwyngyll, Brynsiencyn, Dwyran, Newborough	Anglesey
SY22	Llanfechain, Llanfyllin, Llansantffraid, Llanymynech, Meifod	Powys
SA35	Llanfyrnach	Pembrokeshire
LD4	Llangammarch Wells	Llandrindod Wells
SY18	Llanidloes	Powys
CF23	Llanishen, Cyncoed, Pentwyn, Penylan, Pontprennau, Old St Mellons	Cardiff
LL30	Llanrhos, Llandudno, Penrhyn Bay	Conwy
LL26	Llanrwst, Capel Garmon, Llanddoged, Melin-y-Coed, Maenan	Conwy
CF38	Llantwit Fardre, Church village, Tonteg, Efail Isaf, Beddau, Ty Nant	Rhondda Cynon Taf
CF61	Llantwit Major, Llan-maes	Vale of Glamorgan
LD5	Llanwrtyd Wells	Llandrindod Wells
SA40	Llanybydder	Carmarthenshire
LL37	Llwyngwril	Gwynedd
EH20	Loanhead	Midlothian
PH38	Lochailort, Glenuig, Kinlochmoidart	Highland
FK19	Lochearnhead	Falkirk
DD2	Lochee, Blackness, Ninewells, Menziehill, Charleston, Balgay, Ardler, Logie	Dundee
KY5	Lochgelly	Fife
PA30	Lochgilphead	Argyllshire
PA31	Lochgilphead	Argyllshire
PA12	Lochwinnoch, Newton of Belltrees	Renfrewshire
DG11	Lockerbie	Dumfriesshire
NR14	Loddon, Poringland, Trowse	Norfolk
BS41	Long Ashton	North Somerset
NG10	Long Eaton, Sawley, Sandiacre	Erewash
NR15	Long Stratton	Norfolk
DA3	Longfield, Hartley, Fawkham	Dartford
ST3	Longton, Meir, Blurton, Weston Coyney	Staffordshire
CA6	Longtown, Bewcastle	Carlisle
OX13	Longworth, Sunningwell, Frilford, Cothill, Appleton	Vale of White Horse
PL13	Looe, Lansallos, Polperro	Cornwall
IV31	Lossiemouth	Moray
PL22	Lostwithiel, Boconnoc, Lanlivery, Lerryn, St Veep	Cornwall
LE11	Loughborough, Charnwood	Charnwood
IG10	Loughton, High Beach	Epping Forest
LN11	Louth	Lincoln
NE9	Low Fell, Springwell	Gateshead
WV10	Low Hill, Bushbury, Heath Town, Fordhouses, Fallings Park, Featherstone, Wednesfield, Brinsford	Wolverhampton
BD12	Low Moor, Oakenshaw, Wyke	Bradford
N9	Lower Edmonton, Edmonton	Enfield
BH14	Lower Parkstone, Lilliput, Penn Hill	Poole
WA3	Lowton, Golborne, Birchwood, Rixton, Glazebrook, Culcheth	Wigan
B19	Lozells, Newtown, Birchfield	Birmingham
SP11	Ludgershall, Weyhill, Thruxton, Upper Clatford, Longparish, Enham Alamein, St Mary Bourne, Hurstbourne Tarrant	Test Valley
SY8	Ludlow	Shropshire
L29	Lunt, Sefton Village	Sefton
LU2	Luton (East), Chiltern Green, Cockernhoe, East Hyde, Lawrence End, Lilley, New Mill End, Peters Green, Tea Green, The Hyde, Wandon End, Wandon Green, Winch Hill	Luton
LU3	Luton (North), Lower Sundon, Streatley, Sundon	Luton
LU1	Luton (South), Aley Green, Caddington, Lower Woodside, Pepperstock, Skimpot, Slip End, Woodside	Luton
LU4	Luton (West), Chalton, Leagrave	Luton
KW2	Lybster	Highland
KW3	Lybster	Highland
GL17	Lydbrook, Drybrook, Longhope, Mitcheldean, Ruardean	Gloucester
TN29	Lydd	Shepway
DY9	Lye, Pedmore, Hagley	Dudley
DT7	Lyme Regis	West Dorset
WA13	Lymm, Statham, Warburton	Warrington
SO43	Lyndhurst	New Forest
EX35	Lynmouth, Lynton	Exeter
FY8	Lytham St. Annes, Moss Side	Fylde
LN12	Mablethorpe, Sutton-on-Sea	East Lindsey
SK11	Macclesfield	Cheshire East
SK10	Macclesfield, Bollington, Pott Shrigley, Prestbury, Rainow	Cheshire East
AB44	Macduff	Aberdeenshire
SY20	Machynlleth	Powys
TF7	Madeley, Sutton Hill	Telford and Wrekin
CF34	Maesteg, Llangynwyd, Caerau, Nantyffyllon	Bridgend
BT46	Maghera, Lisnamuck, Swatragh, Upperlands	Magherafelt
BT45	Magherafelt, Ballyronan, Bellaghy, Castledawson, Desertmartin, Draperstown, Knockloughrim, Moneymore, Tobermore, Fallalea, Fallaghloon	Magherafelt
L31	Maghull, Lydiate, Melling, Waddicar	Sefton
W9	Maida Vale, Little Venice	Westminster
ME18	Maidstone	Maidstone
ME14	Maidstone, Bearsted, Grove Green	Maidstone
CM9	Maldon, Tollesbury, Tolleshunt D'Arcy, Tolleshunt Knights	Maldon
SN16	Malmesbury	Wiltshire
BH8	Malmesbury Park, Charminster, Queens Park, Strouden Park, Townsend	Bournemouth
SY14	Malpas	Cheshire West and Chester
WR13	Malvern	Malvern Hills
WR14	Malvern	Malvern Hills
M90	Manchester Airport	Manchester
M3	Manchester City Centre, Blackfriars, Trinity	Manchester
M99	Manchester X, JD Williams	Manchester
CO11	Manningtree	Tendring
E12	Manor Park, Little Ilford, Aldersbrook	Newham
G43	Mansewood, Newlands, Pollokshaws	Glasgow
NG18	Mansfield	Mansfield
NG19	Mansfield Woodhouse	Mansfield
EC4N	Mansion House	City of London
TR17	Marazion	Cornwall
PE15	March, Benwick, Doddington, Manea, Wimblington	Fenland
EH9	Marchmont, Grange, Blackford	Edinburgh
NE30	Marden, Tynemouth, Cullercoats	North Tyneside
CT9	Margate	Kent
LL73	Marianglas	Anglesey
TF9	Market Drayton	Shropshire
LN7	Market Rasen	Lincoln
LN8	Market Rasen	Lincoln
YO43	Market Weighton, Holme-on-Spalding-Moor	East Riding of Yorkshire
SN8	Marlborough, Burbage	Kennet
TS11	Marske-by-the-Sea, New Marske	Redcar & Cleveland
TA12	Martock	Somerset
TS7	Marton, Nunthorpe, Ormesby	Middlesbrough
G20	Maryhill, North Kelvinside, Ruchill	Glasgow
W1H	Marylebone	Westminster
W1U	Marylebone	Westminster
CA15	Maryport, Dearham, Flimby, Allonby	Allerdale
KA19	Maybole, Crosshill, Straiton	South Ayrshire
W1K	Mayfair (north), Grosvenor Square	Westminster
W1J	Mayfair (south), Piccadilly, Royal Academy	Westminster
TN20	Mayfield	Wealden
PH12	Meigle, Newtyle	Perth and Kinross
SN12	Melksham	Wiltshire
TD6	Melrose	Scottish Borders
LE13	Melton Mowbray	Leicester
LL59	Menai Bridge, Llandegfan, Llansadwrn	Anglesey
FK11	Menstrie	Falkirk
DA13	Meopham	Gravesham
G1	Merchant City	Glasgow
TA16	Merriott	Somerset
CF47	Merthyr Tydfil, Gurnos, Penydarren	Merthyr Tydfil
SW20	Merton Park, Raynes Park	Merton
DE3	Mickleover	Derby
TS2	Middlehaven, Port Clarence	Middlesbrough
TS1	Middlesborough Town Centre, Gresham, University, Abingdon	Middlesbrough
M24	Middleton, Alkrington	Rochdale
CW10	Middlewich	Cheshire East
GU29	Midhurst, Cocking, Easebourne	Chichester
IP28	Mildenhall, Culford	Forest Heath
SA73	Milford Haven	Pembrokeshire
SO41	Milford-on-Sea, Pennington, Boldre, Hordle, Sway	New Forest
NW7	Mill Hill, Arkley	Barnet
LA18	Millom	Copeland
LA19	Millom, Waberthwaite, Bootle	Copeland
KA28	Millport	North Ayrshire
AB13	Milltimber	Aberdeen
G62	Milngavie	East Dunbartonshire
LA7	Milnthorpe, Beetham, Storth, Heversham	Lancaster
G22	Milton, Possilpark	Glasgow
TA24	Minehead	Somerset
CT12	Minster	Ramsgate
CR4	Mitcham, Beddington Corner	Merton
TR8	Mitchell	Cornwall
LL72	Moelfre	Anglesey
DG10	Moffat	Dumfriesshire
NE25	Monkseaton, New Hartley, Holywell, Seaton Delaval	North Tyneside
NP25	Monmouth, Redbrook, Welsh Newton	Monmouthshire
TA15	Montacute	Somerset
SY15	Montgomery	Powys
DD10	Montrose, St Cyrus, Inverbervie, Gourdon	Angus
EC3R	Monument, Billingsgate	City of London
CA24	Moor Row	Copeland
PH40	Morar	Highland
SM4	Morden, Morden Park, Lower Morden, St. Helier	Merton
LA3	Morecambe, Heysham, Middleton, Overton, Sunderland Point	Lancaster
LA4	Morecambe, Torrisholme	Lancaster
CH28	Moreton	Wirral
GL56	Moreton-in-Marsh	Tewkesbury
MK77	Morgan Stanley Processing Centre	Milton Keynes
NE61	Morpeth, Tranwell, Clifton Hepscott	Northumberland
SW14	Mortlake, East Sheen	Richmond upon Thames
PA80	Morvern	Renfrewshire
B13	Moseley, Billesley	Birmingham
OL5	Mossley, Mossley Cross	Tameside
ML1	Motherwell, Carfin, Cleland, Hareshaw, Holytown, New Stevenston, Newarthill, Newhouse	North Lanarkshire
CF45	Mountain Ash, Abercynon, Penrhiwceiber	Rhondda Cynon Taf
SG10	Much Hadham	East Hertfordshire
TF13	Much Wenlock	Shropshire
IV6	Muir of Ord, Marybank, Strathconon	Highland
IV8	Munlochy	Highland
EH21	Musselburgh, Wallyford, Whitecraig	East Lothian
N10	Muswell Hill	Haringey
GL6	Nailsworth, Painswick	Stroud
SA32	Nantgaredig, Dryslwyn	Carmarthenshire
CW5	Nantwich, Willaston	Cheshire East
SA67	Narberth	Pembrokeshire
LE19	Narborough, Enderby	Leicester
B40	National Exhibition Centre, Birmingham International Airport, Bickenhill	Solihull
B7	Nechells	Birmingham
IP6	Needham Market, Creeting St. Mary, Barham, Henley, Claydon, Witnesham	Mid Suffolk
BB9	Nelson, Barrowford, Blacko, Brierfield, Higherford, Roughlee	Pendle
CH33	Neston	Cheshire West and Chester
ML9	Netherburn, Stonehouse, Ashgill	South Lanarkshire
L27	Netherley	Liverpool
PH25	Nethy Bridge	Highland
LN2	Nettleham, Ermine & St Giles Estates	West Lindsey
SO24	New Alresford, Old Alresford, Cheriton, Tichborne	Winchester
NG7	New Basford, Forest Fields, Hyson Green, Radford, Lenton	Nottingham
CH45	New Brighton, Wallasey, Wallasey Village	Wirral
SE14	New Cross, New Cross Gate	Lewisham
CH32	New Ferry	Wirral
KT3	New Malden	Kingston upon Thames
BH25	New Milton	New Forest
WC1A	New Oxford Street	Camden
SA45	New Quay	Ceredigion
TN28	New Romney, Greatstone-on-Sea, Littlestone-on-Sea	Shepway
N11	New Southgate, Friern Barnet, Bounds Green, Arnos Grove	Enfield
EH2	New Town	Edinburgh
EH3	New Town, West End, Tollcross, Fountainbridge	Edinburgh
NP24	New Tredegar	Blaenau Gwent
NG22	Newark-on-Trent	Newark and Sherwood
NG23	Newark-on-Trent	Newark and Sherwood
NG24	Newark-on-Trent	Newark and Sherwood
NE64	Newbiggin-by-the-Sea	Northumberland
EH28	Newbridge, Ratho	Edinburgh
RG14	Newbury	Berkshire
NE1	Newcastle city centre	Newcastle
SA38	Newcastle Emlyn	Carmarthenshire
BT33	Newcastle, Bryansford, Dundrum	Down
ST5	Newcastle-under-Lyme	Staffordshire
BN9	Newhaven, Piddinghoe, South Heighton, Tarring Neville	Lewes
KA16	Newmilns, Greenholm	East Ayrshire
SA42	Newport	Pembrokeshire
TF10	Newport	Telford and Wrekin
PO30	Newport	Isle of Wight
DD6	Newport-on-Tay, Wormit, Balmerino, Gauldry, Tayport	Fife
TR7	Newquay	Cornwall
BT34	Newry, Annalong, Ballymartin, Cabra, Hilltown, Kilcoo, Kilkeel, Mayobridge, Poyntzpass, Rathfriland, Rostrevor, Warrenpoint	Newry and Mourne
TQ12	Newton Abbot, Kingsteignton	Teignbridge
DL5	Newton Aycliffe, Heighington	County Durham
G77	Newton Mearns	East Renfrewshire
DG8	Newton Stewart	Wigtownshire
WA12	Newton-le-Willows, Earlestown	St. Helens
PH20	Newtonmore, Kinloch Laggan, Laggan	Highland
SY16	Newtown	Powys
TS19	Newtown, Fairfield, Hardwick, Roseworth, Bishopsgarth, Elm Tree Farm	Stockton-on-Tees
BT37	Newtownabbey	Newtownabbey
BT36	Newtownabbey, Mossley, Glengormley	Newtownabbey
BT22	Newtownards, Ardkeen, Ballyhalbert, Ballywalter, Carrowdore, Cloughey, Greyabbey, Kircubbin, Millisle, Portaferry, Portavogie	North Down
BT23	Newtownards, Ballygowan, Comber, Conlig, Killinchy, Moneyrea	Ards
HX6	Norland, Ripponden, Rishworth, Sowerby, Sowerby Bridge	Calderdale
GU3	Normandy, Puttenham, Worplesdon, Christmas Pie, Flexford	Guildford
OX2	North and West Oxford, Botley, North Hinksey, Summertown, Wytham	Oxford
SO52	North Baddesley	Test Valley
EH39	North Berwick	East Lothian
SM3	North Cheam	Sutton
TA3	North Curry	Somerset
IP4	North East Ipswich	Ipswich
OX3	North East Oxford, Headington, Marston, Elsfield	Oxford
HU14	North Ferriby, Melton, Swanland	East Riding of Yorkshire
N12	North Finchley, Woodside Park	Barnet
HA2	North Harrow, South Harrow	Harrow
HR4	North Hereford	Hereford
W10	North Kensington, Queens Park	Kensington and Chelsea
DN40	North Killingholme, South Killingholme, Habrough, Immingham, East Halton	North Lincolnshire
NR32	North Lowestoft	Suffolk
EH38	North Middleton, Heriot	Midlothian
TW9	North Sheen, Kew	Richmond upon Thames
NE29	North Shields, Royal Quays, Billy Mill, New York	North Tyneside
HG4	North Stainley, High Grantley	Ripon
SG1	North Stevenage	Stevenage
WD24	North Watford	Watford
IP1	North West Ipswich, Akenham	Ipswich
CH88	North West Securities Bank	Chester
DL6	Northallerton East, Ingleby Cross	North Yorkshire
DL7	Northallerton West	North Yorkshire
NN1	Northampton	Northampton
B31	Northfield	Birmingham
UB5	Northolt	Ealing
NP11	North-western Newport, including: Abercarn, Crumlin, Cwmfelinfach, Risca, Ynysddu	Caerphilly
CW8	Northwich	Cheshire West and Chester
CW9	Northwich, Wincham, Pickmere	Cheshire West and Chester
HA6	Northwood, Moor Park, Sandy Lodge	Hillingdon
YO17	Norton	North Yorkshire
TS20	Norton, Mount Pleasant	Stockton-on-Tees
NR3	Norwich	Norfolk
NR4	Norwich	Norfolk
NR5	Norwich	Norfolk
NR6	Norwich	Norfolk
NR7	Norwich	Norfolk
NR8	Norwich	Norfolk
NR9	Norwich	Norfolk
W11	Notting Hill, Holland Park	Kensington and Chelsea
NG1	Nottingham City Centre	Nottingham
NG2	Nottingham City Centre, Sneinton, The Meadows, West Bridgford	Nottingham
CV11	Nuneaton town centre, Abbey Green, St Nicolas Park, Horeston Grange, Attleborough, Whitestone, Hill Top, Chilvers Coton, Caldwell, Burton Hastings, Bramcote	Nuneaton & Bedworth
SE15	Nunhead, Peckham	Lewisham
LE2	Oadby, Knighton, Highfields, Aylestone, Glen Parva	Leicester
PA34	Oban	Argyllshire
PA37	Oban	Argyllshire
EX20	Okehampton	Exeter
EC2N	Old Broad Street, Tower 42	City of London
EH1	Old Town	Edinburgh
B68	Oldbury	Sandwell
B69	Oldbury	Sandwell
B91	Olton, Solihull	Solihull
B92	Olton, Solihull	Solihull
B93	Olton, Solihull	Solihull
B94	Olton, Solihull	Solihull
E20	Olympic Park, Stratford	Newham
BT78	Omagh, Dromore, Drumquin, Eskra, Fintona, Killynure, Newtownstewart, Seskanore, Trillick	Omagh
BT79	Omagh, Drumlea, Glengawna, Gortin, Mountfield, Plumbridge, Rosnamuck, Sheskinshule, Sixmilecross	Omagh
M5	Ordsall, Seedley, Weaste, University	Salford
KW17	Orkney	Orkney Islands
EH35	Ormiston	East Lothian
L39	Ormskirk	West Lancashire
BR6	Orpington, Farnborough, Downe, Pratt's Bottom, Chelsfield, Well Hill	Bromley
BR5	Orpington, St Mary Cray, Petts Wood	Bromley
SY10	Oswestry	Shropshire
SY11	Oswestry	Shropshire
NE19	Otterburn, Catcleugh	Northumberland
EX11	Ottery Saint Mary	Exeter
PE8	Oundle, Achurch, Apethorpe, Armston, Ashton, Barnwell, Blatherwycke, Cotterstock, Elton, Fotheringhay, Hemington, Kings Cliffe, Lower Benefield, Luddington, Nassington, Polebrook, Sibson, Southwick, Stibbington, Tansor, Thornhaugh, Thurning, Upper Benefield, Wadenhoe, Wansford, Warmington, Water Newton, Wigsthorpe, Wittering, Woodnewton, Yarwell	East Northamptonshire
W1C	Oxford Street (west)	Westminster
WD19	Oxhey, South Oxhey, Carpenders Park	Watford
RH8	Oxted	Tandridge
W2	Paddington, Bayswater, Hyde Park, Westbourne Green, Little Venice, Westbourne Green, Notting Hill	Westminster
TN12	Paddock Wood, Staplehurst	Maidstone
PL28	Padstow, Crugmeer, Porthcothan, St Merryn, Trevone, Treyarnon	Cornwall
TQ4	Paignton (centre), Goodrington	Torbay
TQ3	Paignton (north), Preston	Torbay
PA1	Paisley (Central, East and Northeast), Ralston	Renfrewshire
PA3	Paisley (Northwest), Linwood	Renfrewshire
PA2	Paisley (South)	Renfrewshire
N13	Palmers Green	Enfield
HG3	Pannal, High Meadows, Killinghall, Spofforth, Bishop Monkton, Glasshouses	Harrogate
PL24	Par, Polkerris, St Blazey, Tywardreath	Cornwall
EH37	Pathhead	Midlothian
BN10	Peacehaven, Telscombe Cliffs	Lewes
EH45	Peebles	Scottish Borders
SA71	Pembroke	Pembrokeshire
SA72	Pembroke Dock	Pembrokeshire
CF64	Penarth, Dinas Powys, Sully, Llandough	Vale of Glamorgan
SA39	Pencader	Carmarthenshire
EH34	Pencaitland	East Lothian
CF35	Pencoed, Coychurch, Llangan, Ewenny	Bridgend
WV9	Pendeford	Wolverhampton
EH26	Penicuik	Midlothian
S36	Penistone, Thurlstone, Millhouse Green, Oxspring, Stocksbridge, Deepcar	Barnsley
ST19	Penkridge	Staffordshire
LL34	Penmaenmawr, Dwygyfylchi	Conwy
WV4	Penn, Warstones, Merry Hill, Parkfields	Wolverhampton
LL48	Penrhyndeudraeth, Llanfrothen, Minffordd	Gwynedd
CA10	Penrith Carleton Hall area, Shap, Tebay, Langwathby, Lazonby, Pooley Bridge	Eden
CA11	Penrith, Stainton, Mungrisdale, Glenridding, Patterdale	Eden
TR10	Penryn	Cornwall
TN11	Penshurst	Sevenoaks
LL75	Pentraeth, Red Wharf Bay, Rhoscefnhir	Anglesey
CF41	Pentre, Ton Pentre, Ystrad, Gelli	Rhondda Cynon Taf
CF15	Pentyrch, Gwaelod-y-Garth, Creigiau, Radyr, Morganstown, Tongwynlais, Taffs Well, Nantgarw	Cardiff
LL69	Penysarn	Anglesey
TR18	Penzance	Cornwall
TR20	Penzance	Cornwall
TR6	Perranporth, Bolingey, Perrancoombe	Cornwall
B42	Perry Barr, Great Barr, Hamstead	Birmingham
B44	Perry Barr, Kingstanding, Great Barr	Birmingham
WR10	Pershore	Wychavon
PH1	Perth	Perth and Kinross
PH14	Perth	Perth and Kinross
PH2	Perth	Perth and Kinross
PE3	Peterborough, Bretton, Longthorpe, Netherton, Westwood, Ravensthorpe	Peterborough
PE1	Peterborough, Eastfield, Eastgate, Dogsthorpe, Fengate, Newark, Parnwell	Peterborough
AB14	Peterculter, Upper Anguston	Aberdeen
GU31	Petersfield, Buriton, East Harting, South Harting, Elsted, Rogate	East Hampshire
NR10	Pettywell, Reepham, Hevingham, Stratton Strawless	Norfolk
GU28	Petworth, Graffham, Northchapel, Byworth, Lodsworth	Chichester
BN24	Pevensey, Beachlands, Hankham, Normans Bay, Pevensey Bay, Stone Cross, Westham	Wealden
SN9	Pewsey	Kennet
M1	Piccadilly, Northern Quarter, Manchester City Centre	Manchester
HA5	Pinner, Eastcote, Hatch End, Carpenders Park	Harrow
PH16	Pitlochry	Perth and Kinross
PH17	Pitlochry	Perth and Kinross
PH18	Pitlochry	Perth and Kinross
PH9	Pitlochry	Perth and Kinross
E13	Plaistow, West Ham, Upton Park	Newham
WS2	Pleck, Bentley, Leamore	Walsall
IV52	Plockton	Highland
SE18	Plumstead, Woolwich	Greenwich
PL1	Plymouth, Devonport, The Hoe, Millbridge, Stoke, Stonehouse	Plymouth
PL7	Plympton, Sparkwell	Plymouth
PL9	Plymstock, Heybrook Bay, Mount Batten, Wembury	Plymouth
YO42	Pocklington, Barmby Moor, Melbourne, Seaton Ross	East Riding of Yorkshire
BN26	Polegate, Alciston, Alfriston, Arlington, Berwick, Caneheath, Filching, Folkington, Jevington, Litlington, Lullington, Milton Street, Sayerland, Selmeston, Summerhill, Wilmington	Wealden
G41	Pollokshields, Shawlands	Glasgow
NE20	Ponteland	Northumberland
CF72	Pontyclun, Llantrisant, Llanharan, Talbot Green, Brynsadler, Miskin, Brynna, Llanharry	Rhondda Cynon Taf
NP4	Pontypool, Blaenavon, Little Mill, Glascoed	Monmouthshire
CF37	Pontypridd, Cilfynydd, Glyncoch, Graig, Treforest, Hopkinstown, Trallwng, Maesycoed, Pwllgwaun, Hawthorn, Rhydfelen, Trehafod, Ynysybwl, Coed-y-Cwm	Rhondda Cynon Taf
BH15	Poole town centre, Hamworthy, Oakdale	Poole
E14	Poplar, Isle of Dogs, Limehouse, Canary Wharf, Blackwall, Cubitt Town	Tower Hamlets
RG24	Popley, Chineham, Sherborne St John	Hampshire
PA14	Port Glasgow, Langbank	Renfrewshire
PL29	Port Isaac, Port Gaverne, Port Quin, St Endellion, Trelights	Cornwall
PO16	Portchester	Hampshire
BT44	Portglenone, Carnlough, Glenarm, Clogh Mills, Rasharkin, Glenariff/Waterfoot, Cushendun, Cushendall, Dunloy, Loughguile, Glarryford	Ballymena
CF39	Porth, Llwyncelyn, Cymmer, Glynfach, Trebanog, Ynyshir, Wattstown, Dinas, Tonyrefail, Coed Ely, Thomastown, Gilfach Goch, Evanstown	Rhondda Cynon Taf
CF36	Porthcawl, Nottage, Newton	Bridgend
LL49	Porthmadog, Borth-y-Gest, Morfa Bychan, Penmorfa, Prenteg, Tremadog	Gwynedd
BS20	Portishead	North Somerset
DT5	Portland	Weymouth and Portland
W1B	Portland Street, Regent Street	Westminster
EH15	Portobello, Duddingston	Edinburgh
IV51	Portree	Highland
BT56	Portrush, Craigahullier, Urbalreagh	Coleraine
PO1	Portsmouth, Fratton	Hampshire
PO3	Portsmouth, Hilsea	Hampshire
PO2	Portsmouth, Hilsea, North End	Hampshire
BT55	Portstewart	Coleraine
OX9	Postcombe, Thame, Towersey, North Weston	South Oxfordshire
EN6	Potters Bar, South Mimms, Cuffley, Northaw	Hertsmere
SG19	Potton, Sandy	Central Bedfordshire
FY6	Poulton-Le-Fylde, Hambleton, Knott End-on-Sea, Preesall, Singleton	Wyre
BN45	Poynings, Pyecombe, Saddlescombe	Mid Sussex
CH26	Prenton	Wirral
L34	Prescot, Knowsley Village	Knowsley
L35	Prescot, Whiston, Rainhill	Knowsley
LL19	Prestatyn, Gronant	Flintshire
LD8	Presteigne	Llandrindod Wells
EH32	Prestonpans, Cockenzie, Port Seton	East Lothian
M25	Prestwich	Bury
KA9	Prestwick, Monkton	South Ayrshire
TF2	Priorslee	Telford and Wrekin
SS2	Prittlewell, Southend-on-Sea	Southend-on-Sea
RH20	Pulborough, Ashington, Storrington, West Chiltington, West Chiltington Common	Horsham
RM19	Purfleet	Thurrock
TA7	Puriton, Polden Hills, Westonzoyland, Middlezoy, Shapwick, Catcott, Ashcott, Chedzoy	Somerset
CR8	Purley, Kenley	Croydon
SW15	Putney, Roehampton University	Wandsworth
LL53	Pwllheli, Efailnewydd, Llannor, Abererch, Chwilog, Llithfaen, Nefyn, Pistyll, Plas Gwyn, Y Ffor, Abersoch, Bwlchtocyn, Llanbedrog, Mynytho, Penrhos, Rhydyclafdy, Aberdaron, Boduan, Botwnnog, Edern, Morfa Nefyn, Sarn, Tudweiliog	Gwynedd
CT10	Pysons Road Industrial Estate, St Peters	Broadstairs
NR23	Quarles	Norfolk
ME11	Queenborough, Rushenden	Swale
M26	Radcliffe, Stoneclough	Bury
BA3	Radstock, Midsomer Norton, Holcombe, Coleford	Bath and North East Somerset
ME8	Rainham	Medway
RM13	Rainham, South Hornchurch, Wennington	Havering
NG21	Rainworth, Edwinstowe, Clipstone	Newark and Sherwood
CT11	Ramsgate	Kent
TF3	Randlay, Hollinswood	Telford and Wrekin
DN22	Ranskill, Retford	Bassetlaw
LE6	Ratby, Groby, Newtown Linford	Leicester
CA18	Ravenglass	Copeland
LS19	Rawdon, Yeadon	Leeds
S62	Rawmarsh, Wentworth	Rotherham
SS6	Rayleigh	Rochford
RG1	Reading	Berkshire
IG4	Redbridge	Redbridge
TS10	Redcar	Redcar & Cleveland
B96	Redditch	Redditch
B97	Redditch	Redditch
B98	Redditch	Redditch
RH1	Redhill, Bletchingley, Nutfield, Merstham, South Nutfield	Reigate and Banstead
BS6	Redland, Montpelier, Westbury Park	Bristol
B45	Rednal, Rubery	Birmingham
TR15	Redruth	Cornwall
RH2	Reigate	Reigate and Banstead
PA4	Renfrew, Inchinnan	Renfrewshire
LD6	Rhayader	Llandrindod Wells
LL66	Rhosgoch	Anglesey
LL64	Rhosneigr	Anglesey
LL18	Rhyl, Bodelwyddan, Cwm Dyserth, Kinmel Bay, Dyserth, Gwaenysgor, Rhuddlan, Trelawnyd	Conwy
DL10	Richmond, Catterick, Brompton-upon-Swale, Scotch Corner	North Yorkshire
NE44	Riding Mill, Broomhaugh	Northumberland
BH24	Ringwood	New Forest
TN13	Riverhead	Sevenoaks
TN32	Robertsbridge	Rother
WF15	Roberttown, Liversedge	Kirklees
YO22	Robin Hood's Bay	North Yorkshire
ME3	Rochester	Medway
ME1	Rochester, Burham, Wouldham	Medway
SS4	Rochford	Rochford
IV28	Rogart	Highland
RM1	Romford	Havering
SO51	Romsey, Ampfield, Lockerley, Mottisfont, Wellow	Test Valley
EH24	Rosewell	Midlothian
EH25	Roslin, Bilston	Midlothian
HR9	Ross-on-Wye	Hereford
NE65	Rothbury, Longhorsley, Felton, Amble	Northumberland
SE16	Rotherhithe, Bermondsey, Surrey Quays	Southwark
BN51	Rottingdean	Brighton and Hove
YO90	Rougier St, Wellington Row	York
NE39	Rowlands Gill, High Spen, Hamsterley Mill, Eastern Chopwell Wood	Gateshead
B65	Rowley Regis	Sandwell
PH31	Roy Bridge, Murlaggan, Tulloch	Highland
EC3V	Royal Exchange, Lombard Street	City of London
TN1	Royal Tunbridge Wells	Tunbridge Wells
TN2	Royal Tunbridge Wells, Pembury	Tunbridge Wells
SG8	Royston	North Hertfordshire
CV21	Rugby E	Rugby
CV22	Rugby SW	Rugby
HA4	Ruislip	Hillingdon
CF3	Rumney, Trowbridge, Llanrumney, St Mellons, Castleton, Marshfield	Cardiff
WA7	Runcorn	Halton
RM7	Rush Green, Mawneys, Romford	Havering
WS4	Rushall	Walsall
IP5	Rushmere St Andrew, Kesgrave, Martlesham Heath	Suffolk Coastal
TN4	Rusthall	Tunbridge Wells
G73	Rutherglen	South Lanarkshire
LL15	Ruthin, Bontuchel, Clawddnewydd, Clocaenog, Cyffylliog, Gellifor, Graigfechan, Llanbedr Dyffryn Clwyd, Llanelidan, Llanfair Dyffryn Clwyd, Pwllglas, Rhewl	Denbighshire
PO33	Ryde	Isle of Wight
TN31	Rye	Rother
NE40	Ryton, Crawcrook, Greenside	Gateshead
KY16	Saint Andrews	Fife
CA27	Saint Bees	Copeland
TR9	Saint Columb	Cornwall
TR26	Saint Ives	Cornwall
TQ8	Salcombe	South Hams
M33	Sale, Brooklands	Trafford
M50	Salford Quays	Salford
SP1	Salisbury	Wiltshire
SP2	Salisbury	Wiltshire
SP3	Salisbury	Wiltshire
SP4	Salisbury	Wiltshire
SP5	Salisbury	Wiltshire
BD18	Saltaire, Shipley	Bradford
PL12	Saltash, Hatt, Landrake, St Germans, Tideford, Trerulefoot	Cornwall
TS13	Saltburn-by-the-Sea	Redcar & Cleveland
KA21	Saltcoats	North Ayrshire
CW11	Sandbach	Cheshire East
GU47	Sandhurst, College Town, Owlsmoor, Little Sandhurst	Bracknell Forest
PO36	Sandown	Isle of Wight
PE35	Sandringham	West Norfolk
CT13	Sandwich	Kent
DG4	Sanquhar	Dumfriesshire
SA69	Saundersfoot	Pembrokeshire
CM21	Sawbridgeworth	East Hertfordshire
IP17	Saxmundham	Suffolk Coastal
LS24	Saxton, Stutton, Ulleskelf, Church Fenton, Tadcaster, Toulston	Selby
YO13	Scarborough	North Yorkshire
NE62	Scotland Gate, Guidepost, Stakeford, West Sleekburn, Bomarsund	Northumberland
EH95	Scottish Gas	Edinburgh
EH99	Scottish Parliament	Edinburgh
HG5	Scotton, Knaresborough	Harrogate
LE7	Scraptoft, Anstey, Billesdon, Gaddesby, Hungarton, Rearsby, Tilton on the Hill, Tugby, Cropston, Thurcaston, Rothley, Barkby, Syston	Leicester
BN25	Seaford, Bishopstone, Cuckmere Haven, Exceat, Norton, Rookery Hill, Westdean	Wealden
NE68	Seahouses, North Sunderland	Northumberland
YO12	Seamer	North Yorkshire
CA20	Seascale, Sellafield, Gosforth, Wasdale Head	Copeland
EX12	Seaton	Exeter
TS25	Seaton Carew, Fens Estate, Owton Manor	Hartlepool
PO34	Seaview	Isle of Wight
LA10	Sedbergh, Dent	South Lakeland
DY3	Sedgley, Lower Gornal, Upper Gornal, Gornalwood, Himley, Swindon, Woodsetton	Dudley
TD7	Selkirk	Scottish Borders
B29	Selly Oak, Bournbrook, Selly Park, Weoley Castle, California	Birmingham
GU23	Send, Ripley, Ockham, Wisley	Guildford
IG3	Seven Kings	Redbridge
SP7	Shaftesbury	North Dorset
PO37	Shanklin	Isle of Wight
B34	Shard End, Buckland End	Birmingham
SY4	Shawbury, Wem, Atcham, Ruyton-XI-Towns	Shropshire
S1	Sheffield City Centre	Sheffield
SG17	Shefford	Central Bedfordshire
B26	Sheldon, Yardley	Birmingham
WD7	Shenley, Radlett	Hertsmere
W12	Shepherds Bush, White City	Hammersmith and Fulham
TW17	Shepperton	Spelthorne
BA4	Shepton Mallet	Mendip
WV13	Shepwell Green, Willenhall Town	Wolverhampton
DT9	Sherborne	West Dorset
NG5	Sherwood, Arnold, Bestwood, Carrington, Top Valley, Rise Park	Nottingham
ZE2	Shetland	Shetland
TF11	Shifnal	Shropshire
DL4	Shildon	County Durham
BD98	Shipley	Bradford
CV36	Shipston-on-Stour	Stratford-on-Avon
NG20	Shirebrook, Market Warsop	Bolsover
NE27	Shiremoor, West Allotment, Backworth, Holystone, Murton Village	North Tyneside
SO15	Shirley, Freemantle, Banister Park, Millbrook	Southampton
B90	Shirley, Wythall, Majors Green, Dickens Heath	Solihull
SS3	Shoeburyness	Rochford
SO19	Sholing, Thornhill	Southampton
EC2A	Shoreditch	Hackney
BN43	Shoreham-by-Sea	Adur
WV12	Short Heath, Lodge Farm	Wolverhampton
IP9	Shotley Peninsula: Capel St Mary, Chelmondiston, Shotley	Babergh
ML7	Shotts, Allanton, Eastfield, Harthill, Hartwood, Salsburgh	North Lanarkshire
SY1	Shrewsbury Town Centre, North Shrewsbury	Shropshire
DA15	Sidcup, Blackfen, Longlands, Lamorbey, Avery Hill	Bexley
DA14	Sidcup, Foots Cray, Albany Park, Longlands	Bexley
EX10	Sidmouth	Exeter
E16	Silvertown, North Woolwich, Canning Town, Custom House, London City Airport	Newham
ME10	Sittingbourne	Swale
ME9	Sittingbourne	Swale
PE25	Skegness, Croft, Ingoldmells, Roman Bank	East Lindsey
PA17	Skelmorlie	Ayrshire
TS12	Skelton-in-Cleveland	Redcar & Cleveland
YO60	Skewsby	York
EH14	Slateford, Longstone, Wester Hailes, Juniper Green, Currie, Balerno	Edinburgh
NG34	Sleaford	North Kesteven
B10	Small Heath	Birmingham
B66	Smethwick, Bearwood	Sandwell
B67	Smethwick, Bearwood	Sandwell
ME6	Snodland, West Malling	Tonbridge and Malling
W1F	Soho (north west)	Westminster
W1D	Soho (south east), Chinatown, Soho Square	Westminster
WC2R	Somerset House	Westminster
TA11	Somerton	South Somerset
YO23	South Bank, Bishopthorpe, Copmanthorpe, Rufforth	York
TQ10	South Brent	South Hams
CR2	South Croydon, Sanderstead, Selsdon, Addington	Croydon
IP3	South East Ipswich, Ravenswood	Ipswich
RG22	South Ham, Brighton Hill, Kempshott, Buckskin	Hampshire
HR2	South Hereford	Hereford
SW7	South Kensington, Knightsbridge	Kensington and Chelsea
SW8	South Lambeth, Vauxhall, Battersea, Clapham, Stockwell	Lambeth
NR33	South Lowestoft	Suffolk
EX36	South Molton	Exeter
SE25	South Norwood, Selhurst	Croydon
RM15	South Ockendon, Aveley	Thurrock
TA13	South Petherton	Somerset
EH30	South Queensferry	Edinburgh
NE33	South Shields Town Centre, Deans, High Shields	South Tyneside
SY3	South Shrewsbury, West Shrewsbury, Bayston Hill	Shropshire
SG2	South Stevenage, Walkern, Ardeley	Stevenage
N15	South Tottenham, Harringay, West Green, Seven Sisters, Stamford Hill	Hackney
IP2	South West Ipswich, Belstead, Wherstead, Stoke Park	Ipswich
UB1	Southall	Ealing
UB2	Southall	Ealing
CV47	Southam	Stratford-on-Avon
BH6	Southbourne, Tuckton, Wick	Bournemouth
SS1	Southend-on-Sea, Thorpe Bay	Southend-on-Sea
SS0	Southend-on-Sea, Westcliff-on-Sea	Southend-on-Sea
N14	Southgate, Oakwood, Arnos Grove	Enfield
CM0	Southminster, Bradwell, Tillingham, Asheldham, Dengie, Burnham-on-Crouch, Tillingham	Maldon
PO4	Southsea	Hampshire
PO5	Southsea	Hampshire
EH8	Southside, Newington, Canongate, Northfield, Mountcastle	Edinburgh
NG25	Southwell	Newark and Sherwood
BN42	Southwick	Adur
IP18	Southwold, Easton Bavents, Reydon, Walberswick	Waveney
PE12	Spalding, Cowbit, Gedney, Holbeach, Fleet, Holbeach, Holbeach Drove, Long Sutton, Little Sutton, Moulton, Sutton Bridge, Weston, Weston Hills, Whaplode	South Holland
PE11	Spalding, Deeping St. Nicholas, Donington, Gosberton, Hop Pole, Pinchbeck, Pode Hole, Quadring, Quadring Fen, Surfleet, Tongue End	South Holland
B11	Sparkhill, Tyseley	Birmingham
PH34	Spean Bridge	Highland
NG70	Special Business Reply Service	Mansfield
DL16	Spennymoor	County Durham
TR22	St Agnes	Isles of Scilly
TR5	St Agnes, Mithian	Cornwall
AL1	St Albans	St Albans
AL2	St Albans, Bricket Wood, Colney Street, Frogmore, London Colney, Napsbury, Park Street, Potters Crouch, Chiswell Green	St Albans
AL3	St Albans, Childwickbury, Flamstead, Gorhambury, Markyate, Porters Wood, Redbourn, Sandridge	St Albans
AL4	St Albans, Colney Heath, London Colney, Jersey Farm, Marshalswick, Oaklands, Sandridge, Smallford, Tyttenhanger, Wheathampstead	St Albans
PL25	St Austell, Carlyon Bay, Charlestown, Trewoon	Cornwall
EC1A	St Bartholomew's Hospital	City of London
TR19	St Buryan	Cornwall
PE27	St Ives, Holywell, Needingworth	Huntingdonshire
NW8	St John's Wood, Primrose Hill, Lisson Grove	Camden
TN37	St Leonards	Hastings
TN38	St Leonards, Silverhill, Wishing Tree, North Hastings, Bulverhythe	Hastings
EC1Y	St Luke's, Bunhill Fields	Islington
TR25	St Martin's	Isles of Scilly
EC3A	St Mary Axe, Aldgate	City of London
TR21	St Mary's	Isles of Scilly
DD3	St Marys, Downfield, Kirkton, Strathmartine, Coldside, Hilltown	Dundee
PE19	St Neots, Abbotsley, Buckden, Croxton, Diddington, Duloe, Eaton Ford, Eaton Socon, Eltisley, Eynesbury,	Huntingdonshire
WC1H	St Pancras	Camden
EC4M	St Paul's	City of London
EX2	St Thomas, Countess Wear , Wonford	Exeter
LL17	St. Asaph, Allt Goch, Rhuallt, Tremeirchion, Waen	Conwy
SW1Y	St. James's	Westminster
ST16	Stafford	Staffordshire
ST17	Stafford	Staffordshire
ST18	Stafford	Staffordshire
ST21	Stafford, Eccleshall, Rodbaston	Staffordshire
ST20	Stafford, Woodseaves	Staffordshire
DL2	Staindrop, Gainford, Darlington	Darlington
TW18	Staines, Egham Hythe	Spelthorne
SK15	Stalybridge, Carrbrook, Heyrod, Matley, Millbrook	Tameside
PE9	Stamford, Ashton, Aunby, Bainton, Barholm, Barnack, Braceborough, Careby, Carlby, Collyweston, Duddington, Essendine, Easton-on-the-Hill, Great Casterton, Greatford, Ketton, Little Casterton, Newstead, Pickworth, Pilsgate, Ryhall, Southorpe, Tallington, Tickencote, Tinwell, Tixover, Uffington, Ufford, Wilsthorpe, Wothorpe	South Kesteven
NE18	Stamfordham	Northumberland
DL13	Stanhope, Frosterley, Wolsingham, Tow Law	County Durham
HA7	Stanmore	Harrow
CM24	Stansted Mountfitchet	Uttlesford
TW19	Stanwell, Wraysbury	Spelthorne
KA20	Stevenston, Auchenharvie	North Ayrshire
BN44	Steyning, Ashurst, Botolphs, Bramber, Upper Beeding, Wiston	Horsham
TS21	Stillington, Bishopton, Redmarshall, Thorpe Thewles, Carlton, Sedgefield, Long Newton	Stockton-on-Tees
FK8	Stirling, Gargunnock	Falkirk
DD4	Stobswell, Craigie, Pitkerro, Douglas, Fintry, Whitfield	Dundee
SO20	Stockbridge	Test Valley
L28	Stockbridge Village	Liverpool
UB11	Stockley Park	Hillingdon
SK1	Stockport	Stockport
SK2	Stockport	Stockport
SK5	Stockport, Brinnington, Reddish	Stockport
SK3	Stockport, Davenport, Edgeley, Adswood, Bridgehall	Stockport
SK4	Stockport, Four Heatons	Stockport
NE43	Stocksfield, Painshawfield, Newton	Northumberland
TS18	Stockton-on-Tees, Hartburn, Preston-on-Tees, Grangefield, Oxbridge, Portrack	Stockton-on-Tees
SW9	Stockwell, Brixton, Clapham	Lambeth
NR24	Stody, Briningham, Brinton, Sharrington, Plumstead, Swanton Novers	Norfolk
N16	Stoke Newington, Stamford Hill, Shacklewell, Dalston, Newington Green	Hackney
ST4	Stoke, Fenton	Staffordshire
TA14	Stoke-sub-hamdon	Somerset
ST15	Stone	Staffordshire
AB39	Stonehaven, Newtonhill	Aberdeenshire
GL10	Stonehouse	Stroud
KT17	Stoneleigh, East Ewell, Epsom	Epsom and Ewell
LE9	Stoney Stanton, Cosby, Huncote, Croft, Desford, Newbold Verdon, Kirkby Mallory, Earl Shilton, Barwell, Sapcote, Sutton in the Elms, Broughton Astley, Thurlaston	Leicester
HS1	Stornoway, Plasterfield	Comhairle nan Eilean Siar
DY8	Stourbridge, Wollaston, Wordsley, Amblecote	Dudley
DY13	Stourport-on-Severn	Wyre Forest
IP14	Stowmarket, Stowupland	Mid Suffolk
BT82	Strabane, Artigarvan, Ballymagorry, Bready, Clady, Douglas Bridge, Dunamanagh, Sion Mills, Victoria Bridge	Strabane
DG9	Stranraer	Wigtownshire
E15	Stratford, West Ham, Maryland, Leyton, Leytonstone, Temple Mills, Hackney Wick, Bow	Newham
CV37	Stratford-Upon-Avon	Stratford-on-Avon
ML10	Strathaven, Caldermill, Chapelton, Drumclog, Glassford, Sandford, Gilmourton, West Dykes Farm	South Lanarkshire
AB36	Strathdon	Aberdeenshire
IV14	Strathpeffer	Highland
SW16	Streatham, Norbury, Thornton Heath, Streatham Park, Furzedown, Streatham Vale, Pollards Hill	Lambeth
BA16	Street	Mendip
M32	Stretford	Trafford
IV53	Strome Ferry	Highland
KW16	Stromness	Orkney Islands
ME2	Strood, Halling, Cuxton, Frindsbury	Medway
GL5	Stroud	Stroud
B80	Studley	Stratford-on-Avon
DT10	Sturminster Newton	North Dorset
CT2	Sturry	Canterbury
CO10	Sudbury	Babergh
TW16	Sunbury-on-thames	Spelthorne
SR1	Sunderland City Centre, East End, Hendon	Sunderland
KT6	Surbiton, Tolworth, Long Ditton	Kingston upon Thames
B72	Sutton Coldfield town centre, Maney, Wylde Green	Birmingham
B75	Sutton Trinity, Falcon Lodge, Rectory	Birmingham
SM1	Sutton, Rose Hill, The Wrythe, Carshalton, Benhilton, Erskine Village	Sutton
NG17	Sutton-in-Ashfield, Kirkby-in-Ashfield, Stanton Hill, Skegby	Ashfield
PE37	Swaffham, Beachamwell, Cockley Cley, Necton, North Pickenham, South Pickenham	West Norfolk
DL11	Swaledale, Arkengarthdale	North Yorkshire
BH19	Swanage	Purbeck
BR8	Swanley	Sevenoaks
DA10	Swanscombe, Ebbsfleet	Dartford
SA80	Swansea	Swansea
DE55	Swanwick, South Normanton Alfreton, Riddings, Leabrooks, Somercotes, Tibshelf, Newton, Blackwell, Bolsover, Hilcote, Wessington, Higham, Stonebroom, Morton, Derbyshire, Shirland, Alfreton, South Wingfield	Amber Valley
SN2	Swindon	Swindon
SN25	Swindon	Swindon
SN38	Swindon	Swindon
SN99	Swindon	Swindon
SN1	Swindon Centre	Swindon
SN3	Swindon, Stratton	Swindon
M27	Swinton, Clifton, Pendlebury, Wardley, Agecroft	Salford
SE26	Sydenham, Crystal Palace	Bromley
KT20	Tadworth, Burgh Heath	Reigate and Banstead
IV19	Tain	Highland
BH3	Talbot Woods, Winton	Bournemouth
LL47	Talsarnau, Soar, Ynys	Gwynedd
LL43	Talybont	Gwynedd
B77	Tamworth	Tamworth
B78	Tamworth	Tamworth
B79	Tamworth	Tamworth
PA29	Tarbert	Argyllshire
KA5	Tarbolton, Mauchline, Catrine, Sorn	East Ayrshire
CW6	Tarporley	Cheshire West and Chester
TA1	Taunton	Somerset
TA2	Taunton	Somerset
PL19	Tavistock, Bradstone, Mary Tavy, Morwellham, Peter Tavy, Whitchurch	West Devon
PA35	Taynuilt	Argyllshire
TW11	Teddington	Richmond upon Thames
TQ14	Teignmouth	Teignbridge
TF5	Telford	Telford and Wrekin
TF8	Telford	Telford and Wrekin
EC4Y	Temple	City of London
BA8	Templecombe	South Somerset
WR15	Tenbury Wells	Worcester
SA70	Tenby	Pembrokeshire
TN30	Tenterden	Ashford
GL8	Tetbury	Cotswold
GL20	Tewkesbury, Bredon	Tewkesbury
KT7	Thames Ditton, Weston Green	Elmbridge
SE28	Thamesmead	Greenwich
RG19	Thatcham	Berkshire
KT23	The Bookhams	Mole Valley
NW9	The Hyde, Colindale, Kingsbury, Queensbury, West Hendon	Barnet
IP24	Thetford	Breckland
YO7	Thirsk	North Yorkshire
TS17	Thornaby, Ingleby Barwick, Stainton	Stockton-on-Tees
DN8	Thorne	Doncaster
DG3	Thornhill	Dumfriesshire
DH6	Thornley, Coxhoe	County Durham
CR7	Thornton Heath	Croydon
FY5	Thornton-Cleveleys	Wyre
YO18	Thornton-le-Dale	North Yorkshire
IP21	Thorpe Abbotts	Mid Suffolk
YO62	Thorpe Hall, Helmsley. Kirkbymoorside	North Yorkshire
NR1	Thorpe Hamlet, Norwich city centre	Norfolk
KW14	Thurso	Highland
SP9	Tidworth	Wiltshire
PA21	Tighnabruaich	Argyllshire
RM18	Tilbury, East Tilbury, West Tilbury	Thurrock
CV4	Tile Hill, Canley, Cannon Park, Lime Tree Park, Gibbet Hill, Westwood Heath, University of Warwick	Coventry
RG30	Tilehurst, Purley-on-Thames, Southcote	Berkshire
FK13	Tillicoultry, Coalsnaughton, Devonside	Falkirk
PL34	Tintagel, Bossiney, Trewarmett	Cornwall
DY4	Tipton, Tividale, Coseley	Dudley
EX16	Tiverton	Mid Devon
IV13	Tomatin	Highland
TN10	Tonbridge	Tonbridge and Malling
TN9	Tonbridge	Tonbridge and Malling
CF40	Tonypandy, Trealaw, Penygraig, Dinas, Williamstown, Cwm Clydach, Llwynypia, Penrhiwfer	Rhondda Cynon Taf
SW17	Tooting, Mitcham	Wandsworth
PL11	Torpoint, Antony, Crafthole, Downderry, Seaton, Sheviock, St John	Cornwall
TQ1	Torquay (centre), St Marychurch	Torbay
TQ2	Torquay (west, north)	Torbay
EX38	Torrington	Exeter
PO39	Totland Bay, Alum Bay	Isle of Wight
TQ9	Totnes	South Hams
N17	Tottenham, South Tottenham	Haringey
SO40	Totton, Lyndhurst, Cadnam, Marchwood	New Forest
EC3N	Tower Hill, Tower of London	Tower Hamlets
M17	Trafford Park, The Trafford Centre	Trafford
EH33	Tranent	East Lothian
NP22	Tredegar, Rhymney	Blaenau Gwent
LL27	Trefriw	Conwy
SY25	Tregaron, Ystrad Meurig	Ceredigion
CF46	Treharris, Quakers Yard, Bedlinog, Nelson	Merthyr Tydfil
CF42	Treorchy, Cwmparc, Ynyswen, Treherbert, Blaencwm, Blaenrhondda	Rhondda Cynon Taf
TR24	Tresco	Isles of Scilly
TS29	Trimdon Station	County Durham
KA10	Troon, Barassie, Muirhead, Loans, Barassie	South Ayrshire
BA14	Trowbridge	Wiltshire
TR1	Truro	Cornwall
TR3	Truro	Cornwall
TR2	Truro, Gerrans	Cornwall
ST6	Tunstall, Burslem, Smallthorne, Brown Edge	Staffordshire
AB53	Turriff	Aberdeenshire
TW1	Twickenham, St. Margarets, Strawberry Hill	Richmond upon Thames
LL63	Ty Croes, Aberffraw, Llanfaelog	Anglesey
M29	Tyldesley, Astley	Wigan
LL74	Tyn-y-Gongl, Benllech	Anglesey
LL36	Tywyn, Abergynolwyn, Bryncrug, Llanegryn, Rhoslefain	Gwynedd
TN22	Uckfield	Wealden
IV26	Ullapool	Highland
PA73	Ulva Ferry, Isle Of Mull	Argyllshire
LA12	Ulverston, Backbarrow, Leece, Newby Bridge	South Lakeland
EX37	Umberleigh	Exeter
WC1E	University College London	Camden
BS23	Uphill, Weston-super-Mare	North Somerset
RM14	Upminster, Cranham, North Ockendon, Bulphan	Havering
E5	Upper Clapton, Lower Clapton, Leyton, Stoke Newington	Hackney
N18	Upper Edmonton, Edmonton	Enfield
N19	Upper Holloway, Archway, Tufnell Park, Hornsey	Islington
SE19	Upper Norwood, Crystal Palace, Crown Point, Norwood	Croydon
CH30	Upton	Wirral
BH16	Upton, Turlin Moor, Lytchett Minster, Lytchett Matravers	Poole
M41	Urmston	Trafford
NP15	Usk, Raglan	Monmouthshire
NE37	Usworth, Sulgrave, Albany	Sunderland
ST14	Uttoxeter, Stramshall	Staffordshire
UB8	Uxbridge, Cowley, Hillingdon	Hillingdon
SW1V	Vauxhall Bridge, Chelsea Bridge, Victoria Station, Pimlico	Westminster
PO38	Ventnor	Isle of Wight
BH31	Verwood	East Dorset
SW1P	Victoria Station, the Houses of Parliament, Vauxhall Bridge, Pimlico	Westminster
GU25	Virginia Water, Wentworth	Runnymede
LN5	Waddon	Lincoln
PL27	Wadebridge, Little Petherick, Polzeath, Rock, St Eval, St Minver, Trebetherick	Cornwall
TN5	Wadhurst, Ticehurst, Tidebrook, Stonegate	Rother
ME5	Walderslade, Blue Bell Hill, Luton	Medway
NE6	Walker, Byker, Heaton	Newcastle
EH43	Walkerburn	Scottish Borders
CH27	Wallasey	Wirral
OX10	Wallingford, Berinsfield, Cholsey, Dorchester	South Oxfordshire
SM6	Wallington, Beddington, Hackbridge, Roundshaw, South Beddington	Sutton
B76	Walmley	Birmingham
WS8	Walsall	Walsall
WS1	Walsall town centre, Caldmore	Walsall
CV2	Walsgrave, Wyken, Stoke, Bell Green, Wood End, Potters Green, Aldermans Green, Clifford Park, Woodway Park	Coventry
NR22	Walsingham	Norfolk
EN9	Waltham Abbey	Epping Forest
EN8	Waltham Cross, Cheshunt	Enfield
E17	Walthamstow, Upper Walthamstow	Waltham Forest
CO14	Walton On The Naze	Tendring
KT12	Walton-on-Thames, Hersham	Elmbridge
SE17	Walworth, Newington	Southwark
SW18	Wandsworth, Southfields, Earlsfield	Wandsworth
OX12	Wantage, Grove	Vale of White Horse
E1W	Wapping	Tower Hamlets
SG12	Ware	East Hertfordshire
BH20	Wareham	Purbeck
CR6	Warlingham, Chelsham, Farleigh	Croydon
BA12	Warminster	Wiltshire
WA5	Warrington, Burtonwood, Westbrook, Penketh, Great Sankey, White Cross.	Warrington
WA4	Warrington, Latchford, Stockton Heath, Appleton, Grappenhall, Daresbury, Moore, Walton	Warrington
WA2	Warrington, Orford, Longford, Dallam, Padgate, Fearnhead	Warrington
WA1	Warrington, Town Centre, Woolston, Paddington, Bruche	Warrington
SO31	Warsash, Hamble-le-Rice , Locks Heath	Eastleigh
CV34	Warwick	Warwick
CA4	Warwick Bridge, Wetheral, Cumwhinton, Armathwaite	Carlisle
NE38	Washington Town Centre, Oxclose, Fatfield	Sunderland
B8	Washwood Heath, Ward End, Saltley	Birmingham
TA23	Watchet	Somerset
B46	Water Orton, Coleshill	North Warwickshire
L22	Waterloo	Sefton
PO7	Waterlooville, Denmead, Purbrook	Hampshire
WD17	Watford, Cassiobury, Nascot Wood	Watford
OX49	Watlington	South Oxfordshire
IP25	Watton, Saham Toney	Breckland
L15	Wavertree	Liverpool
CV10	Weddington, Stockingford, Camp Hill, Galley Common, Grove Farm, Whittleford, Chapel End, Bermuda Village, Caldecote, Fenny Drayton, Hartshill, Ansley, Astley, Oldbury, Ridge Lane	Nuneaton & Bedworth
BS28	Wedmore	Somerset
WS10	Wednesbury	Sandwell
WV11	Wednesfield	Wolverhampton
CV35	Wellesbourne, Kineton	Warwick
DA16	Welling, Falconwood, East Wickham	Bexley
NN9	Wellingborough, Chelveston, Finedon, Great Harrowden, Irthlingborough, Little Harrowden, Raunds	Wellingborough
NN8	Wellingborough, Wilby	Wellingborough
TA21	Wellington	Somerset
TF1	Wellington	Telford and Wrekin
BA5	Wells	Mendip
SY21	Welshpool	Powys
AL7	Welwyn Garden City	Welwyn Hatfield
AL8	Welwyn Garden City, Lemsford	Welwyn Hatfield
AL6	Welwyn, Ayot St Peter, Ayot St Lawrence, Digswell, Rabley Heath, Tewin	Welwyn Hatfield
HA9	Wembley, Wembley Park, Wembley Central, Preston, Tokyngton	Brent
PA18	Wemyss Bay	Renfrewshire
DL8	Wensleydale, Bedale	North Yorkshire
ST9	Werrington, Endon	Staffordshire
SW10	West Brompton, Chelsea	Kensington and Chelsea
B70	West Bromwich	Sandwell
B71	West Bromwich	Sandwell
EH55	West Calder	West Lothian
UB7	West Drayton, Harmondsworth, Sipson, Yiewsley, Longford	Hillingdon
W13	West Ealing, Northfields	Ealing
G12	West End, Cleveden, Dowanhill, Hillhead, Hyndland, Kelvindale, Botanic Gardens	Glasgow
HR3	West Hereford, Hay on Wye	Hereford
KT24	West Horsley, East Horsley, Effingham	Guildford
W14	West Kensington, Kensington Olympia, Holland Park	Kensington and Chelsea
KA23	West Kilbride	North Ayrshire
EH46	West Linton	Scottish Borders
ME19	West Malling	Tonbridge and Malling
KT8	West Molesey, East Molesey, Hampton Court Palace, Bushy Park	Elmbridge
BH22	West Moors	East Dorset
SE27	West Norwood, Gipsy Hill, Norwood	Lambeth
SN5	West Swindon	Swindon
RM20	West Thurrock, South Stifford	Thurrock
WD18	West Watford	Watford
BR4	West Wickham	Bromley
NE42	West Wylam, Prudhoe, Ovingham, Ovington	Gateshead
BH4	Westbourne, Branksome Woods	Bournemouth
BA13	Westbury	Wiltshire
NE5	Westerhope, Newcastle West	Newcastle
NP20	Western and West Central Newport, Pill, Maesglas, Crindau, Malpas, Bettws	Newport
NP10	Western Newport, including Bassaleg, Duffryn, Rogerstone	Newport
S20	Westfield, Waterthope, Sothall, Donetsk Way, Owlthorpe, Beighton, Crystal Peaks, Halfway, Mosborough	Sheffield
CT8	Westgate-on-sea	Kent
AB32	Westhill	Aberdeenshire
KT13	Weybridge	Elmbridge
DT3	Weymouth	Weymouth and Portland
DT4	Weymouth	Weymouth and Portland
OX33	Wheatley, Forest Hill, Holton, Horspath, Horton-cum-Studley, Littleworth, Milton Common, Stanton St. John, Waterperry, Waterstock, Woodperry.	South Oxfordshire
N20	Whetstone, Totteridge, Oakleigh Park	Barnet
NE16	Whickham, Sunniside, Burnopfield	Gateshead
EH47	Whitburn, Bathgate, Fauldhouse, Stoneyburn	West Lothian
YO21	Whitby, Westerdale	North Yorkshire
RG28	Whitchurch	Hampshire
SY13	Whitchurch	Shropshire
CF14	Whitchurch, Thornhill, Lisvane, Rhiwbina, Pantmawr, Gabalfa, Heath, Llandaff North	Cardiff
M45	Whitefield	Bury
SW1A	Whitehall, Buckingham Palace	Westminster
CA28	Whitehaven, Sandwith	Copeland
G14	Whiteinch, Scotstoun	Glasgow
SA34	Whitland	Carmarthenshire
RG2	Whitley	Berkshire
NE26	Whitley Bay, Seaton Sluice	North Tyneside
WV6	Whitmore Reans, Perton, Pattingham, Tettenhall	Wolverhampton
CT5	Whitstable	Kent
TW2	Whitton, Strawberry Hill	Richmond upon Thames
KW1	Wick	Highland
SS11	Wickford	Basildon
SS12	Wickford	Basildon
PO17	Wickham	Hampshire
WA88	Widnes	Halton
WA8	Widnes, Cronton	Halton
LE18	Wigston	Leicester
CA7	Wigton, Silloth, Aspatria, Caldbeck, Hesket Newmarket	Allerdale
NW10	Willesden, Acton, Harlesden, Kensal Green, Neasden, Old Oak Common, Park Royal, Stonebridge, Brent Park	Brent
SW19	Wimbledon, Colliers Wood, Southfields	Merton
BH21	Wimborne	East Dorset
BA9	Wincanton	South Somerset
TN36	Winchelsea, Icklesham	Rother
N21	Winchmore Hill, Bush Hill, Grange Park	Enfield
LA23	Windermere, Bowness-on-Windermere, Troutbeck	South Lakeland
GU20	Windlesham	Surrey Heath
TS28	Wingate, Station Town	County Durham
RG23	Winklebury, Rooksdown, Oakley	Hampshire
EX19	Winkleigh	Exeter
RG41	Winnersh, Woosehill, Emmbrook, Sindlesham	Wokingham
CW7	Winsford	Cheshire West and Chester
B18	Winson Green, Hockley	Birmingham
BH9	Winton, Moordown, Throop, Muscliff	Bournemouth
PE14	Wisbech, Elm, Emneth, Emneth Hungate, Marshland St. James, Outwell, Terrington St. John, Upwell, Walpole Highway, Walsoken, Welney, Tipps End, West Walton	Fenland
PE13	Wisbech, Guyhirn, Murrow, Parson Drove, Tydd St. Giles, Wisbech St. Mary	Fenland
ML2	Wishaw, Bonkle, Bogside, Garrion Bridge, Morningside, Overtown, Waterloo	North Lanarkshire
CM8	Witham	Braintree
HU19	Withernsea, Hollym, Holmpton, Out Newton, Rimswell, Waxholme	East Riding of Yorkshire
OX28	Witney	West Oxfordshire
CO7	Wivenhoe, Great Bentley	Colchester
GU21	Woking, Knaphill, St. John's, Horsell, Goldsworth Park	Woking
GU22	Woking, Pyrford, Hook Heath, Mayford, Old Woking	Woking
RG40	Wokingham, Finchampstead, Barkham	Wokingham
PE31	Wolferton, Snettisham, Heacham, Brancaster, Burnham Thorpe	West Norfolk
WV1	Wolverhampton City Centre, Horseley Fields, East Park	Wolverhampton
WV5	Wombourne, Wall Heath	South Staffordshire
N22	Wood Green, Bounds Green, Bowes Park	Haringey
IP13	Woodbridge, Easton, Framlingham, Little Bealings, Laxfield	Suffolk Coastal
IP12	Woodbridge, Orford	Suffolk Coastal
IG8	Woodford Green, Woodford Bridge	Redbridge
E18	Woodford, South Woodford	Redbridge
B32	Woodgate, Bartley Green, Quinton, California	Birmingham
LN10	Woodhall Spa	Lincoln
LS3	Woodhouse	Leeds
RG5	Woodley	Wokingham
OX20	Woodstock, Bladon, Glympton, Kiddington, Woodleys, Wootton	West Oxfordshire
NE71	Wooler	Northumberland
WR1	Worcester	Worcester
WR2	Worcester	Worcester
WR3	Worcester	Worcester
WR4	Worcester	Worcester
WR5	Worcester	Worcester
WR6	Worcester	Worcester
WR7	Worcester	Worcester
WR8	Worcester	Worcester
WR99	Worcester	Worcester
KT4	Worcester Park	Sutton
CA14	Workington, Distington, Seaton	Allerdale
M28	Worsley, Walkden, Boothstown, Mosley Common, Wardley Industrial Estate	Salford
BN11	Worthing	Worthing
BN14	Worthing, Broadwater, Findon, Northend, Tarring	Worthing
BN13	Worthing, Clapham, Durrington, High Salvington, Patching, Tarring	Worthing
BN12	Worthing, Ferring, Goring-by-Sea	Worthing
BN99	Worthing, Lancing	Worthing
GL12	Wotton-under-Edge	Stroud
LL13	Wrexham, Abenbury, Bowling Bank, Holt, Llan-y-Pwll, Pentre Maelor, Ridley Wood, Bangor-on-Dee, Gyfelia, Marchwiel, Overton, Penley, Worthenbury	Wrexham
LL12	Wrexham, Caergwrle, Cefn-y-Bedd, Cymau, Gresford, Hope, Llay, Marford, Rossett	Wrexham
LL11	Wrexham, Coedpoeth, Llandegla, Minera, Bradley, Gwersyllt, Rhosrobin, Stansty, Brymbo, Bwlchgwyn, Cymau, Ffrith, Gwynfryn, Tanyfron, Brynteg	Wrexham
LL14	Wrexham, Rhosllanerchrugog, Cefn Mawr, Ponciau, Rhostyllen, Chirk, Ruabon	Wrexham
TF6	Wrockwardine, Telford	Telford and Wrekin
SN4	Wroughton, Chiseldon, Wootton Bassett	Swindon
HP11	Wycombe Marsh	Wycombe
NE41	Wylam	Gateshead
NR18	Wymondham	Norfolk
M22	Wythenshawe, Northenden, Sharston Industrial Area	Manchester
LL56	Y Felinheli	Gwynedd
B25	Yardley	Birmingham
TS15	Yarm, Kirklevington	Stockton-on-Tees
PO41	Yarmouth	Isle of Wight
GU46	Yateley	Hart
UB4	Yeading, Hayes	Hillingdon
PL20	Yelverton, Bellever, Crapstone, Horrabridge, Postbridge, Princetown, Two Bridges	West Devon
BA20	Yeovil	South Somerset
BA21	Yeovil	South Somerset
BA22	Yeovil	South Somerset
YO1	York City Centre	York
